{"type":"FeatureCollection","features":[{"type":"Feature","geometry":{"type":"MultiPolygon","coordinates":[[[[-97.56603,30.77231],[-97.55617,30.74952],[-97.55464,30.75037],[-97.53588,30.75646],[-97.52944,30.7585],[-97.5279,30.75869],[-97.52593,30.75824],[-97.52464,30.75736],[-97.52397,30.75654],[-97.52261,30.75388],[-97.52267,30.75352],[-97.52169,30.75121],[-97.51933,30.7514],[-97.51808,30.74919],[-97.51334,30.75057],[-97.51384,30.75185],[-97.512,30.75235],[-97.51128,30.75113],[-97.51037,30.75143],[-97.51195,30.75517],[-97.50368,30.75878],[-97.4931,30.76215],[-97.49187,30.7593],[-97.48952,30.75834],[-97.48848,30.75619],[-97.48773,30.75539],[-97.48414,30.75414],[-97.48243,30.75166],[-97.48134,30.75113],[-97.47406,30.74895],[-97.46822,30.76333],[-97.43854,30.75447],[-97.43575,30.77126],[-97.43539,30.77123],[-97.43451,30.77689],[-97.43035,30.77592],[-97.42923,30.77599],[-97.42782,30.77557],[-97.4257,30.77568],[-97.42485,30.77534],[-97.42417,30.77613],[-97.42194,30.78195],[-97.42162,30.7821],[-97.42115,30.78173],[-97.40353,30.77681],[-97.40752,30.7665],[-97.40836,30.76502],[-97.40852,30.76367],[-97.40897,30.76253],[-97.40741,30.75964],[-97.40179,30.75817],[-97.40004,30.76266],[-97.39977,30.76281],[-97.3812,30.75751],[-97.37968,30.76141],[-97.36021,30.75571],[-97.35904,30.75858],[-97.33317,30.75085],[-97.33269,30.75049],[-97.32596,30.74816],[-97.31841,30.74585],[-97.3161,30.75149],[-97.30727,30.74891],[-97.30712,30.74931],[-97.30259,30.74756],[-97.29951,30.74684],[-97.29883,30.74645],[-97.29207,30.76457],[-97.28259,30.7705],[-97.27628,30.77688],[-97.27546,30.77894],[-97.278,30.7847],[-97.27503,30.78576],[-97.27752,30.79148],[-97.27797,30.79358],[-97.27801,30.79541],[-97.28238,30.7965],[-97.28213,30.79781],[-97.28234,30.79806],[-97.28439,30.79826],[-97.28563,30.79866],[-97.28727,30.80054],[-97.28777,30.80191],[-97.29085,30.80266],[-97.29432,30.80404],[-97.29674,30.79889],[-97.28949,30.81628],[-97.29009,30.81631],[-97.29175,30.81761],[-97.29203,30.81885],[-97.29318,30.81908],[-97.29495,30.82024],[-97.29827,30.82174],[-97.3001,30.82117],[-97.30183,30.82164],[-97.30246,30.82087],[-97.30307,30.82068],[-97.30457,30.82099],[-97.30662,30.82016],[-97.30607,30.81934],[-97.30677,30.81882],[-97.30715,30.81885],[-97.3076,30.81939],[-97.3081,30.81938],[-97.30877,30.81884],[-97.30981,30.81936],[-97.31032,30.81921],[-97.31103,30.82022],[-97.31183,30.82013],[-97.31201,30.8206],[-97.31263,30.82034],[-97.31254,30.81982],[-97.31282,30.81961],[-97.31302,30.81987],[-97.31066,30.82574],[-97.31951,30.82841],[-97.31966,30.8277],[-97.32356,30.82885],[-97.32207,30.83336],[-97.32301,30.83322],[-97.32437,30.83224],[-97.32508,30.8322],[-97.32556,30.83342],[-97.3253,30.8335],[-97.3252,30.83394],[-97.32606,30.83414],[-97.32661,30.83349],[-97.32763,30.83344],[-97.32784,30.83396],[-97.32822,30.83418],[-97.32843,30.83498],[-97.32979,30.83633],[-97.32991,30.83682],[-97.33125,30.83736],[-97.332,30.83734],[-97.33204,30.83697],[-97.3325,30.83668],[-97.33714,30.83714],[-97.34263,30.82287],[-97.34382,30.82299],[-97.34559,30.82245],[-97.3463,30.82273],[-97.34671,30.82252],[-97.34682,30.82223],[-97.34648,30.8213],[-97.34617,30.82096],[-97.34575,30.82109],[-97.34557,30.82091],[-97.34608,30.82014],[-97.34684,30.81995],[-97.34664,30.81926],[-97.34723,30.81933],[-97.34786,30.8198],[-97.34847,30.81977],[-97.3491,30.82018],[-97.34884,30.8205],[-97.34929,30.8207],[-97.35082,30.82019],[-97.35042,30.81965],[-97.3506,30.81938],[-97.3516,30.82025],[-97.35283,30.81993],[-97.35343,30.81906],[-97.354,30.81898],[-97.35426,30.81859],[-97.35376,30.81823],[-97.35267,30.81853],[-97.35305,30.8173],[-97.35389,30.81678],[-97.35548,30.81641],[-97.3558,30.81606],[-97.35543,30.81575],[-97.35553,30.81542],[-97.35768,30.81466],[-97.35811,30.81477],[-97.35866,30.81558],[-97.35839,30.8162],[-97.36075,30.81754],[-97.36122,30.8174],[-97.3616,30.81675],[-97.36227,30.81626],[-97.36224,30.81599],[-97.36384,30.81549],[-97.36399,30.81508],[-97.36457,30.81467],[-97.36384,30.81418],[-97.36337,30.8135],[-97.36367,30.81209],[-97.36414,30.81173],[-97.36551,30.81141],[-97.36568,30.81064],[-97.36512,30.80986],[-97.36626,30.80837],[-97.36679,30.80812],[-97.36715,30.80874],[-97.36782,30.80904],[-97.3689,30.80886],[-97.3698,30.80792],[-97.37024,30.80787],[-97.37065,30.80727],[-97.37056,30.80682],[-97.37022,30.80658],[-97.36998,30.8067],[-97.36997,30.80705],[-97.36964,30.80682],[-97.36946,30.80711],[-97.36917,30.80666],[-97.36927,30.80627],[-97.36891,30.80597],[-97.36894,30.80561],[-97.36943,30.80509],[-97.36927,30.80472],[-97.36868,30.80439],[-97.36884,30.80394],[-97.36917,30.80384],[-97.36873,30.80331],[-97.36896,30.80274],[-97.36928,30.8027],[-97.37061,30.80358],[-97.37105,30.80416],[-97.37106,30.8046],[-97.37226,30.80432],[-97.3728,30.80329],[-97.37289,30.80252],[-97.3729,30.80209],[-97.3723,30.80136],[-97.37268,30.80075],[-97.38287,30.80338],[-97.38306,30.80346],[-97.38164,30.80751],[-97.382,30.80738],[-97.39143,30.8101],[-97.38911,30.81667],[-97.38857,30.81752],[-97.38706,30.82159],[-97.39573,30.82398],[-97.39144,30.83535],[-97.3918,30.83519],[-97.3967,30.8359],[-97.40666,30.83893],[-97.40723,30.83893],[-97.40568,30.84302],[-97.41528,30.8457],[-97.41648,30.8422],[-97.41672,30.84201],[-97.42547,30.84468],[-97.42521,30.84583],[-97.43253,30.84777],[-97.4342,30.84325],[-97.44853,30.84721],[-97.44901,30.8459],[-97.4587,30.84853],[-97.45905,30.84843],[-97.45933,30.84787],[-97.45973,30.84784],[-97.46973,30.85059],[-97.46995,30.85102],[-97.46838,30.85514],[-97.47123,30.85608],[-97.46663,30.8673],[-97.47066,30.86842],[-97.4695,30.87206],[-97.47256,30.87503],[-97.47866,30.87648],[-97.47999,30.87244],[-97.49442,30.87574],[-97.49631,30.87983],[-97.49865,30.87278],[-97.50593,30.87054],[-97.50655,30.87203],[-97.50713,30.87209],[-97.51932,30.86821],[-97.51569,30.85951],[-97.51239,30.86039],[-97.51478,30.85414],[-97.532,30.85855],[-97.53312,30.85442],[-97.53976,30.85217],[-97.53838,30.84915],[-97.53592,30.84644],[-97.53529,30.84535],[-97.53532,30.84419],[-97.53604,30.84188],[-97.53606,30.83973],[-97.53674,30.83838],[-97.53588,30.83774],[-97.53518,30.83614],[-97.48326,30.81638],[-97.50514,30.813],[-97.51413,30.81546],[-97.51653,30.81154],[-97.51626,30.81113],[-97.51451,30.81095],[-97.51431,30.81065],[-97.52455,30.78367],[-97.53669,30.78726],[-97.55224,30.78265],[-97.55552,30.79026],[-97.55613,30.79107],[-97.55953,30.79],[-97.55576,30.78016],[-97.55762,30.77959],[-97.55593,30.77565],[-97.56603,30.77231]]],[[[-97.27386,30.78311],[-97.27061,30.77555],[-97.26955,30.77822],[-97.25883,30.77525],[-97.25719,30.77933],[-97.26164,30.78108],[-97.26052,30.78367],[-97.2678,30.78707],[-97.26855,30.78479],[-97.26901,30.78456],[-97.27077,30.78821],[-97.27145,30.78773],[-97.27085,30.78616],[-97.2716,30.78574],[-97.27092,30.78397],[-97.27386,30.78311]]]]},"properties":{"zip_code":"76511","county":"Williamson"}}]}