{"type":"FeatureCollection","features":[{"type":"Feature","geometry":{"type":"Polygon","coordinates":[[[-97.93982,30.80608],[-97.93969,30.8055],[-97.93746,30.80359],[-97.93455,30.80467],[-97.93391,30.8055],[-97.93272,30.80536],[-97.9319,30.80586],[-97.93155,30.80648],[-97.92896,30.80662],[-97.92838,30.80685],[-97.9278,30.80665],[-97.92631,30.80525],[-97.92681,30.8045],[-97.9266,30.80368],[-97.92603,30.80341],[-97.9265,30.80161],[-97.92826,30.80052],[-97.92894,30.79911],[-97.93017,30.79876],[-97.93087,30.79781],[-97.93173,30.79715],[-97.93161,30.79666],[-97.93104,30.79643],[-97.92983,30.79644],[-97.92929,30.79606],[-97.91828,30.79943],[-97.9135,30.78785],[-97.8987,30.79253],[-97.89776,30.79027],[-97.8974,30.7845],[-97.89599,30.78299],[-97.89102,30.77976],[-97.89072,30.77889],[-97.89028,30.77435],[-97.8888,30.77179],[-97.88822,30.77148],[-97.85996,30.7801],[-97.85772,30.78124],[-97.85528,30.78159],[-97.846,30.78445],[-97.84515,30.7849],[-97.8442,30.78614],[-97.84413,30.78749],[-97.84978,30.80105],[-97.84996,30.80255],[-97.84926,30.80402],[-97.84818,30.80486],[-97.84185,30.80665],[-97.83804,30.79732],[-97.82799,30.79996],[-97.82407,30.79335],[-97.81922,30.79484],[-97.81369,30.78178],[-97.82371,30.77914],[-97.81957,30.77192],[-97.81822,30.77223],[-97.81677,30.77208],[-97.81547,30.77147],[-97.81467,30.77064],[-97.80612,30.75059],[-97.79711,30.75345],[-97.79702,30.75371],[-97.79836,30.75666],[-97.7847,30.76107],[-97.78644,30.76511],[-97.78476,30.76592],[-97.78475,30.76615],[-97.78419,30.76625],[-97.78357,30.76699],[-97.78373,30.76743],[-97.78341,30.7681],[-97.78105,30.76997],[-97.7799,30.7695],[-97.77896,30.76949],[-97.77769,30.7688],[-97.77593,30.76895],[-97.77486,30.76877],[-97.77434,30.76762],[-97.77275,30.76744],[-97.77151,30.76756],[-97.77062,30.76872],[-97.76948,30.76898],[-97.76901,30.76941],[-97.76808,30.76955],[-97.7676,30.76927],[-97.76664,30.76922],[-97.76525,30.76966],[-97.76421,30.77057],[-97.76364,30.7706],[-97.76274,30.77024],[-97.76273,30.76965],[-97.76157,30.76902],[-97.76143,30.7684],[-97.76088,30.76801],[-97.76068,30.76769],[-97.76092,30.76697],[-97.76063,30.76612],[-97.75954,30.76536],[-97.75731,30.76451],[-97.75621,30.76435],[-97.7558,30.76454],[-97.75587,30.76481],[-97.75797,30.76997],[-97.7533,30.77286],[-97.74585,30.7636],[-97.74461,30.76293],[-97.73414,30.75913],[-97.73584,30.75794],[-97.73609,30.75683],[-97.73587,30.75622],[-97.73432,30.75668],[-97.73199,30.75093],[-97.72068,30.75441],[-97.71244,30.74976],[-97.72025,30.75675],[-97.71759,30.7586],[-97.71184,30.76041],[-97.71041,30.76112],[-97.70665,30.76485],[-97.70205,30.76655],[-97.70414,30.77255],[-97.71707,30.8037],[-97.70372,30.80821],[-97.70207,30.8035],[-97.69106,30.80709],[-97.69201,30.80946],[-97.69126,30.80929],[-97.69069,30.80947],[-97.69032,30.81094],[-97.6903,30.81248],[-97.68951,30.8127],[-97.68796,30.81419],[-97.68679,30.81387],[-97.68566,30.8147],[-97.68451,30.81504],[-97.68466,30.81683],[-97.68443,30.8171],[-97.68275,30.81692],[-97.68235,30.81706],[-97.68191,30.81763],[-97.68179,30.81885],[-97.68262,30.8191],[-97.6846,30.81934],[-97.68749,30.81873],[-97.68847,30.819],[-97.68896,30.8195],[-97.6813,30.82194],[-97.68295,30.82527],[-97.68272,30.82534],[-97.68764,30.83683],[-97.66605,30.8437],[-97.6803,30.87908],[-97.70549,30.88348],[-97.70666,30.88656],[-97.70612,30.88645],[-97.71214,30.9004],[-97.71019,30.90205],[-97.71143,30.90445],[-97.70819,30.90476],[-97.70904,30.90774],[-97.71495,30.90606],[-97.71401,30.90385],[-97.71517,30.90347],[-97.71865,30.90298],[-97.71883,30.90625],[-97.71832,30.90911],[-97.71754,30.90955],[-97.71531,30.91159],[-97.71113,30.91305],[-97.71082,30.91338],[-97.71121,30.91437],[-97.71185,30.918],[-97.71378,30.91975],[-97.71433,30.92209],[-97.71421,30.92341],[-97.71742,30.93118],[-97.71885,30.93032],[-97.7219,30.92911],[-97.72251,30.92822],[-97.72253,30.92712],[-97.72322,30.92669],[-97.73279,30.92411],[-97.74419,30.92051],[-97.7478,30.91988],[-97.74973,30.91867],[-97.75507,30.9198],[-97.7572,30.91844],[-97.76174,30.91483],[-97.76285,30.91441],[-97.76762,30.91321],[-97.76835,30.91478],[-97.7725,30.91366],[-97.76932,30.90535],[-97.77095,30.90495],[-97.77261,30.90896],[-97.77825,30.90728],[-97.77552,30.90072],[-97.77397,30.90269],[-97.77243,30.89932],[-97.77164,30.89922],[-97.77023,30.89646],[-97.77426,30.89517],[-97.8281,30.90441],[-97.83382,30.89944],[-97.83401,30.90064],[-97.83369,30.90166],[-97.83507,30.90505],[-97.83549,30.90671],[-97.83669,30.90685],[-97.83709,30.90666],[-97.83873,30.90442],[-97.83995,30.90343],[-97.84179,30.90293],[-97.84211,30.90352],[-97.84182,30.90476],[-97.84373,30.90682],[-97.84396,30.90749],[-97.84453,30.90777],[-97.84669,30.907],[-97.84887,30.90801],[-97.84983,30.90712],[-97.85125,30.90766],[-97.85213,30.90767],[-97.85375,30.90857],[-97.85401,30.9083],[-97.85448,30.90596],[-97.85452,30.90129],[-97.85684,30.9004],[-97.85495,30.89562],[-97.85599,30.89508],[-97.85742,30.89747],[-97.86864,30.893],[-97.86829,30.89007],[-97.87614,30.88899],[-97.87709,30.89117],[-97.88586,30.88858],[-97.88544,30.888],[-97.88591,30.8869],[-97.88544,30.88671],[-97.88569,30.88637],[-97.88603,30.88633],[-97.88584,30.88537],[-97.88673,30.88419],[-97.88651,30.88389],[-97.88724,30.88325],[-97.88716,30.88223],[-97.88796,30.8811],[-97.88747,30.88057],[-97.88756,30.8798],[-97.88791,30.87928],[-97.88793,30.87824],[-97.88822,30.87791],[-97.88806,30.87708],[-97.88836,30.87671],[-97.88846,30.87602],[-97.88778,30.87518],[-97.88609,30.87427],[-97.88586,30.87353],[-97.88527,30.87328],[-97.88546,30.87279],[-97.88697,30.8729],[-97.88783,30.87257],[-97.88857,30.8716],[-97.88852,30.87016],[-97.88783,30.86887],[-97.88786,30.86794],[-97.88866,30.86775],[-97.88879,30.86747],[-97.88941,30.86745],[-97.93417,30.85347],[-97.93448,30.85357],[-97.93495,30.85468],[-97.93828,30.85359],[-97.93233,30.83942],[-97.93166,30.83666],[-97.92924,30.83076],[-97.92764,30.83077],[-97.91289,30.83495],[-97.91014,30.83603],[-97.90413,30.83789],[-97.93955,30.80654],[-97.93982,30.80608]]]},"properties":{"zip_code":"76527","county":"Williamson"}}]}