{"type":"FeatureCollection","features":[{"type":"Feature","geometry":{"type":"Polygon","coordinates":[[[-97.57607,30.74045],[-97.57577,30.73994],[-97.57519,30.73959],[-97.57112,30.73944],[-97.56915,30.73756],[-97.56723,30.73661],[-97.56572,30.73554],[-97.56527,30.73464],[-97.56515,30.73348],[-97.56458,30.73256],[-97.5629,30.72819],[-97.5622,30.72734],[-97.56044,30.72672],[-97.55849,30.72409],[-97.55752,30.72385],[-97.55618,30.72449],[-97.55429,30.72492],[-97.55289,30.72486],[-97.54979,30.72391],[-97.54919,30.72055],[-97.54784,30.71877],[-97.54949,30.71613],[-97.55134,30.71602],[-97.55169,30.71578],[-97.55272,30.71312],[-97.55374,30.71172],[-97.55596,30.70619],[-97.55561,30.70504],[-97.55752,30.70443],[-97.55508,30.6976],[-97.55916,30.69622],[-97.55669,30.69047],[-97.55384,30.69135],[-97.55452,30.68821],[-97.55298,30.68435],[-97.54996,30.68346],[-97.5495,30.6831],[-97.54618,30.68428],[-97.54513,30.68201],[-97.53196,30.67797],[-97.52646,30.69147],[-97.50329,30.6846],[-97.50151,30.68476],[-97.49356,30.68787],[-97.49029,30.67994],[-97.4918,30.67798],[-97.49615,30.66697],[-97.48338,30.66315],[-97.4825,30.66272],[-97.47129,30.63622],[-97.46853,30.6367],[-97.46535,30.63768],[-97.46619,30.63665],[-97.46592,30.63551],[-97.46485,30.63512],[-97.46427,30.63443],[-97.463,30.6345],[-97.46177,30.63303],[-97.46097,30.63256],[-97.46174,30.63162],[-97.46272,30.63109],[-97.4649,30.63128],[-97.46564,30.63204],[-97.46633,30.63231],[-97.468,30.63286],[-97.46963,30.63297],[-97.47069,30.63215],[-97.47086,30.63143],[-97.47173,30.63028],[-97.47317,30.62933],[-97.47162,30.6302],[-97.47103,30.63094],[-97.47054,30.63214],[-97.46978,30.63283],[-97.46855,30.63285],[-97.46589,30.63208],[-97.46474,30.63112],[-97.46255,30.63096],[-97.46177,30.63136],[-97.45994,30.63357],[-97.457,30.63443],[-97.4551,30.63634],[-97.45515,30.63704],[-97.45616,30.63785],[-97.45745,30.63778],[-97.45765,30.63819],[-97.45725,30.63966],[-97.45608,30.64064],[-97.45269,30.64058],[-97.45193,30.64017],[-97.45098,30.64024],[-97.44973,30.63997],[-97.4495,30.64107],[-97.44884,30.64219],[-97.44787,30.64316],[-97.44595,30.64359],[-97.4451,30.64343],[-97.44335,30.64395],[-97.44192,30.64498],[-97.43952,30.64419],[-97.43683,30.64475],[-97.43427,30.6443],[-97.43347,30.64443],[-97.43119,30.64619],[-97.4309,30.64701],[-97.43091,30.6474],[-97.43223,30.64925],[-97.43221,30.64979],[-97.43123,30.65014],[-97.43055,30.65004],[-97.4291,30.65065],[-97.42847,30.65139],[-97.42636,30.6503],[-97.42694,30.64854],[-97.42684,30.64788],[-97.42632,30.64721],[-97.42594,30.64701],[-97.42515,30.64776],[-97.42203,30.64836],[-97.41991,30.64734],[-97.41993,30.64698],[-97.42059,30.64612],[-97.42066,30.64469],[-97.41971,30.64452],[-97.41836,30.64475],[-97.41711,30.64604],[-97.41581,30.64806],[-97.41592,30.64941],[-97.41647,30.65065],[-97.41634,30.6513],[-97.41554,30.65228],[-97.4135,30.65283],[-97.4111,30.65259],[-97.40819,30.65169],[-97.40569,30.65289],[-97.40556,30.65349],[-97.40606,30.65392],[-97.40602,30.65445],[-97.40523,30.6551],[-97.40509,30.65563],[-97.40557,30.6566],[-97.4065,30.65693],[-97.40725,30.65768],[-97.40758,30.65896],[-97.40652,30.65933],[-97.40393,30.65932],[-97.40067,30.65985],[-97.39925,30.66035],[-97.39894,30.66113],[-97.39927,30.66186],[-97.40185,30.66252],[-97.40373,30.66402],[-97.40415,30.66477],[-97.40362,30.66561],[-97.40281,30.6657],[-97.40175,30.66504],[-97.3993,30.6644],[-97.39834,30.6643],[-97.39821,30.66475],[-97.3973,30.66464],[-97.39671,30.66425],[-97.39286,30.66403],[-97.38769,30.66438],[-97.38613,30.66505],[-97.38423,30.66763],[-97.38207,30.66959],[-97.37864,30.66966],[-97.37721,30.67016],[-97.37649,30.67081],[-97.37561,30.67193],[-97.37416,30.67456],[-97.37268,30.67603],[-97.37105,30.67692],[-97.37069,30.67754],[-97.36921,30.67858],[-97.36879,30.67913],[-97.36862,30.68047],[-97.36577,30.68358],[-97.36431,30.68612],[-97.36217,30.68782],[-97.35938,30.68813],[-97.35783,30.68806],[-97.35142,30.69166],[-97.34884,30.69561],[-97.34452,30.69635],[-97.3423,30.69861],[-97.34072,30.70086],[-97.33923,30.70159],[-97.33098,30.70184],[-97.3222,30.6987],[-97.31914,30.69828],[-97.31704,30.69853],[-97.31452,30.6994],[-97.31298,30.69949],[-97.31095,30.70154],[-97.31058,30.70152],[-97.30883,30.69971],[-97.30729,30.6995],[-97.30685,30.69871],[-97.30656,30.69743],[-97.3053,30.6969],[-97.30358,30.6957],[-97.30237,30.69552],[-97.30143,30.69598],[-97.30165,30.69681],[-97.30152,30.6978],[-97.30093,30.69824],[-97.3,30.69838],[-97.29967,30.69896],[-97.30018,30.70207],[-97.2991,30.70316],[-97.29786,30.70357],[-97.29689,30.70272],[-97.29644,30.70154],[-97.29665,30.70038],[-97.2962,30.69891],[-97.29654,30.69796],[-97.29643,30.69763],[-97.29586,30.69729],[-97.29292,30.6966],[-97.29253,30.6961],[-97.29238,30.69516],[-97.29125,30.69522],[-97.29102,30.69591],[-97.29067,30.69616],[-97.28806,30.6965],[-97.28387,30.69842],[-97.28328,30.69797],[-97.28311,30.6962],[-97.28234,30.6955],[-97.28229,30.69463],[-97.28195,30.69421],[-97.27977,30.69406],[-97.27706,30.6962],[-97.27601,30.69652],[-97.27493,30.69648],[-97.27421,30.69621],[-97.2738,30.69564],[-97.27394,30.69398],[-97.27342,30.69328],[-97.27184,30.69509],[-97.27094,30.69543],[-97.26975,30.69516],[-97.26937,30.69415],[-97.26893,30.69393],[-97.26666,30.69467],[-97.26502,30.69736],[-97.26379,30.69824],[-97.26382,30.69911],[-97.2635,30.69976],[-97.26278,30.70016],[-97.26051,30.70033],[-97.26005,30.69995],[-97.26004,30.69952],[-97.26056,30.69829],[-97.2606,30.69667],[-97.26123,30.69626],[-97.26222,30.69606],[-97.26293,30.6951],[-97.26296,30.69422],[-97.26235,30.69265],[-97.25957,30.69263],[-97.25884,30.69382],[-97.25822,30.69396],[-97.25767,30.69367],[-97.25648,30.6923],[-97.25537,30.69198],[-97.25293,30.69343],[-97.25241,30.69347],[-97.26995,30.73536],[-97.30712,30.74931],[-97.30727,30.74891],[-97.31602,30.75149],[-97.31625,30.75135],[-97.31841,30.74585],[-97.32596,30.74816],[-97.33269,30.75049],[-97.33317,30.75085],[-97.35904,30.75858],[-97.36021,30.75571],[-97.37968,30.76141],[-97.3812,30.75751],[-97.39977,30.76281],[-97.40004,30.76266],[-97.40179,30.75817],[-97.40741,30.75964],[-97.40897,30.76253],[-97.40852,30.76367],[-97.40836,30.76502],[-97.40752,30.7665],[-97.40353,30.77681],[-97.42115,30.78173],[-97.42162,30.7821],[-97.42194,30.78195],[-97.42417,30.77613],[-97.42485,30.77534],[-97.4257,30.77568],[-97.42782,30.77557],[-97.42923,30.77599],[-97.43035,30.77592],[-97.43451,30.77689],[-97.43539,30.77123],[-97.43575,30.77126],[-97.43854,30.75447],[-97.46822,30.76333],[-97.47406,30.74895],[-97.48134,30.75113],[-97.48243,30.75166],[-97.48414,30.75414],[-97.48773,30.75539],[-97.48848,30.75619],[-97.48952,30.75834],[-97.49187,30.7593],[-97.4931,30.76215],[-97.50368,30.75878],[-97.51195,30.75517],[-97.51037,30.75143],[-97.51128,30.75113],[-97.512,30.75235],[-97.51384,30.75185],[-97.51334,30.75057],[-97.51808,30.74919],[-97.51933,30.7514],[-97.52169,30.75121],[-97.52267,30.75352],[-97.52261,30.75388],[-97.52397,30.75654],[-97.52464,30.75736],[-97.52593,30.75824],[-97.5279,30.75869],[-97.52944,30.7585],[-97.53588,30.75646],[-97.55464,30.75037],[-97.55617,30.74952],[-97.56603,30.77231],[-97.56644,30.77215],[-97.55687,30.74881],[-97.55792,30.74784],[-97.55882,30.74739],[-97.56996,30.74396],[-97.57283,30.74161],[-97.57607,30.74045]]]},"properties":{"zip_code":"76530","county":"Williamson"}}]}