{"type":"FeatureCollection","features":[{"type":"Feature","geometry":{"type":"Polygon","coordinates":[[[-98.12957,31.09741],[-98.13001,31.09686],[-98.12892,31.09644],[-98.12253,31.09664],[-98.09908,31.09888],[-98.09309,31.09684],[-98.09362,31.09951],[-98.08738,31.09962],[-98.08681,31.09676],[-98.08146,31.09812],[-98.08269,31.10128],[-98.06114,31.10758],[-98.05859,31.10158],[-98.04931,31.10452],[-98.04703,31.106],[-98.0486,31.10439],[-98.04748,31.10246],[-98.04411,31.10282],[-98.04336,31.10032],[-98.04162,31.09845],[-98.03778,31.09547],[-98.03428,31.09456],[-98.03376,31.09048],[-98.03006,31.08559],[-98.03445,31.08167],[-98.03894,31.08089],[-98.04098,31.0821],[-98.04408,31.08137],[-98.04565,31.08523],[-98.04916,31.08469],[-98.05103,31.08546],[-98.05096,31.08316],[-98.04716,31.07427],[-98.05575,31.06937],[-98.06167,31.06027],[-98.05883,31.0549],[-98.05097,31.05715],[-98.04939,31.0538],[-98.04594,31.05313],[-98.04689,31.05143],[-98.04452,31.04794],[-98.04329,31.04231],[-98.05065,31.0359],[-98.05113,31.03329],[-98.03088,31.03352],[-98.02983,31.03102],[-98.0293,31.03139],[-98.02001,31.0095],[-98.04239,31.00266],[-98.04027,30.99759],[-98.03796,30.99817],[-98.0348,30.99025],[-98.01809,30.99549],[-98.0157,30.9895],[-98.00842,30.99188],[-98.00468,30.98324],[-98.00195,30.98058],[-98.00072,30.97614],[-98.00063,30.97556],[-98.00282,30.97458],[-98.00448,30.97167],[-98.00387,30.96772],[-97.99814,30.96919],[-97.98968,30.96814],[-97.98293,30.9692],[-97.98112,30.96814],[-97.97947,30.96576],[-97.97437,30.96455],[-97.9683,30.96513],[-97.96267,30.96407],[-97.95996,30.96256],[-97.96232,30.96817],[-97.9641,30.97032],[-97.96328,30.97314],[-97.9644,30.9744],[-97.9689,30.9764],[-97.96889,30.98157],[-97.9665,30.97988],[-97.96421,30.98208],[-97.962,30.98105],[-97.95892,30.98153],[-97.9582,30.98337],[-97.9593,30.9875],[-97.95486,30.98815],[-97.95218,30.99014],[-97.94954,30.99035],[-97.94884,30.99097],[-97.94971,30.99217],[-97.94982,30.99517],[-97.94742,30.99714],[-97.93992,30.99561],[-97.93623,30.99584],[-97.93528,30.99729],[-97.93423,30.99749],[-97.92674,30.99472],[-97.92594,30.99332],[-97.92886,30.99234],[-97.92877,30.98888],[-97.92745,30.9862],[-97.92682,30.9854],[-97.92511,30.98645],[-97.92373,30.98621],[-97.91815,30.97789],[-97.91219,30.97193],[-97.90354,30.97458],[-97.9032,30.97633],[-97.90445,30.97751],[-97.90249,30.97958],[-97.90342,30.98193],[-97.90308,30.98947],[-97.90379,30.98974],[-97.90334,30.99036],[-97.90825,30.99337],[-97.9124,30.99982],[-97.91179,31.00182],[-97.91313,31.00333],[-97.91106,31.00542],[-97.91037,31.0074],[-97.90953,31.00581],[-97.90739,31.00716],[-97.91292,31.01784],[-97.9112,31.01808],[-97.90539,31.00843],[-97.9026,31.00812],[-97.90095,31.01172],[-97.90015,31.01616],[-97.90281,31.01869],[-97.90165,31.02162],[-97.90482,31.02581],[-97.89849,31.02869],[-97.89507,31.02338],[-97.89019,31.02497],[-97.89322,31.02655],[-97.89398,31.02823],[-97.89181,31.02957],[-97.89064,31.02816],[-97.88991,31.02836],[-97.88959,31.0306],[-97.88759,31.03244],[-97.88812,31.03497],[-97.88732,31.03607],[-97.8867,31.04053],[-97.88211,31.04203],[-97.88359,31.0467],[-97.8739,31.04957],[-97.87439,31.05087],[-97.86943,31.05534],[-97.86797,31.05326],[-97.86639,31.05593],[-97.87019,31.05696],[-97.87068,31.05627],[-97.87166,31.05702],[-97.8744,31.05987],[-97.87297,31.06025],[-97.87355,31.062],[-97.87519,31.06154],[-97.87653,31.06394],[-97.8801,31.06739],[-97.88313,31.07851],[-97.88166,31.07827],[-97.87863,31.08603],[-97.88497,31.08803],[-97.87997,31.10011],[-97.88732,31.10214],[-97.89284,31.10077],[-97.8976,31.09738],[-97.90157,31.09598],[-97.90275,31.09269],[-97.89868,31.09136],[-97.89979,31.08866],[-97.90086,31.08899],[-97.90115,31.08803],[-97.90231,31.08777],[-97.90163,31.08698],[-97.90312,31.08306],[-97.90074,31.0798],[-97.90023,31.07641],[-97.89767,31.07414],[-97.9071,31.06937],[-97.91533,31.08166],[-97.92053,31.07927],[-97.9249,31.07977],[-97.92469,31.07879],[-97.92735,31.0788],[-97.92733,31.07779],[-97.93514,31.07543],[-97.93482,31.07459],[-97.93868,31.07255],[-97.94156,31.08017],[-97.93952,31.08057],[-97.94158,31.08586],[-97.94685,31.08423],[-97.94721,31.08504],[-97.94841,31.08473],[-97.95557,31.08219],[-97.95837,31.08228],[-97.96137,31.0807],[-97.96162,31.07798],[-97.96344,31.07767],[-97.9602,31.0698],[-97.95762,31.0706],[-97.95872,31.06826],[-97.95466,31.06742],[-97.95215,31.06381],[-97.9547,31.06377],[-97.95965,31.06622],[-97.97048,31.06829],[-97.97008,31.07012],[-97.97103,31.07026],[-97.97097,31.0711],[-97.97891,31.07359],[-97.97907,31.07479],[-97.98236,31.07467],[-97.98206,31.07202],[-97.98262,31.07229],[-97.98306,31.07641],[-97.98247,31.07654],[-97.98244,31.07955],[-97.98953,31.07927],[-97.98762,31.082],[-97.99074,31.08332],[-97.99016,31.08518],[-97.9884,31.08701],[-97.98898,31.08824],[-97.97752,31.10053],[-97.97042,31.10553],[-97.95986,31.11685],[-97.95154,31.12117],[-97.95025,31.12368],[-97.95029,31.13126],[-97.94863,31.13704],[-97.93995,31.14424],[-97.94872,31.1378],[-97.95108,31.13834],[-97.95056,31.14096],[-97.95566,31.14249],[-97.954,31.14805],[-97.95722,31.14934],[-97.9569,31.15065],[-97.95792,31.15167],[-97.96512,31.15369],[-97.96711,31.15765],[-97.96801,31.1578],[-98.00535,31.21225],[-98.02238,31.207],[-98.02395,31.20552],[-98.03137,31.21951],[-98.04722,31.21536],[-98.04841,31.21729],[-98.05495,31.2155],[-98.06987,31.21696],[-98.07411,31.22635],[-98.08975,31.22216],[-98.08948,31.21887],[-98.08732,31.21707],[-98.08674,31.21374],[-98.09014,31.20793],[-98.08999,31.20522],[-98.09108,31.20357],[-98.08673,31.19866],[-98.08641,31.19592],[-98.08768,31.19491],[-98.08906,31.19003],[-98.08664,31.18561],[-98.08058,31.18168],[-98.07725,31.18223],[-98.07503,31.18113],[-98.07225,31.18093],[-98.06971,31.17597],[-98.06903,31.17285],[-98.07876,31.16739],[-98.07928,31.1628],[-98.0821,31.1594],[-98.10008,31.15395],[-98.09641,31.14389],[-98.09791,31.14245],[-98.10341,31.14048],[-98.10488,31.13923],[-98.1028,31.13689],[-98.10358,31.13582],[-98.10638,31.13475],[-98.10362,31.12771],[-98.115,31.12544],[-98.11685,31.12412],[-98.11076,31.11245],[-98.10743,31.11375],[-98.10671,31.11568],[-98.10489,31.11432],[-98.10282,31.11462],[-98.10231,31.11227],[-98.10036,31.11271],[-98.10077,31.11496],[-98.09749,31.11543],[-98.09563,31.11244],[-98.10577,31.11117],[-98.11203,31.10833],[-98.11752,31.10745],[-98.12635,31.10255],[-98.12957,31.09741]]]},"properties":{"zip_code":"76539","county":"Burnet"}}]}