{"type":"FeatureCollection","features":[{"type":"Feature","geometry":{"type":"Polygon","coordinates":[[[-97.69184,30.80947],[-97.69201,30.80946],[-97.69106,30.80709],[-97.68384,30.7897],[-97.68038,30.79146],[-97.67014,30.79572],[-97.66543,30.7844],[-97.6523,30.78858],[-97.6522,30.78881],[-97.6537,30.79248],[-97.64334,30.79578],[-97.63358,30.77262],[-97.62848,30.77418],[-97.6273,30.774],[-97.6267,30.7758],[-97.62543,30.77621],[-97.62606,30.77372],[-97.62496,30.77338],[-97.62428,30.77192],[-97.61904,30.77353],[-97.61273,30.75862],[-97.61221,30.75802],[-97.61163,30.75793],[-97.6036,30.7603],[-97.59578,30.76291],[-97.59567,30.7624],[-97.59606,30.76143],[-97.59566,30.76081],[-97.59348,30.76006],[-97.59155,30.75834],[-97.59137,30.75599],[-97.59039,30.75569],[-97.58954,30.75473],[-97.58836,30.75467],[-97.58798,30.75436],[-97.58176,30.75634],[-97.58363,30.7614],[-97.57892,30.76296],[-97.58088,30.7675],[-97.57904,30.76822],[-97.58019,30.7709],[-97.56761,30.77494],[-97.56644,30.77215],[-97.55593,30.77565],[-97.55762,30.77959],[-97.55576,30.78016],[-97.55953,30.79],[-97.55594,30.79104],[-97.55219,30.78264],[-97.53669,30.78726],[-97.52455,30.78367],[-97.51431,30.81065],[-97.51451,30.81095],[-97.51626,30.81113],[-97.51652,30.81157],[-97.51426,30.8151],[-97.51349,30.81707],[-97.51408,30.81741],[-97.51058,30.82655],[-97.51301,30.82736],[-97.51307,30.82771],[-97.62405,30.87],[-97.65397,30.87463],[-97.6803,30.87908],[-97.66605,30.8437],[-97.68764,30.83683],[-97.68272,30.82534],[-97.68295,30.82527],[-97.6813,30.82194],[-97.68896,30.8195],[-97.68847,30.819],[-97.68749,30.81873],[-97.68499,30.81931],[-97.68349,30.8193],[-97.68179,30.81885],[-97.6818,30.81832],[-97.68195,30.81754],[-97.68235,30.81706],[-97.68452,30.81703],[-97.68451,30.81504],[-97.68566,30.8147],[-97.68679,30.81387],[-97.68796,30.81419],[-97.68951,30.8127],[-97.6903,30.81248],[-97.69032,30.81094],[-97.69069,30.80947],[-97.69126,30.80929],[-97.69184,30.80947]]]},"properties":{"zip_code":"76537","county":"Williamson"}}]}