{"type":"FeatureCollection","features":[{"type":"Feature","geometry":{"type":"Polygon","coordinates":[[[-97.91313,31.00333],[-97.91179,31.00182],[-97.9124,30.99982],[-97.90965,30.99511],[-97.90761,30.99274],[-97.90334,30.99036],[-97.90379,30.98974],[-97.90308,30.98947],[-97.90342,30.98193],[-97.90249,30.97958],[-97.90445,30.97751],[-97.9032,30.97633],[-97.90354,30.97458],[-97.91219,30.97193],[-97.90453,30.96112],[-97.90125,30.9591],[-97.88799,30.96369],[-97.88509,30.96361],[-97.87886,30.96848],[-97.87786,30.96807],[-97.87771,30.96602],[-97.88059,30.96368],[-97.87622,30.96322],[-97.87672,30.96291],[-97.87589,30.96111],[-97.87776,30.96091],[-97.87783,30.95932],[-97.87476,30.9585],[-97.87515,30.95583],[-97.87366,30.95438],[-97.87394,30.95373],[-97.876,30.95372],[-97.87616,30.95293],[-97.87462,30.95218],[-97.86208,30.95616],[-97.86261,30.95773],[-97.86098,30.9567],[-97.86217,30.95469],[-97.86749,30.94975],[-97.86356,30.94468],[-97.86453,30.94164],[-97.86761,30.93803],[-97.86599,30.935],[-97.86261,30.93371],[-97.86099,30.93131],[-97.86085,30.92711],[-97.86304,30.92419],[-97.86162,30.92357],[-97.86163,30.9222],[-97.85978,30.91945],[-97.85793,30.91841],[-97.85689,30.91504],[-97.85692,30.91071],[-97.85473,30.90855],[-97.85555,30.90555],[-97.85462,30.90202],[-97.8536,30.90857],[-97.84983,30.90712],[-97.84887,30.90801],[-97.84669,30.907],[-97.84396,30.90749],[-97.84182,30.90476],[-97.84179,30.90293],[-97.83995,30.90343],[-97.83709,30.90666],[-97.83549,30.90671],[-97.83369,30.90166],[-97.83382,30.89944],[-97.8281,30.90441],[-97.80075,30.8997],[-97.80123,30.906],[-97.79656,30.91635],[-97.79293,30.92812],[-97.79208,30.93425],[-97.78995,30.93788],[-97.78655,30.94095],[-97.78507,30.94399],[-97.78653,30.95457],[-97.78446,30.958],[-97.78514,30.95912],[-97.78193,30.96357],[-97.78152,30.96729],[-97.78062,30.96721],[-97.78082,30.96978],[-97.77877,30.97252],[-97.77959,30.97325],[-97.77786,30.97417],[-97.77616,30.97696],[-97.77677,30.97738],[-97.77375,30.98005],[-97.76343,30.99596],[-97.76221,30.99535],[-97.76145,30.99651],[-97.76237,30.99699],[-97.76154,30.99858],[-97.76037,30.99993],[-97.75874,30.99937],[-97.75641,31.00198],[-97.75767,31.003],[-97.75578,31.00517],[-97.7537,31.00563],[-97.75473,31.00757],[-97.75783,31.00727],[-97.75872,31.00852],[-97.75685,31.00874],[-97.75791,31.00954],[-97.75671,31.00875],[-97.75611,31.00993],[-97.75369,31.01072],[-97.75387,31.01135],[-97.75255,31.01164],[-97.75286,31.01317],[-97.75968,31.01171],[-97.76098,31.01462],[-97.75352,31.01736],[-97.7547,31.02308],[-97.75963,31.03629],[-97.75994,31.04397],[-97.76573,31.05708],[-97.76593,31.05928],[-97.76094,31.07198],[-97.76225,31.07273],[-97.76203,31.0733],[-97.76087,31.07439],[-97.76007,31.07755],[-97.75845,31.07711],[-97.75618,31.08468],[-97.75784,31.08511],[-97.75749,31.08629],[-97.75935,31.0873],[-97.7589,31.08846],[-97.75519,31.08786],[-97.74988,31.1032],[-97.75283,31.10411],[-97.75113,31.10851],[-97.74973,31.10809],[-97.74919,31.10935],[-97.75057,31.10992],[-97.75034,31.11043],[-97.75873,31.11268],[-97.76113,31.11436],[-97.76315,31.11333],[-97.77516,31.11689],[-97.77583,31.11519],[-97.77889,31.11551],[-97.78001,31.11219],[-97.78112,31.11122],[-97.79761,31.11593],[-97.79837,31.11629],[-97.79693,31.12042],[-97.78972,31.12242],[-97.79825,31.12173],[-97.79877,31.12503],[-97.80477,31.12182],[-97.8135,31.12131],[-97.81388,31.11768],[-97.81304,31.1177],[-97.8796,31.08355],[-97.88166,31.07827],[-97.88313,31.07851],[-97.8801,31.06739],[-97.87653,31.06394],[-97.87519,31.06154],[-97.87355,31.062],[-97.87297,31.06025],[-97.8744,31.05987],[-97.87166,31.05702],[-97.87068,31.05627],[-97.87019,31.05696],[-97.86639,31.05593],[-97.86797,31.05326],[-97.86943,31.05534],[-97.87439,31.05087],[-97.8739,31.04957],[-97.88359,31.0467],[-97.88211,31.04203],[-97.8867,31.04053],[-97.88732,31.03607],[-97.88812,31.03497],[-97.88759,31.03244],[-97.88959,31.0306],[-97.88991,31.02836],[-97.89064,31.02816],[-97.89181,31.02957],[-97.89398,31.02823],[-97.89322,31.02655],[-97.89019,31.02497],[-97.89507,31.02338],[-97.89849,31.02869],[-97.90482,31.02581],[-97.90165,31.02162],[-97.90281,31.01869],[-97.90015,31.01616],[-97.90095,31.01172],[-97.9026,31.00812],[-97.90539,31.00843],[-97.9112,31.01808],[-97.91292,31.01784],[-97.90739,31.00716],[-97.90953,31.00581],[-97.91037,31.0074],[-97.91106,31.00542],[-97.91313,31.00333]]]},"properties":{"zip_code":"76549","county":"Burnet"}}]}