{"type":"FeatureCollection","features":[{"type":"Feature","geometry":{"type":"Polygon","coordinates":[[[-98.51527,31.10074],[-98.51437,31.10031],[-98.51182,31.10629],[-98.50637,31.10796],[-98.50462,31.10941],[-98.50083,31.11741],[-98.49864,31.11862],[-98.49361,31.1186],[-98.49029,31.11502],[-98.48825,31.11416],[-98.48578,31.11534],[-98.48288,31.11876],[-98.48077,31.11922],[-98.47361,31.10946],[-98.47002,31.10689],[-98.46673,31.1071],[-98.45974,31.11198],[-98.45695,31.11201],[-98.4556,31.11091],[-98.45573,31.10696],[-98.46146,31.10117],[-98.46915,31.09664],[-98.47053,31.09444],[-98.46862,31.09211],[-98.46148,31.09039],[-98.45784,31.08872],[-98.45591,31.08274],[-98.45642,31.0787],[-98.46273,31.07596],[-98.47247,31.07626],[-98.47667,31.07018],[-98.48196,31.06894],[-98.48333,31.0679],[-98.48414,31.06665],[-98.48414,31.06377],[-98.48268,31.05969],[-98.47494,31.0528],[-98.46449,31.04758],[-98.45308,31.04435],[-98.44759,31.0414],[-98.44486,31.03855],[-98.43977,31.02991],[-98.43953,31.02513],[-98.44233,31.02048],[-98.44829,31.0167],[-98.45695,31.01316],[-98.45874,31.01155],[-98.45937,31.00917],[-98.45855,31.00618],[-98.45662,31.00356],[-98.44618,30.9929],[-98.44187,30.98432],[-98.44323,30.97973],[-98.4529,30.96873],[-98.4528,30.9644],[-98.4471,30.95176],[-98.44588,30.9507],[-98.44198,30.94964],[-98.42469,30.94838],[-98.41756,30.94575],[-98.41486,30.94348],[-98.41473,30.94017],[-98.41714,30.92955],[-98.41961,30.92535],[-98.42233,30.92426],[-98.42921,30.92643],[-98.43741,30.92697],[-98.4419,30.92587],[-98.44578,30.92144],[-98.44756,30.91592],[-98.44293,30.9174],[-98.44383,30.91372],[-98.44699,30.91225],[-98.44517,30.91175],[-98.44653,30.91017],[-98.44421,30.91025],[-98.44379,30.90623],[-98.44205,30.90415],[-98.43962,30.90419],[-98.43849,30.90502],[-98.436,30.90474],[-98.43084,30.90273],[-98.42029,30.90164],[-98.41111,30.90551],[-98.41026,30.90643],[-98.41023,30.90855],[-98.40574,30.91069],[-98.38365,30.91101],[-98.3849,30.91053],[-98.38494,30.90944],[-98.3828,30.90885],[-98.38341,30.90995],[-98.38246,30.91098],[-98.37933,30.90971],[-98.37866,30.91007],[-98.37958,30.90984],[-98.38032,30.91091],[-98.34416,30.91171],[-98.34035,30.89519],[-98.28869,30.89584],[-98.28867,30.88644],[-98.28426,30.88999],[-98.28084,30.8867],[-98.24859,30.90022],[-98.24616,30.89723],[-98.24248,30.89503],[-98.2376,30.89563],[-98.20905,30.90683],[-98.21122,30.88982],[-98.19534,30.89464],[-98.19226,30.90843],[-98.18744,30.90408],[-98.17948,30.90557],[-98.16173,30.90479],[-98.15351,30.90599],[-98.15126,30.91052],[-98.14676,30.90962],[-98.14406,30.91121],[-98.14303,30.91355],[-98.1433,30.91487],[-98.14222,30.91603],[-98.14053,30.91566],[-98.14014,30.91664],[-98.14476,30.91765],[-98.1477,30.91527],[-98.14279,30.92285],[-98.13721,30.92452],[-98.13435,30.92391],[-98.13236,30.92029],[-98.12622,30.91548],[-98.11912,30.90704],[-98.11849,30.90441],[-98.11882,30.89924],[-98.12202,30.89754],[-98.12124,30.89328],[-98.11969,30.88965],[-98.11374,30.89165],[-98.11267,30.8884],[-98.09867,30.89339],[-98.07505,30.90036],[-98.07424,30.89899],[-98.06902,30.90054],[-98.06525,30.89675],[-98.0553,30.89789],[-98.05471,30.89574],[-98.04765,30.89462],[-98.04268,30.90328],[-98.0379,30.90483],[-98.03556,30.90742],[-98.03942,30.90911],[-98.03689,30.91159],[-98.03569,30.91042],[-98.03252,30.91048],[-98.03157,30.91518],[-98.02999,30.91644],[-98.02967,30.91837],[-98.02274,30.91759],[-98.01877,30.91879],[-98.01773,30.92181],[-98.0199,30.9227],[-98.01988,30.92469],[-98.0131,30.92452],[-98.01057,30.92329],[-98.00692,30.9239],[-98.00628,30.92997],[-98.01986,30.93659],[-98.01931,30.93764],[-98.0136,30.93939],[-98.00694,30.9432],[-98.00421,30.94302],[-98.00285,30.94138],[-98.00146,30.94258],[-97.99878,30.94189],[-97.9943,30.94292],[-97.99218,30.94379],[-97.99146,30.94592],[-97.98969,30.94711],[-97.99012,30.94762],[-97.99197,30.94713],[-97.99321,30.94928],[-97.99568,30.95034],[-97.9964,30.95504],[-97.99532,30.9564],[-97.99839,30.95677],[-98.0003,30.95886],[-98.00411,30.96834],[-98.00448,30.97167],[-98.00282,30.97458],[-98.00063,30.97556],[-98.0012,30.97817],[-98.00229,30.98108],[-98.00468,30.98324],[-98.00842,30.99188],[-98.0157,30.9895],[-98.01809,30.99549],[-98.0348,30.99025],[-98.03796,30.99817],[-98.04027,30.99759],[-98.04239,31.00266],[-98.02001,31.0095],[-98.0293,31.03139],[-98.02983,31.03102],[-98.03088,31.03352],[-98.05113,31.03329],[-98.05065,31.0359],[-98.04329,31.04231],[-98.04452,31.04794],[-98.04689,31.05143],[-98.04594,31.05313],[-98.04939,31.0538],[-98.05097,31.05715],[-98.05883,31.0549],[-98.06167,31.06027],[-98.05575,31.06937],[-98.04716,31.07427],[-98.05096,31.08316],[-98.05103,31.08546],[-98.04916,31.08469],[-98.04565,31.08523],[-98.04408,31.08137],[-98.04098,31.0821],[-98.03894,31.08089],[-98.03445,31.08167],[-98.03006,31.08559],[-98.03376,31.09048],[-98.03428,31.09456],[-98.03778,31.09547],[-98.04162,31.09845],[-98.04336,31.10032],[-98.04411,31.10282],[-98.04748,31.10246],[-98.0486,31.10439],[-98.04703,31.106],[-98.04931,31.10452],[-98.05859,31.10158],[-98.06114,31.10758],[-98.08269,31.10128],[-98.08146,31.09812],[-98.08681,31.09676],[-98.08738,31.09962],[-98.09362,31.09951],[-98.09309,31.09684],[-98.09908,31.09888],[-98.12253,31.09664],[-98.13001,31.09686],[-98.12703,31.10198],[-98.11752,31.10745],[-98.11203,31.10833],[-98.10577,31.11117],[-98.09563,31.11244],[-98.09749,31.11543],[-98.10077,31.11496],[-98.10036,31.11271],[-98.10231,31.11227],[-98.10282,31.11462],[-98.10489,31.11432],[-98.10671,31.11568],[-98.10743,31.11375],[-98.11076,31.11245],[-98.11685,31.12412],[-98.115,31.12544],[-98.10362,31.12771],[-98.10638,31.13475],[-98.10358,31.13582],[-98.1028,31.13689],[-98.10488,31.13923],[-98.10341,31.14048],[-98.09791,31.14245],[-98.09641,31.14389],[-98.10008,31.15395],[-98.0821,31.1594],[-98.07928,31.1628],[-98.07876,31.16739],[-98.06903,31.17285],[-98.06971,31.17597],[-98.07225,31.18093],[-98.07503,31.18113],[-98.07725,31.18223],[-98.08058,31.18168],[-98.08664,31.18561],[-98.08906,31.19003],[-98.08768,31.19491],[-98.08641,31.19592],[-98.08673,31.19866],[-98.09108,31.20357],[-98.08999,31.20522],[-98.09014,31.20793],[-98.08674,31.21374],[-98.08732,31.21707],[-98.08948,31.21887],[-98.08975,31.22216],[-98.07411,31.22635],[-98.08659,31.26097],[-98.07931,31.2623],[-98.08317,31.2733],[-98.0652,31.2785],[-98.06259,31.28333],[-98.06156,31.28725],[-98.06875,31.29249],[-98.07539,31.29427],[-98.07155,31.30035],[-98.07177,31.30722],[-98.14936,31.41987],[-98.14986,31.41405],[-98.14065,31.39737],[-98.14477,31.39576],[-98.14421,31.39354],[-98.1491,31.39245],[-98.14902,31.39507],[-98.15217,31.40348],[-98.15698,31.40221],[-98.16352,31.40186],[-98.16531,31.40615],[-98.16653,31.40634],[-98.16786,31.40788],[-98.17129,31.40701],[-98.1772,31.37515],[-98.17742,31.37063],[-98.17519,31.34664],[-98.17771,31.34641],[-98.17773,31.34509],[-98.17864,31.34444],[-98.17794,31.34118],[-98.17912,31.33993],[-98.17783,31.33896],[-98.17721,31.33577],[-98.17882,31.33551],[-98.17876,31.33417],[-98.18034,31.33355],[-98.1802,31.33192],[-98.18128,31.32961],[-98.18099,31.32728],[-98.17858,31.32483],[-98.17833,31.32188],[-98.17573,31.32088],[-98.17491,31.31732],[-98.1745,31.31082],[-98.17633,31.31067],[-98.17664,31.30972],[-98.17584,31.30873],[-98.17385,31.30874],[-98.17517,31.30656],[-98.17362,31.30394],[-98.17444,31.30206],[-98.17373,31.30113],[-98.175,31.29917],[-98.17414,31.29775],[-98.17419,31.29514],[-98.16937,31.29349],[-98.16954,31.29267],[-98.17793,31.29095],[-98.18894,31.29656],[-98.1916,31.29879],[-98.20293,31.29846],[-98.20879,31.30045],[-98.21061,31.30188],[-98.21438,31.3111],[-98.22111,31.3135],[-98.22189,31.31355],[-98.21896,31.30741],[-98.22889,31.30443],[-98.22991,31.30636],[-98.24125,31.30281],[-98.23993,31.30018],[-98.23783,31.30012],[-98.23267,31.29425],[-98.22302,31.29037],[-98.22173,31.28825],[-98.21787,31.28529],[-98.21478,31.28677],[-98.20166,31.2838],[-98.19473,31.2753],[-98.19861,31.27139],[-98.20521,31.26818],[-98.21052,31.2667],[-98.21333,31.264],[-98.21342,31.26152],[-98.21483,31.26016],[-98.2157,31.257],[-98.2241,31.2406],[-98.22391,31.23941],[-98.2279,31.24131],[-98.23837,31.24315],[-98.23965,31.24204],[-98.24327,31.24252],[-98.23505,31.22082],[-98.23245,31.22158],[-98.22414,31.20018],[-98.24341,31.1946],[-98.24276,31.19276],[-98.2646,31.18613],[-98.26134,31.17724],[-98.27393,31.18547],[-98.27597,31.18834],[-98.2782,31.19948],[-98.28234,31.21096],[-98.28973,31.21052],[-98.29377,31.20886],[-98.29582,31.20918],[-98.32445,31.19925],[-98.31826,31.18518],[-98.32011,31.18468],[-98.34246,31.19366],[-98.34589,31.19339],[-98.3532,31.19079],[-98.35701,31.19297],[-98.36215,31.1893],[-98.36578,31.19072],[-98.3697,31.18923],[-98.37097,31.18692],[-98.33721,31.16537],[-98.32907,31.15767],[-98.34419,31.15248],[-98.34566,31.14994],[-98.34636,31.14386],[-98.35145,31.13985],[-98.36562,31.13918],[-98.36879,31.13986],[-98.37174,31.14193],[-98.37156,31.14602],[-98.38506,31.14621],[-98.37975,31.13489],[-98.37513,31.13107],[-98.3708,31.12477],[-98.37017,31.11715],[-98.36848,31.11213],[-98.36527,31.11],[-98.36385,31.10778],[-98.36745,31.10846],[-98.37823,31.10838],[-98.37995,31.10913],[-98.39247,31.10904],[-98.39247,31.10629],[-98.39432,31.10516],[-98.39432,31.1031],[-98.39625,31.10116],[-98.39627,31.0983],[-98.39837,31.09195],[-98.40317,31.09188],[-98.40588,31.08943],[-98.40948,31.08927],[-98.41089,31.09138],[-98.41168,31.09827],[-98.41307,31.1002],[-98.41299,31.10472],[-98.41885,31.11258],[-98.41882,31.1146],[-98.41738,31.11618],[-98.42168,31.11777],[-98.42368,31.11711],[-98.42864,31.1205],[-98.42708,31.12268],[-98.42748,31.125],[-98.42639,31.12625],[-98.43219,31.12988],[-98.43256,31.1318],[-98.43627,31.12978],[-98.43807,31.12402],[-98.44643,31.12164],[-98.44829,31.11926],[-98.45208,31.11989],[-98.46382,31.11646],[-98.46502,31.11462],[-98.45904,31.11237],[-98.4631,31.11044],[-98.46737,31.10706],[-98.47041,31.10713],[-98.47222,31.10837],[-98.47575,31.11243],[-98.47931,31.11847],[-98.48112,31.11957],[-98.48311,31.11912],[-98.48626,31.11513],[-98.48833,31.11431],[-98.49056,31.11534],[-98.4936,31.11864],[-98.49841,31.1189],[-98.50031,31.11823],[-98.50515,31.10921],[-98.51213,31.10661],[-98.5144,31.10433],[-98.51481,31.10286],[-98.51397,31.10194],[-98.51527,31.10074]]]},"properties":{"zip_code":"76550","county":"Burnet"}}]}