{"type":"FeatureCollection","features":[{"type":"Feature","geometry":{"type":"Polygon","coordinates":[[[-97.52702,30.47514],[-97.52712,30.47465],[-97.52397,30.47218],[-97.52236,30.47638],[-97.51086,30.48526],[-97.50479,30.4811],[-97.50255,30.48057],[-97.50137,30.47792],[-97.50135,30.47729],[-97.49833,30.47662],[-97.49877,30.47357],[-97.49963,30.47007],[-97.49823,30.46983],[-97.49884,30.46712],[-97.49752,30.46696],[-97.49757,30.46663],[-97.49549,30.4664],[-97.49457,30.4719],[-97.49391,30.47194],[-97.48952,30.47104],[-97.48909,30.47329],[-97.4887,30.47313],[-97.48643,30.46947],[-97.48012,30.47043],[-97.47785,30.46954],[-97.47759,30.47189],[-97.47677,30.4715],[-97.47634,30.47091],[-97.47583,30.47082],[-97.47451,30.47108],[-97.47392,30.47203],[-97.47275,30.47263],[-97.47126,30.4727],[-97.4706,30.47191],[-97.46969,30.47153],[-97.46952,30.47052],[-97.46852,30.4696],[-97.46705,30.46986],[-97.46679,30.47037],[-97.46679,30.47127],[-97.46482,30.47097],[-97.46477,30.47055],[-97.46606,30.47005],[-97.46687,30.46926],[-97.46719,30.46838],[-97.46458,30.46857],[-97.46441,30.47008],[-97.46305,30.46906],[-97.46393,30.46751],[-97.46367,30.46702],[-97.463,30.46684],[-97.46218,30.4671],[-97.46124,30.46801],[-97.45889,30.46869],[-97.45763,30.46955],[-97.45741,30.47005],[-97.45757,30.47031],[-97.45955,30.47144],[-97.45942,30.47275],[-97.45877,30.47308],[-97.45768,30.47279],[-97.45724,30.4713],[-97.45738,30.47086],[-97.45705,30.47053],[-97.45604,30.47068],[-97.45545,30.47135],[-97.45445,30.47179],[-97.45335,30.47125],[-97.45308,30.47056],[-97.45215,30.47094],[-97.4516,30.47041],[-97.45159,30.46969],[-97.45097,30.46922],[-97.45061,30.46916],[-97.44974,30.46978],[-97.44943,30.46891],[-97.44839,30.46865],[-97.44792,30.46879],[-97.44747,30.46944],[-97.44717,30.46866],[-97.44651,30.46788],[-97.44488,30.46738],[-97.44369,30.46812],[-97.44376,30.46934],[-97.44475,30.47001],[-97.44472,30.47051],[-97.44291,30.47008],[-97.44233,30.47016],[-97.44185,30.47063],[-97.44039,30.47076],[-97.44005,30.4715],[-97.43903,30.47199],[-97.43825,30.47177],[-97.43766,30.47116],[-97.43568,30.47186],[-97.43522,30.47178],[-97.43493,30.47151],[-97.43493,30.47112],[-97.43549,30.47037],[-97.43552,30.46987],[-97.43444,30.47009],[-97.4341,30.4696],[-97.4333,30.46932],[-97.43227,30.46949],[-97.43147,30.47024],[-97.43045,30.47035],[-97.42991,30.46954],[-97.42978,30.4686],[-97.42932,30.46855],[-97.42809,30.46913],[-97.42751,30.4688],[-97.42739,30.4681],[-97.42701,30.46784],[-97.42528,30.4679],[-97.42509,30.469],[-97.42455,30.46914],[-97.42335,30.46857],[-97.42358,30.46818],[-97.42346,30.46768],[-97.4225,30.46738],[-97.42191,30.46768],[-97.42104,30.46748],[-97.41751,30.46798],[-97.41665,30.46849],[-97.41553,30.46827],[-97.41466,30.46852],[-97.41406,30.46831],[-97.41295,30.46873],[-97.40909,30.46881],[-97.40875,30.46844],[-97.40832,30.46836],[-97.4072,30.46843],[-97.40637,30.46887],[-97.40562,30.46841],[-97.40313,30.46789],[-97.40146,30.46833],[-97.39891,30.46848],[-97.39828,30.46924],[-97.39857,30.47066],[-97.39838,30.47091],[-97.39796,30.47094],[-97.39772,30.47036],[-97.39721,30.47],[-97.39621,30.47027],[-97.39595,30.47086],[-97.39462,30.47131],[-97.39408,30.47174],[-97.39395,30.47215],[-97.39435,30.47262],[-97.3942,30.47281],[-97.39354,30.4726],[-97.39304,30.47198],[-97.39147,30.47237],[-97.39017,30.47206],[-97.38786,30.47231],[-97.38527,30.47136],[-97.38338,30.47109],[-97.3831,30.47085],[-97.38323,30.47017],[-97.38221,30.47014],[-97.38179,30.46978],[-97.38123,30.47052],[-97.37796,30.48732],[-97.37684,30.48899],[-97.3756,30.48994],[-97.37533,30.49046],[-97.37315,30.50414],[-97.36114,30.50796],[-97.3649,30.51683],[-97.36485,30.51721],[-97.3612,30.51892],[-97.35398,30.52132],[-97.35422,30.52188],[-97.3477,30.52386],[-97.34772,30.52464],[-97.34751,30.52491],[-97.34415,30.52597],[-97.34373,30.52544],[-97.34144,30.51994],[-97.34094,30.51979],[-97.33915,30.52031],[-97.33848,30.51955],[-97.3358,30.52173],[-97.3348,30.52177],[-97.33344,30.52259],[-97.33309,30.52326],[-97.3336,30.52361],[-97.33427,30.52365],[-97.33438,30.524],[-97.3334,30.5246],[-97.33277,30.52611],[-97.33042,30.52906],[-97.32975,30.52935],[-97.32782,30.52951],[-97.32672,30.53044],[-97.32658,30.53097],[-97.32382,30.53191],[-97.32333,30.5327],[-97.32184,30.53269],[-97.32038,30.53324],[-97.31941,30.53281],[-97.31889,30.53316],[-97.31755,30.5328],[-97.31649,30.53291],[-97.31557,30.53223],[-97.31358,30.53204],[-97.31169,30.53277],[-97.31053,30.53374],[-97.30928,30.53401],[-97.30858,30.53454],[-97.30793,30.53464],[-97.30645,30.5358],[-97.30366,30.53622],[-97.30319,30.53658],[-97.30271,30.53751],[-97.30187,30.53755],[-97.29905,30.53847],[-97.30491,30.55154],[-97.29851,30.55343],[-97.29919,30.55497],[-97.3045,30.55775],[-97.30477,30.55852],[-97.28606,30.56435],[-97.28558,30.56472],[-97.29181,30.57899],[-97.29257,30.5787],[-97.29674,30.58486],[-97.30297,30.58373],[-97.30527,30.58905],[-97.3049,30.58912],[-97.30514,30.58998],[-97.31004,30.58841],[-97.31891,30.58674],[-97.32032,30.59027],[-97.28573,30.60041],[-97.29303,30.61923],[-97.29453,30.62188],[-97.29361,30.62764],[-97.29234,30.63185],[-97.28687,30.63235],[-97.28663,30.63295],[-97.28561,30.63364],[-97.28348,30.63282],[-97.28067,30.63367],[-97.27955,30.63352],[-97.27863,30.63372],[-97.27789,30.63326],[-97.27678,30.63302],[-97.27603,30.63233],[-97.27559,30.63276],[-97.27437,30.63283],[-97.27433,30.63394],[-97.27227,30.63477],[-97.27148,30.63452],[-97.26955,30.63524],[-97.26835,30.63516],[-97.26823,30.6356],[-97.26782,30.63584],[-97.26532,30.63582],[-97.26443,30.63659],[-97.26801,30.64481],[-97.26877,30.64456],[-97.26906,30.6447],[-97.27153,30.65052],[-97.2715,30.65115],[-97.26947,30.65655],[-97.27815,30.65923],[-97.27351,30.67103],[-97.26556,30.66862],[-97.26464,30.66851],[-97.25538,30.67135],[-97.2537,30.67127],[-97.25103,30.6703],[-97.24988,30.67012],[-97.2458,30.67109],[-97.24327,30.67137],[-97.25241,30.69347],[-97.25293,30.69343],[-97.25537,30.69198],[-97.25648,30.6923],[-97.25767,30.69367],[-97.25822,30.69396],[-97.25884,30.69382],[-97.25957,30.69263],[-97.26235,30.69265],[-97.26296,30.69422],[-97.26293,30.6951],[-97.26222,30.69606],[-97.26123,30.69626],[-97.2606,30.69667],[-97.26056,30.69829],[-97.26004,30.69952],[-97.26005,30.69995],[-97.26051,30.70033],[-97.26278,30.70016],[-97.2635,30.69976],[-97.26382,30.69911],[-97.26379,30.69824],[-97.26502,30.69736],[-97.26666,30.69467],[-97.26893,30.69393],[-97.26937,30.69415],[-97.26975,30.69516],[-97.27094,30.69543],[-97.27184,30.69509],[-97.27342,30.69328],[-97.27394,30.69398],[-97.2738,30.69564],[-97.27421,30.69621],[-97.27493,30.69648],[-97.27601,30.69652],[-97.27706,30.6962],[-97.27977,30.69406],[-97.28195,30.69421],[-97.28229,30.69463],[-97.28234,30.6955],[-97.28311,30.6962],[-97.28328,30.69797],[-97.28387,30.69842],[-97.28806,30.6965],[-97.29067,30.69616],[-97.29102,30.69591],[-97.29125,30.69522],[-97.29238,30.69516],[-97.29253,30.6961],[-97.29292,30.6966],[-97.29586,30.69729],[-97.29643,30.69763],[-97.29654,30.69796],[-97.2962,30.69891],[-97.29665,30.70038],[-97.29644,30.70154],[-97.29689,30.70272],[-97.29786,30.70357],[-97.2991,30.70316],[-97.30018,30.70207],[-97.29967,30.69896],[-97.3,30.69838],[-97.30093,30.69824],[-97.30152,30.6978],[-97.30165,30.69681],[-97.30143,30.69598],[-97.30237,30.69552],[-97.30358,30.6957],[-97.3053,30.6969],[-97.30656,30.69743],[-97.30685,30.69871],[-97.30729,30.6995],[-97.30883,30.69971],[-97.31058,30.70152],[-97.31095,30.70154],[-97.31298,30.69949],[-97.31452,30.6994],[-97.31704,30.69853],[-97.31914,30.69828],[-97.3222,30.6987],[-97.33098,30.70184],[-97.33923,30.70159],[-97.34072,30.70086],[-97.3423,30.69861],[-97.34452,30.69635],[-97.34884,30.69561],[-97.35142,30.69166],[-97.35783,30.68806],[-97.35938,30.68813],[-97.36217,30.68782],[-97.36431,30.68612],[-97.36577,30.68358],[-97.36862,30.68047],[-97.36879,30.67913],[-97.36921,30.67858],[-97.37069,30.67754],[-97.37105,30.67692],[-97.37268,30.67603],[-97.37416,30.67456],[-97.37561,30.67193],[-97.37649,30.67081],[-97.37721,30.67016],[-97.37864,30.66966],[-97.38207,30.66959],[-97.38423,30.66763],[-97.38613,30.66505],[-97.38769,30.66438],[-97.39286,30.66403],[-97.39671,30.66425],[-97.3973,30.66464],[-97.39821,30.66475],[-97.39834,30.6643],[-97.3993,30.6644],[-97.40175,30.66504],[-97.40281,30.6657],[-97.40362,30.66561],[-97.40415,30.66477],[-97.40373,30.66402],[-97.40185,30.66252],[-97.39927,30.66186],[-97.39894,30.66113],[-97.39925,30.66035],[-97.40067,30.65985],[-97.40393,30.65932],[-97.40652,30.65933],[-97.40758,30.65896],[-97.40725,30.65768],[-97.4065,30.65693],[-97.40557,30.6566],[-97.40509,30.65563],[-97.40523,30.6551],[-97.40602,30.65445],[-97.40606,30.65392],[-97.40556,30.65349],[-97.40569,30.65289],[-97.40819,30.65169],[-97.4111,30.65259],[-97.4135,30.65283],[-97.41554,30.65228],[-97.41634,30.6513],[-97.41647,30.65065],[-97.41592,30.64941],[-97.41581,30.64806],[-97.41711,30.64604],[-97.41836,30.64475],[-97.41971,30.64452],[-97.42066,30.64469],[-97.42059,30.64612],[-97.41993,30.64698],[-97.41991,30.64734],[-97.42203,30.64836],[-97.42515,30.64776],[-97.42594,30.64701],[-97.42632,30.64721],[-97.42684,30.64788],[-97.42694,30.64854],[-97.42636,30.6503],[-97.42847,30.65139],[-97.4291,30.65065],[-97.43055,30.65004],[-97.43123,30.65014],[-97.43221,30.64979],[-97.43223,30.64925],[-97.43091,30.6474],[-97.4309,30.64701],[-97.43119,30.64619],[-97.43347,30.64443],[-97.43427,30.6443],[-97.43683,30.64475],[-97.43952,30.64419],[-97.44192,30.64498],[-97.44335,30.64395],[-97.4451,30.64343],[-97.44595,30.64359],[-97.44787,30.64316],[-97.44884,30.64219],[-97.4495,30.64107],[-97.44973,30.63997],[-97.45098,30.64024],[-97.45193,30.64017],[-97.45269,30.64058],[-97.45572,30.64072],[-97.4564,30.64049],[-97.45725,30.63966],[-97.45765,30.63819],[-97.45745,30.63778],[-97.45616,30.63785],[-97.45515,30.63704],[-97.4551,30.63634],[-97.45533,30.63596],[-97.457,30.63443],[-97.45994,30.63357],[-97.46177,30.63136],[-97.46228,30.63104],[-97.46474,30.63112],[-97.46589,30.63208],[-97.46855,30.63285],[-97.46978,30.63283],[-97.47054,30.63214],[-97.47103,30.63094],[-97.47162,30.6302],[-97.47489,30.62863],[-97.4757,30.62888],[-97.47652,30.6288],[-97.47906,30.62749],[-97.48326,30.62804],[-97.48539,30.62688],[-97.48896,30.62678],[-97.49034,30.62695],[-97.48248,30.6079],[-97.48449,30.60831],[-97.48697,30.60847],[-97.49111,30.60796],[-97.50013,30.60513],[-97.50331,30.60353],[-97.50566,30.60275],[-97.50374,30.59856],[-97.51048,30.59646],[-97.50379,30.59841],[-97.50314,30.59694],[-97.50803,30.59535],[-97.50598,30.59064],[-97.51233,30.5885],[-97.51167,30.58726],[-97.51942,30.5846],[-97.5164,30.57751],[-97.50477,30.58092],[-97.50333,30.57489],[-97.5028,30.57051],[-97.50025,30.57097],[-97.49587,30.56084],[-97.49334,30.56163],[-97.49312,30.56128],[-97.48833,30.56288],[-97.48581,30.55707],[-97.49645,30.55614],[-97.49548,30.55191],[-97.48317,30.55405],[-97.48305,30.55372],[-97.49385,30.49374],[-97.50006,30.49574],[-97.50692,30.49952],[-97.51194,30.50037],[-97.51321,30.5008],[-97.51703,30.50304],[-97.52053,30.50565],[-97.52133,30.50662],[-97.5221,30.50921],[-97.5233,30.51037],[-97.52414,30.50556],[-97.52122,30.50516],[-97.52119,30.50452],[-97.52013,30.50392],[-97.52182,30.49479],[-97.52035,30.49496],[-97.52317,30.48012],[-97.52621,30.48023],[-97.52702,30.47514]]]},"properties":{"zip_code":"76574","county":"Williamson"}}]}