{"type":"FeatureCollection","features":[{"type":"Feature","geometry":{"type":"Polygon","coordinates":[[[-97.30259,30.74756],[-97.26995,30.73536],[-97.24327,30.67137],[-97.2458,30.67109],[-97.24988,30.67012],[-97.25103,30.6703],[-97.2537,30.67127],[-97.25538,30.67135],[-97.26464,30.66851],[-97.26556,30.66862],[-97.27351,30.67103],[-97.27815,30.65923],[-97.26947,30.65655],[-97.2715,30.65115],[-97.27153,30.65052],[-97.26906,30.6447],[-97.26877,30.64456],[-97.26801,30.64481],[-97.26443,30.63659],[-97.26393,30.63681],[-97.26278,30.6383],[-97.26137,30.63835],[-97.26003,30.63915],[-97.25859,30.63919],[-97.2578,30.63976],[-97.25687,30.63958],[-97.25671,30.63889],[-97.25631,30.63863],[-97.25467,30.63862],[-97.25326,30.63907],[-97.25219,30.63886],[-97.25043,30.63926],[-97.24971,30.63877],[-97.24781,30.6389],[-97.24601,30.63866],[-97.24496,30.63804],[-97.2442,30.63701],[-97.2431,30.63629],[-97.24278,30.63578],[-97.24148,30.63596],[-97.24024,30.63495],[-97.23909,30.63453],[-97.23918,30.63407],[-97.23322,30.63316],[-97.23007,30.63188],[-97.22934,30.63133],[-97.22944,30.63113],[-97.22885,30.6307],[-97.22869,30.63023],[-97.2276,30.6296],[-97.22703,30.63011],[-97.22617,30.62971],[-97.22197,30.6198],[-97.21686,30.60661],[-97.21477,30.60233],[-97.19762,30.56084],[-97.20716,30.55791],[-97.20979,30.55915],[-97.21015,30.55907],[-97.21012,30.55931],[-97.22547,30.56657],[-97.22609,30.56566],[-97.22717,30.5654],[-97.2272,30.56301],[-97.2277,30.56224],[-97.22896,30.56145],[-97.22993,30.5615],[-97.23121,30.56115],[-97.23166,30.55999],[-97.23087,30.559],[-97.2311,30.55832],[-97.2316,30.5581],[-97.23251,30.55841],[-97.23299,30.55818],[-97.22778,30.5512],[-97.22777,30.55052],[-97.22723,30.54984],[-97.22448,30.54326],[-97.22472,30.54285],[-97.2291,30.5414],[-97.22704,30.5364],[-97.22623,30.53537],[-97.22633,30.53477],[-97.21937,30.52622],[-97.21565,30.51756],[-97.21078,30.5171],[-97.20719,30.51726],[-97.20102,30.51829],[-97.19773,30.51832],[-97.19184,30.52009],[-97.19284,30.51821],[-97.19922,30.50238],[-97.20549,30.50418],[-97.20578,30.50341],[-97.21215,30.50056],[-97.21239,30.50072],[-97.21175,30.49946],[-97.20912,30.49721],[-97.2076,30.49497],[-97.2055,30.49336],[-97.20312,30.49252],[-97.19991,30.50063],[-97.17674,30.49348],[-97.17791,30.49064],[-97.16985,30.49302],[-97.1621,30.47416],[-97.15819,30.47031],[-97.15762,30.46978],[-97.15506,30.4688],[-97.15273,30.46757],[-97.14819,30.46784],[-97.14629,30.46754],[-97.14098,30.46482],[-97.09224,30.49035],[-97.07105,30.50119],[-97.06953,30.50404],[-97.07333,30.51297],[-97.06865,30.5172],[-97.06862,30.51756],[-97.07081,30.52295],[-97.06523,30.52458],[-97.06512,30.52564],[-97.0654,30.52825],[-97.06954,30.52986],[-97.07063,30.52876],[-97.07277,30.52785],[-97.07309,30.52792],[-97.07548,30.52913],[-97.0768,30.53024],[-97.08548,30.53369],[-97.09001,30.53645],[-97.09226,30.53732],[-97.09063,30.54157],[-97.08394,30.54473],[-97.07693,30.55013],[-97.07589,30.55044],[-97.0689,30.55542],[-97.06828,30.55618],[-97.06639,30.56023],[-97.06528,30.56129],[-97.06553,30.56174],[-97.06922,30.55947],[-97.06965,30.55805],[-97.07397,30.56805],[-97.07445,30.56853],[-97.07867,30.57804],[-97.0787,30.57952],[-97.07832,30.58081],[-97.07679,30.58333],[-97.0784,30.58096],[-97.07876,30.57987],[-97.07881,30.5783],[-97.07832,30.57677],[-97.07967,30.57791],[-97.08019,30.57784],[-97.0814,30.5774],[-97.08116,30.57657],[-97.10264,30.57135],[-97.10259,30.57227],[-97.1006,30.57764],[-97.10339,30.57854],[-97.10188,30.58247],[-97.10167,30.58356],[-97.10181,30.58411],[-97.10384,30.58678],[-97.10388,30.58716],[-97.10357,30.58737],[-97.10368,30.58775],[-97.10481,30.58848],[-97.10733,30.5917],[-97.10744,30.59245],[-97.10701,30.59378],[-97.11395,30.59579],[-97.11476,30.59484],[-97.11486,30.59498],[-97.11473,30.59584],[-97.11365,30.59783],[-97.11358,30.5989],[-97.11283,30.60094],[-97.11247,30.60123],[-97.11214,30.60101],[-97.11198,30.60141],[-97.11199,30.60177],[-97.11254,30.60258],[-97.11359,30.60336],[-97.11371,30.6037],[-97.11359,30.6043],[-97.11378,30.60475],[-97.11348,30.60519],[-97.11382,30.60548],[-97.11354,30.60592],[-97.11277,30.60598],[-97.11267,30.60654],[-97.11292,30.6076],[-97.11403,30.60809],[-97.11403,30.60887],[-97.11358,30.60899],[-97.11421,30.60934],[-97.11479,30.6101],[-97.11475,30.61049],[-97.11439,30.61069],[-97.11366,30.61053],[-97.1137,30.61119],[-97.11433,30.61138],[-97.11421,30.61174],[-97.11487,30.61245],[-97.11459,30.61303],[-97.11511,30.61326],[-97.11655,30.61325],[-97.11689,30.61354],[-97.11697,30.61408],[-97.11629,30.61557],[-97.11688,30.6166],[-97.1177,30.61668],[-97.11794,30.6164],[-97.11846,30.61672],[-97.11867,30.61603],[-97.11902,30.61576],[-97.11977,30.61646],[-97.11987,30.61683],[-97.11957,30.61718],[-97.1197,30.61766],[-97.11925,30.61822],[-97.11972,30.61905],[-97.11837,30.61985],[-97.11926,30.62071],[-97.11926,30.62122],[-97.11959,30.62173],[-97.11984,30.6215],[-97.12,30.62175],[-97.11953,30.62248],[-97.11887,30.62281],[-97.11872,30.62347],[-97.11922,30.624],[-97.11984,30.6241],[-97.12003,30.62465],[-97.12079,30.62489],[-97.1215,30.6268],[-97.12207,30.62698],[-97.1217,30.6291],[-97.12187,30.63],[-97.12444,30.63054],[-97.12736,30.63047],[-97.14165,30.62681],[-97.14174,30.62699],[-97.14364,30.62653],[-97.14371,30.62736],[-97.1413,30.63356],[-97.14131,30.63394],[-97.14238,30.63442],[-97.14254,30.63481],[-97.14108,30.63868],[-97.16707,30.63134],[-97.16646,30.63163],[-97.16629,30.63262],[-97.16562,30.63351],[-97.16547,30.63392],[-97.16565,30.63456],[-97.16544,30.63503],[-97.16445,30.636],[-97.16289,30.63671],[-97.16271,30.63701],[-97.16301,30.63755],[-97.16287,30.63778],[-97.16237,30.63786],[-97.16133,30.63742],[-97.16104,30.63822],[-97.16063,30.63848],[-97.15771,30.6376],[-97.15724,30.63766],[-97.15659,30.63831],[-97.15515,30.63788],[-97.15396,30.63925],[-97.15369,30.6391],[-97.15195,30.63954],[-97.15127,30.64037],[-97.14889,30.64109],[-97.14865,30.64141],[-97.1488,30.64246],[-97.14637,30.64271],[-97.14545,30.64339],[-97.14455,30.64345],[-97.1444,30.6438],[-97.1451,30.6441],[-97.14528,30.64449],[-97.14485,30.64472],[-97.14386,30.64455],[-97.14328,30.64482],[-97.14333,30.64517],[-97.14384,30.64533],[-97.14393,30.64571],[-97.14295,30.64616],[-97.14196,30.64714],[-97.14165,30.64775],[-97.14174,30.64852],[-97.14082,30.64886],[-97.14058,30.64941],[-97.14097,30.65033],[-97.14086,30.65063],[-97.13938,30.65069],[-97.13819,30.65189],[-97.13694,30.65166],[-97.13686,30.65225],[-97.13759,30.65298],[-97.13684,30.65314],[-97.13694,30.65401],[-97.1366,30.65474],[-97.13612,30.65477],[-97.13533,30.65393],[-97.13493,30.65388],[-97.13456,30.65476],[-97.13383,30.65461],[-97.13374,30.65549],[-97.13322,30.65626],[-97.13196,30.65629],[-97.13087,30.65693],[-97.13105,30.65778],[-97.13062,30.65807],[-97.12982,30.65815],[-97.12903,30.65777],[-97.12851,30.65779],[-97.12814,30.65854],[-97.12844,30.65907],[-97.12795,30.6594],[-97.12754,30.65916],[-97.12693,30.6582],[-97.12654,30.65816],[-97.12619,30.65876],[-97.12704,30.66012],[-97.12681,30.66057],[-97.12606,30.66057],[-97.12524,30.66026],[-97.1243,30.65958],[-97.1232,30.65994],[-97.12275,30.65918],[-97.12203,30.65923],[-97.12172,30.65829],[-97.12138,30.65831],[-97.12055,30.6591],[-97.12,30.65905],[-97.11911,30.6581],[-97.11852,30.65847],[-97.11909,30.65949],[-97.11864,30.66045],[-97.11807,30.66044],[-97.11771,30.6591],[-97.11702,30.65922],[-97.11691,30.65869],[-97.11634,30.6585],[-97.11482,30.65943],[-97.11188,30.66028],[-97.11043,30.6597],[-97.10994,30.65985],[-97.10945,30.66046],[-97.10875,30.66047],[-97.1093,30.66146],[-97.11099,30.66203],[-97.11113,30.66323],[-97.11143,30.6636],[-97.11304,30.66445],[-97.11344,30.66557],[-97.11342,30.66724],[-97.11371,30.66756],[-97.11538,30.66823],[-97.11586,30.66898],[-97.11654,30.66894],[-97.11652,30.66985],[-97.11787,30.67272],[-97.11946,30.67234],[-97.12091,30.67262],[-97.13307,30.67609],[-97.135,30.67126],[-97.13529,30.67118],[-97.15411,30.6768],[-97.15639,30.67552],[-97.16272,30.67354],[-97.16721,30.68382],[-97.1657,30.68487],[-97.16474,30.68533],[-97.16337,30.68559],[-97.15122,30.68505],[-97.14903,30.68514],[-97.13717,30.68945],[-97.13679,30.6904],[-97.1381,30.69159],[-97.1378,30.69266],[-97.14531,30.71023],[-97.14792,30.70965],[-97.14707,30.71051],[-97.14609,30.71285],[-97.14497,30.71452],[-97.1439,30.71863],[-97.14485,30.719],[-97.14522,30.71878],[-97.1466,30.71909],[-97.14759,30.71844],[-97.1486,30.71833],[-97.14935,30.71886],[-97.14923,30.71918],[-97.1496,30.71939],[-97.1511,30.71928],[-97.15185,30.71949],[-97.15247,30.71905],[-97.15585,30.71914],[-97.15871,30.7175],[-97.16022,30.71846],[-97.16073,30.71986],[-97.16035,30.72071],[-97.16173,30.72071],[-97.16235,30.72027],[-97.1636,30.72005],[-97.16424,30.7223],[-97.16636,30.72164],[-97.16642,30.72012],[-97.16767,30.71969],[-97.16825,30.72029],[-97.16889,30.72005],[-97.16878,30.72095],[-97.16966,30.72127],[-97.17029,30.72127],[-97.17128,30.71977],[-97.1728,30.71988],[-97.17418,30.72085],[-97.17433,30.72182],[-97.17483,30.72257],[-97.17546,30.72268],[-97.17672,30.72257],[-97.17709,30.72204],[-97.17697,30.72139],[-97.17734,30.72097],[-97.17797,30.72086],[-97.17897,30.72107],[-97.17911,30.72205],[-97.18059,30.72115],[-97.18131,30.7214],[-97.18208,30.72111],[-97.18205,30.72166],[-97.18263,30.72179],[-97.18297,30.72165],[-97.18288,30.72135],[-97.18336,30.7209],[-97.18461,30.72154],[-97.18563,30.721],[-97.18663,30.72119],[-97.18654,30.72076],[-97.18742,30.72046],[-97.18772,30.72095],[-97.1885,30.7211],[-97.18899,30.7215],[-97.18989,30.72139],[-97.19113,30.72189],[-97.19309,30.72132],[-97.19567,30.72102],[-97.19672,30.72046],[-97.19711,30.72087],[-97.19965,30.72195],[-97.19991,30.72244],[-97.20071,30.72258],[-97.20183,30.72413],[-97.20414,30.72515],[-97.20674,30.72536],[-97.20759,30.72517],[-97.20908,30.72568],[-97.21033,30.72518],[-97.21194,30.72709],[-97.21422,30.73187],[-97.21449,30.73371],[-97.19174,30.72663],[-97.18893,30.73347],[-97.17932,30.73087],[-97.17798,30.73144],[-97.17435,30.74029],[-97.17398,30.74064],[-97.18803,30.74466],[-97.18447,30.75316],[-97.18406,30.75627],[-97.19744,30.76112],[-97.19131,30.78123],[-97.2016,30.78379],[-97.21232,30.78742],[-97.21664,30.78863],[-97.22116,30.77737],[-97.23456,30.78049],[-97.23933,30.76978],[-97.25195,30.77421],[-97.25412,30.76883],[-97.26064,30.77084],[-97.25883,30.77525],[-97.26955,30.77822],[-97.27061,30.77555],[-97.2735,30.78227],[-97.27644,30.78129],[-97.27546,30.77894],[-97.27597,30.77734],[-97.28217,30.7709],[-97.29207,30.76457],[-97.29883,30.74645],[-97.29951,30.74684],[-97.30259,30.74756]]]},"properties":{"zip_code":"76577","county":"Williamson"}}]}