{"type":"FeatureCollection","features":[{"type":"Feature","geometry":{"type":"Polygon","coordinates":[[[-97.32032,30.59027],[-97.31891,30.58674],[-97.31004,30.58841],[-97.30514,30.58998],[-97.3049,30.58912],[-97.30527,30.58905],[-97.30297,30.58373],[-97.29674,30.58486],[-97.29257,30.5787],[-97.29181,30.57899],[-97.28558,30.56472],[-97.28606,30.56435],[-97.30477,30.55852],[-97.3045,30.55775],[-97.29919,30.55497],[-97.29851,30.55343],[-97.30491,30.55154],[-97.29905,30.53847],[-97.2973,30.53943],[-97.2947,30.54013],[-97.293,30.53992],[-97.29265,30.53877],[-97.29188,30.53784],[-97.29131,30.53659],[-97.28973,30.53282],[-97.28922,30.5309],[-97.2861,30.52364],[-97.29181,30.5218],[-97.2911,30.51997],[-97.29146,30.51908],[-97.29234,30.51875],[-97.28952,30.51188],[-97.29217,30.51104],[-97.28934,30.50408],[-97.29355,30.5028],[-97.29115,30.49663],[-97.28853,30.49792],[-97.28512,30.49719],[-97.28522,30.49813],[-97.28349,30.49824],[-97.28178,30.49563],[-97.28006,30.4907],[-97.28108,30.49045],[-97.28108,30.48922],[-97.28178,30.48819],[-97.27475,30.47168],[-97.2515,30.47931],[-97.25062,30.48103],[-97.24806,30.48238],[-97.24158,30.48042],[-97.2396,30.47781],[-97.23934,30.47655],[-97.23888,30.47581],[-97.23298,30.47162],[-97.23376,30.46939],[-97.23539,30.46736],[-97.23621,30.46543],[-97.24862,30.46166],[-97.2458,30.45481],[-97.24595,30.45451],[-97.24833,30.45374],[-97.2485,30.45346],[-97.24597,30.44752],[-97.24564,30.44581],[-97.24605,30.44477],[-97.24517,30.44427],[-97.24472,30.44353],[-97.24459,30.4412],[-97.24379,30.43633],[-97.2427,30.43452],[-97.24031,30.43198],[-97.23713,30.43265],[-97.23599,30.43254],[-97.15522,30.45734],[-97.14098,30.46482],[-97.14629,30.46754],[-97.14819,30.46784],[-97.15273,30.46757],[-97.15506,30.4688],[-97.15762,30.46978],[-97.15819,30.47031],[-97.1621,30.47416],[-97.16985,30.49302],[-97.17791,30.49064],[-97.17674,30.49348],[-97.19991,30.50063],[-97.20312,30.49252],[-97.20533,30.49327],[-97.20703,30.49442],[-97.20912,30.49721],[-97.21192,30.4997],[-97.21239,30.50072],[-97.21215,30.50056],[-97.20578,30.50341],[-97.20549,30.50418],[-97.19922,30.50238],[-97.19284,30.51821],[-97.19184,30.52009],[-97.19773,30.51832],[-97.20102,30.51829],[-97.20719,30.51726],[-97.21078,30.5171],[-97.21565,30.51756],[-97.21937,30.52622],[-97.22633,30.53477],[-97.22621,30.53532],[-97.22704,30.5364],[-97.2291,30.5413],[-97.22899,30.54153],[-97.22472,30.54285],[-97.22448,30.54326],[-97.22723,30.54984],[-97.22777,30.55052],[-97.22778,30.5512],[-97.23299,30.55818],[-97.23251,30.55841],[-97.2316,30.5581],[-97.2311,30.55832],[-97.23087,30.559],[-97.23166,30.55999],[-97.23121,30.56115],[-97.22993,30.5615],[-97.22896,30.56145],[-97.2277,30.56224],[-97.2272,30.56301],[-97.22717,30.5654],[-97.22609,30.56566],[-97.22547,30.56657],[-97.21012,30.55931],[-97.21015,30.55907],[-97.20979,30.55915],[-97.20716,30.55791],[-97.19762,30.56084],[-97.21477,30.60233],[-97.21686,30.60661],[-97.22197,30.6198],[-97.22617,30.62971],[-97.22703,30.63011],[-97.2276,30.6296],[-97.22869,30.63023],[-97.22885,30.6307],[-97.22944,30.63113],[-97.22934,30.63133],[-97.23007,30.63188],[-97.23322,30.63316],[-97.23918,30.63407],[-97.23909,30.63453],[-97.24024,30.63495],[-97.24148,30.63596],[-97.24278,30.63578],[-97.2431,30.63629],[-97.2442,30.63701],[-97.24496,30.63804],[-97.24601,30.63866],[-97.24781,30.6389],[-97.24971,30.63877],[-97.25043,30.63926],[-97.25219,30.63886],[-97.25326,30.63907],[-97.25467,30.63862],[-97.25631,30.63863],[-97.25671,30.63889],[-97.25687,30.63958],[-97.25762,30.63976],[-97.25859,30.63919],[-97.26003,30.63915],[-97.26137,30.63835],[-97.26278,30.6383],[-97.26393,30.63681],[-97.26532,30.63582],[-97.26782,30.63584],[-97.26823,30.6356],[-97.26835,30.63516],[-97.26955,30.63524],[-97.27148,30.63452],[-97.27209,30.63481],[-97.27421,30.63404],[-97.27437,30.63283],[-97.27559,30.63276],[-97.27603,30.63233],[-97.27678,30.63302],[-97.27789,30.63326],[-97.27863,30.63372],[-97.27955,30.63352],[-97.28067,30.63367],[-97.28348,30.63282],[-97.28561,30.63364],[-97.28663,30.63295],[-97.28687,30.63235],[-97.29234,30.63185],[-97.29361,30.62764],[-97.29453,30.62188],[-97.29303,30.61923],[-97.28573,30.60041],[-97.32032,30.59027]]]},"properties":{"zip_code":"76578","county":"Williamson"}}]}