{"type":"FeatureCollection","features":[{"type":"Feature","geometry":{"type":"Polygon","coordinates":[[[-96.93185,30.39603],[-96.931,30.39199],[-96.92577,30.38359],[-96.92458,30.37871],[-96.92587,30.37074],[-96.92478,30.35856],[-96.92055,30.35636],[-96.91279,30.35611],[-96.90796,30.35849],[-96.90809,30.35931],[-96.90577,30.36057],[-96.89959,30.3457],[-96.90385,30.34051],[-96.90304,30.33973],[-96.90117,30.34016],[-96.88643,30.32782],[-96.88571,30.32859],[-96.87897,30.3232],[-96.87526,30.3226],[-96.8736,30.32427],[-96.87141,30.3237],[-96.87083,30.32533],[-96.86874,30.32306],[-96.86747,30.32404],[-96.86602,30.32315],[-96.86515,30.3248],[-96.86568,30.32563],[-96.86414,30.32533],[-96.86214,30.32611],[-96.86092,30.32535],[-96.86071,30.32695],[-96.85928,30.32611],[-96.8582,30.32691],[-96.85709,30.3253],[-96.8515,30.32322],[-96.85147,30.32526],[-96.85025,30.32592],[-96.85055,30.32503],[-96.84901,30.32129],[-96.84981,30.32067],[-96.84857,30.31724],[-96.84606,30.31474],[-96.84645,30.31396],[-96.84529,30.31396],[-96.84458,30.31281],[-96.8431,30.31265],[-96.83991,30.31398],[-96.83629,30.31348],[-96.83642,30.31251],[-96.83402,30.31215],[-96.83188,30.30979],[-96.82842,30.30869],[-96.82555,30.3091],[-96.82299,30.30726],[-96.82254,30.30767],[-96.82341,30.30887],[-96.82174,30.30884],[-96.82277,30.31001],[-96.82076,30.31056],[-96.81955,30.31035],[-96.81945,30.30948],[-96.81826,30.30987],[-96.81741,30.30884],[-96.81964,30.30608],[-96.81617,30.30303],[-96.81909,30.30005],[-96.81763,30.2985],[-96.80751,30.29044],[-96.80248,30.29119],[-96.7925,30.28351],[-96.79174,30.28334],[-96.79441,30.28604],[-96.78294,30.29516],[-96.7802,30.29281],[-96.77917,30.29525],[-96.78044,30.30695],[-96.783,30.3161],[-96.78651,30.32164],[-96.78566,30.32289],[-96.78397,30.32268],[-96.78328,30.32378],[-96.78004,30.32531],[-96.77592,30.32538],[-96.77232,30.32712],[-96.77013,30.32521],[-96.76694,30.32544],[-96.76638,30.32374],[-96.7643,30.32234],[-96.76243,30.31902],[-96.75876,30.3192],[-96.75765,30.32023],[-96.75696,30.31945],[-96.75474,30.32119],[-96.75358,30.32096],[-96.75332,30.31965],[-96.75195,30.31878],[-96.74978,30.31964],[-96.74994,30.31866],[-96.74922,30.31834],[-96.74851,30.31907],[-96.74687,30.31855],[-96.74688,30.31967],[-96.74439,30.31885],[-96.74187,30.31957],[-96.74468,30.32069],[-96.74356,30.32225],[-96.74555,30.32209],[-96.74443,30.32306],[-96.74503,30.32358],[-96.74396,30.32387],[-96.7449,30.32451],[-96.7463,30.32407],[-96.74573,30.3254],[-96.74666,30.32638],[-96.74668,30.32552],[-96.74734,30.32563],[-96.74767,30.32743],[-96.74911,30.3271],[-96.74872,30.32796],[-96.74969,30.32759],[-96.74957,30.32864],[-96.75081,30.32779],[-96.75058,30.32959],[-96.75136,30.3291],[-96.75197,30.33008],[-96.75305,30.32933],[-96.75333,30.33021],[-96.75441,30.32922],[-96.75412,30.33002],[-96.75508,30.33065],[-96.75399,30.33111],[-96.75379,30.33451],[-96.75267,30.33481],[-96.75287,30.33802],[-96.7539,30.34011],[-96.75518,30.34088],[-96.75909,30.33993],[-96.76104,30.34089],[-96.76041,30.34369],[-96.7644,30.34748],[-96.76462,30.34975],[-96.76752,30.35305],[-96.76557,30.35394],[-96.76858,30.35777],[-96.76986,30.36474],[-96.77492,30.36935],[-96.77558,30.36851],[-96.7765,30.36882],[-96.77552,30.37007],[-96.7765,30.36957],[-96.77731,30.37158],[-96.77825,30.37095],[-96.78054,30.37205],[-96.78143,30.37388],[-96.77973,30.37603],[-96.78238,30.37633],[-96.78434,30.37825],[-96.78412,30.37954],[-96.78568,30.37855],[-96.78626,30.37994],[-96.78762,30.38026],[-96.78771,30.3825],[-96.7897,30.38324],[-96.78814,30.38521],[-96.78844,30.38648],[-96.78712,30.38748],[-96.78831,30.38786],[-96.78745,30.38827],[-96.78765,30.38906],[-96.79011,30.3907],[-96.79369,30.39149],[-96.7964,30.39142],[-96.79721,30.39066],[-96.79895,30.39106],[-96.80467,30.39629],[-96.80836,30.39626],[-96.80877,30.39845],[-96.81082,30.40113],[-96.80887,30.40245],[-96.80983,30.40444],[-96.81334,30.40485],[-96.81344,30.40571],[-96.81569,30.40539],[-96.81902,30.40694],[-96.82071,30.40982],[-96.82254,30.41013],[-96.8219,30.41082],[-96.82223,30.41198],[-96.82097,30.41229],[-96.82608,30.41474],[-96.82445,30.41491],[-96.82439,30.41591],[-96.82729,30.41641],[-96.82943,30.41836],[-96.83132,30.41795],[-96.8321,30.42026],[-96.83287,30.42019],[-96.83257,30.41874],[-96.83403,30.41902],[-96.83457,30.41955],[-96.83359,30.41975],[-96.83474,30.42111],[-96.83384,30.42124],[-96.83455,30.42282],[-96.83627,30.4224],[-96.83643,30.42116],[-96.83726,30.42172],[-96.83989,30.42113],[-96.84083,30.42191],[-96.84033,30.42425],[-96.84243,30.42475],[-96.84193,30.42634],[-96.8436,30.42562],[-96.84556,30.42735],[-96.84374,30.42925],[-96.84546,30.42895],[-96.8465,30.43156],[-96.84733,30.43142],[-96.84742,30.43056],[-96.8484,30.4312],[-96.85,30.42992],[-96.85167,30.43166],[-96.85303,30.43127],[-96.85314,30.43228],[-96.85811,30.43409],[-96.85867,30.43342],[-96.86111,30.43376],[-96.86482,30.43255],[-96.86568,30.43297],[-96.86482,30.43375],[-96.86547,30.43482],[-96.8676,30.43349],[-96.86915,30.43358],[-96.87076,30.43101],[-96.87039,30.42961],[-96.87381,30.42765],[-96.87303,30.42695],[-96.87404,30.42439],[-96.87756,30.42434],[-96.87803,30.42258],[-96.88091,30.42203],[-96.88435,30.42015],[-96.8889,30.42037],[-96.88939,30.41768],[-96.88511,30.40763],[-96.88527,30.40661],[-96.9087,30.3985],[-96.9107,30.40285],[-96.93185,30.39603]]]},"properties":{"zip_code":"77853","county":"Lee"}}]}