{"type":"FeatureCollection","features":[{"type":"Feature","geometry":{"type":"Polygon","coordinates":[[[-97.49933,29.04637],[-97.48141,29.03939],[-97.48214,29.03743],[-97.46907,29.03209],[-97.47906,29.01278],[-97.4651,29.00714],[-97.41714,29.04003],[-97.41316,29.03857],[-97.40098,29.03848],[-97.38314,29.04661],[-97.38303,29.03281],[-97.38103,29.03282],[-97.38038,29.02074],[-97.38434,29.02052],[-97.38423,29.01191],[-97.38798,29.01002],[-97.39078,29.00716],[-97.39276,29.00701],[-97.3934,29.00453],[-97.39788,28.99996],[-97.39233,28.99868],[-97.38928,29.00151],[-97.38352,28.99735],[-97.38039,29.00076],[-97.3758,29.00211],[-97.37464,29.00345],[-97.3727,29.0019],[-97.36758,28.99258],[-97.36328,28.98958],[-97.35912,28.98962],[-97.36316,28.98464],[-97.36096,28.98319],[-97.36178,28.97651],[-97.36111,28.97386],[-97.35859,28.97198],[-97.35859,28.97096],[-97.35676,28.97082],[-97.35553,28.96882],[-97.35973,28.96553],[-97.35463,28.96344],[-97.34154,28.9541],[-97.34493,28.95058],[-97.34676,28.94741],[-97.35269,28.94361],[-97.35266,28.94183],[-97.35094,28.94059],[-97.34617,28.93253],[-97.34744,28.92648],[-97.34448,28.92569],[-97.337,28.95096],[-97.32953,28.94554],[-97.32755,28.94286],[-97.32729,28.94658],[-97.32621,28.94794],[-97.3158,28.94289],[-97.31806,28.93982],[-97.3152,28.93804],[-97.31685,28.93536],[-97.31249,28.93199],[-97.31299,28.93054],[-97.31181,28.92944],[-97.30544,28.93218],[-97.29519,28.93115],[-97.2997,28.92706],[-97.27921,28.91544],[-97.27299,28.92257],[-97.26339,28.91425],[-97.24772,28.90718],[-97.09473,29.01917],[-97.0965,29.02792],[-97.09386,29.02925],[-97.10256,29.07176],[-97.10155,29.08274],[-97.10413,29.08626],[-97.1135,29.09434],[-97.10373,29.10287],[-97.09929,29.10514],[-97.09371,29.10944],[-97.09586,29.11206],[-97.0971,29.11811],[-97.10564,29.1226],[-97.10843,29.12525],[-97.10829,29.12591],[-97.10684,29.12439],[-97.10144,29.12455],[-97.09458,29.12862],[-97.09048,29.12901],[-97.08834,29.13206],[-97.08988,29.13997],[-97.10001,29.14491],[-97.1056,29.14587],[-97.11411,29.14049],[-97.12754,29.15442],[-97.1249,29.15748],[-97.12898,29.16193],[-97.13039,29.16493],[-97.15145,29.15084],[-97.16237,29.14567],[-97.16765,29.15125],[-97.18102,29.14163],[-97.18533,29.14004],[-97.1823,29.13665],[-97.19621,29.13624],[-97.20282,29.13423],[-97.2034,29.14427],[-97.21061,29.14641],[-97.20787,29.15312],[-97.21779,29.15377],[-97.21426,29.19317],[-97.21169,29.19298],[-97.21009,29.21321],[-97.23075,29.21453],[-97.21869,29.22599],[-97.2231,29.2266],[-97.22243,29.23635],[-97.24877,29.23825],[-97.24977,29.23926],[-97.24923,29.24973],[-97.25154,29.24849],[-97.27622,29.2497],[-97.27806,29.24863],[-97.27888,29.24546],[-97.28076,29.24427],[-97.30017,29.24532],[-97.29736,29.22244],[-97.30273,29.22134],[-97.30231,29.21992],[-97.30414,29.21964],[-97.30438,29.21875],[-97.30328,29.21694],[-97.30153,29.21632],[-97.30174,29.2154],[-97.30566,29.21387],[-97.30642,29.2124],[-97.31138,29.211],[-97.30957,29.20764],[-97.3123,29.20768],[-97.31409,29.21041],[-97.31717,29.21297],[-97.31973,29.21248],[-97.32013,29.21032],[-97.32126,29.21009],[-97.32374,29.21264],[-97.32391,29.21397],[-97.32317,29.21444],[-97.32123,29.21318],[-97.31919,29.21407],[-97.3187,29.21542],[-97.32152,29.21819],[-97.32485,29.21854],[-97.32327,29.22048],[-97.32268,29.22394],[-97.3254,29.22507],[-97.3252,29.22201],[-97.32933,29.22085],[-97.3303,29.22265],[-97.32769,29.22574],[-97.33011,29.22654],[-97.33212,29.22606],[-97.33334,29.22752],[-97.32917,29.22965],[-97.32653,29.2296],[-97.32695,29.2342],[-97.32588,29.2367],[-97.32691,29.23799],[-97.33171,29.23914],[-97.33297,29.24076],[-97.33149,29.24769],[-97.33348,29.25002],[-97.33314,29.25181],[-97.33519,29.25476],[-97.3335,29.25917],[-97.32968,29.25857],[-97.32954,29.25711],[-97.32864,29.25661],[-97.32711,29.25749],[-97.32653,29.25944],[-97.33179,29.26076],[-97.33149,29.26439],[-97.33267,29.26637],[-97.33474,29.2666],[-97.33784,29.26373],[-97.33885,29.26426],[-97.34015,29.26688],[-97.33984,29.26901],[-97.33864,29.26984],[-97.33648,29.26808],[-97.33536,29.26841],[-97.33542,29.27187],[-97.33423,29.27307],[-97.33154,29.27176],[-97.32953,29.27262],[-97.32698,29.27633],[-97.32883,29.28],[-97.33345,29.28075],[-97.33392,29.27703],[-97.33555,29.27576],[-97.33927,29.27778],[-97.33943,29.27957],[-97.35481,29.27984],[-97.36289,29.28656],[-97.36501,29.28508],[-97.37028,29.28937],[-97.37905,29.28297],[-97.41684,29.31448],[-97.42158,29.30978],[-97.43,29.31056],[-97.43236,29.31271],[-97.43678,29.31417],[-97.43462,29.32237],[-97.44861,29.32681],[-97.458,29.30347],[-97.46697,29.30625],[-97.47326,29.3017],[-97.46922,29.29742],[-97.47934,29.28901],[-97.48047,29.29008],[-97.48645,29.28614],[-97.48631,29.28351],[-97.48511,29.28273],[-97.48255,29.28266],[-97.48326,29.2858],[-97.48245,29.2869],[-97.48124,29.28676],[-97.48117,29.28589],[-97.47594,29.28252],[-97.47319,29.27638],[-97.47418,29.27393],[-97.47353,29.27322],[-97.46798,29.27063],[-97.46406,29.27017],[-97.45591,29.26566],[-97.45721,29.26351],[-97.4551,29.26144],[-97.45541,29.25922],[-97.45233,29.25922],[-97.45065,29.25734],[-97.45047,29.25528],[-97.44859,29.25349],[-97.4478,29.25073],[-97.44482,29.24887],[-97.44456,29.24517],[-97.44331,29.24371],[-97.44453,29.24279],[-97.44477,29.2402],[-97.44707,29.24048],[-97.44992,29.23867],[-97.45159,29.23635],[-97.45065,29.23527],[-97.45056,29.23081],[-97.44449,29.23522],[-97.44137,29.22811],[-97.42612,29.24121],[-97.42051,29.24874],[-97.40538,29.25393],[-97.40509,29.24709],[-97.40074,29.24691],[-97.39322,29.24071],[-97.38046,29.22258],[-97.37425,29.21748],[-97.36177,29.20135],[-97.35835,29.19811],[-97.36606,29.19623],[-97.36642,29.19515],[-97.37531,29.19504],[-97.37512,29.17497],[-97.37271,29.17455],[-97.37239,29.1642],[-97.37449,29.16409],[-97.37665,29.16142],[-97.38081,29.15969],[-97.38087,29.15565],[-97.38147,29.15512],[-97.38314,29.15639],[-97.38568,29.16041],[-97.3851,29.16658],[-97.38225,29.16944],[-97.38481,29.17162],[-97.38585,29.17629],[-97.38541,29.18296],[-97.38708,29.18367],[-97.38841,29.18351],[-97.3938,29.18551],[-97.39378,29.17863],[-97.40788,29.17818],[-97.41011,29.17639],[-97.4115,29.17376],[-97.414,29.17263],[-97.41826,29.17548],[-97.41855,29.17781],[-97.4215,29.18073],[-97.42461,29.18151],[-97.42701,29.18105],[-97.43022,29.18247],[-97.43341,29.18167],[-97.43529,29.18231],[-97.43732,29.18164],[-97.43922,29.17974],[-97.44236,29.18013],[-97.44448,29.17876],[-97.44669,29.17937],[-97.45035,29.17892],[-97.45087,29.17817],[-97.45524,29.1771],[-97.44888,29.16002],[-97.46069,29.15579],[-97.47273,29.14222],[-97.47132,29.14223],[-97.46954,29.14032],[-97.46165,29.13899],[-97.45941,29.13945],[-97.45539,29.13418],[-97.45367,29.1337],[-97.45677,29.13111],[-97.45881,29.13264],[-97.46032,29.13223],[-97.46105,29.12975],[-97.45985,29.12453],[-97.46087,29.12291],[-97.46345,29.12059],[-97.46595,29.12047],[-97.46772,29.11943],[-97.47062,29.11389],[-97.47304,29.11249],[-97.47587,29.11287],[-97.47954,29.11026],[-97.48096,29.09601],[-97.48334,29.09052],[-97.48816,29.08385],[-97.49446,29.05787],[-97.49933,29.04637]]]},"properties":{"zip_code":"77954","county":"Gonzales"}}]}