{"type":"FeatureCollection","features":[{"type":"Feature","geometry":{"type":"Polygon","coordinates":[[[-97.32072,29.38165],[-97.31859,29.37356],[-97.32026,29.37134],[-97.31988,29.36979],[-97.31746,29.36871],[-97.31402,29.36919],[-97.31293,29.37005],[-97.3131,29.37218],[-97.31109,29.37229],[-97.30916,29.36868],[-97.30551,29.36449],[-97.30538,29.36156],[-97.30404,29.35906],[-97.30176,29.35713],[-97.29774,29.35657],[-97.29675,29.35275],[-97.29332,29.35314],[-97.29264,29.35247],[-97.29337,29.35019],[-97.29062,29.35029],[-97.28915,29.34871],[-97.27435,29.35958],[-97.27587,29.35073],[-97.26417,29.3488],[-97.25975,29.35547],[-97.25698,29.36376],[-97.25406,29.36354],[-97.25051,29.36713],[-97.24498,29.36692],[-97.24507,29.36988],[-97.22778,29.36867],[-97.22398,29.36767],[-97.2027,29.34559],[-97.19517,29.34513],[-97.19461,29.35077],[-97.17404,29.3495],[-97.174,29.36469],[-97.16664,29.36426],[-97.16424,29.36311],[-97.16144,29.36516],[-97.16669,29.38481],[-97.16487,29.38567],[-97.16226,29.38471],[-97.15984,29.38606],[-97.15366,29.38679],[-97.15045,29.3863],[-97.14115,29.38689],[-97.1373,29.38973],[-97.13405,29.38973],[-97.13311,29.38877],[-97.1318,29.38962],[-97.12968,29.38804],[-97.12654,29.38838],[-97.12576,29.38653],[-97.12166,29.38572],[-97.11444,29.38121],[-97.11318,29.38163],[-97.11158,29.3803],[-97.10517,29.37922],[-97.10282,29.37936],[-97.10002,29.38072],[-97.09858,29.37737],[-97.09209,29.37394],[-97.08998,29.37421],[-97.08943,29.37538],[-97.07986,29.3743],[-97.0792,29.38115],[-97.08307,29.38181],[-97.08812,29.38651],[-97.08791,29.39373],[-97.08291,29.39379],[-97.08284,29.40346],[-97.07775,29.40363],[-97.07788,29.40685],[-97.08143,29.40681],[-97.07608,29.41314],[-97.07077,29.4095],[-97.06957,29.40991],[-97.06917,29.41186],[-97.06219,29.41115],[-97.05988,29.40749],[-97.05829,29.40682],[-97.05735,29.40753],[-97.05643,29.41152],[-97.05465,29.41239],[-97.05235,29.41221],[-97.05018,29.40762],[-97.0491,29.40735],[-97.0474,29.40824],[-97.0485,29.41138],[-97.04622,29.41172],[-97.04594,29.41246],[-97.04588,29.41663],[-97.04701,29.41682],[-97.04698,29.42659],[-97.04767,29.42781],[-97.04702,29.42778],[-97.04697,29.43863],[-97.05652,29.43877],[-97.05618,29.45103],[-97.07287,29.45089],[-97.07376,29.45954],[-97.06345,29.45931],[-97.06412,29.4851],[-97.08335,29.49655],[-97.09895,29.49706],[-97.0973,29.4998],[-97.10697,29.50547],[-97.10509,29.50843],[-97.11967,29.51034],[-97.14176,29.51085],[-97.13878,29.53755],[-97.13997,29.53755],[-97.14189,29.56221],[-97.14862,29.56228],[-97.14926,29.56359],[-97.15095,29.56426],[-97.16489,29.55919],[-97.17382,29.56285],[-97.1762,29.56509],[-97.18817,29.56489],[-97.18806,29.57188],[-97.18481,29.57466],[-97.18494,29.58547],[-97.17965,29.58561],[-97.17611,29.58746],[-97.18332,29.59646],[-97.19451,29.60513],[-97.20803,29.61376],[-97.22916,29.61361],[-97.22917,29.59667],[-97.22819,29.59429],[-97.22814,29.59061],[-97.21803,29.59062],[-97.21802,29.5864],[-97.22519,29.58803],[-97.22831,29.58789],[-97.22714,29.57115],[-97.21709,29.57094],[-97.21604,29.56895],[-97.2159,29.55932],[-97.21396,29.55908],[-97.21907,29.55593],[-97.21982,29.54797],[-97.22564,29.54328],[-97.22609,29.53733],[-97.2295,29.53677],[-97.22938,29.52967],[-97.2309,29.52781],[-97.23623,29.52764],[-97.23778,29.52343],[-97.23178,29.52364],[-97.22556,29.52083],[-97.22243,29.5215],[-97.2213,29.52093],[-97.22041,29.51902],[-97.22189,29.51903],[-97.25084,29.48558],[-97.25649,29.48533],[-97.2645,29.4829],[-97.27903,29.49336],[-97.2763,29.49608],[-97.28493,29.50232],[-97.28745,29.49947],[-97.28291,29.48749],[-97.28468,29.47927],[-97.28703,29.48043],[-97.3065,29.47687],[-97.30964,29.47303],[-97.30872,29.4715],[-97.28426,29.45333],[-97.29459,29.46131],[-97.29579,29.45754],[-97.31479,29.46108],[-97.31597,29.45998],[-97.31685,29.4602],[-97.31829,29.45776],[-97.31719,29.45565],[-97.31803,29.45309],[-97.31659,29.45235],[-97.31651,29.45029],[-97.31481,29.44809],[-97.31504,29.4469],[-97.31303,29.44564],[-97.31316,29.44495],[-97.31481,29.44458],[-97.31319,29.44053],[-97.31429,29.43702],[-97.31353,29.43583],[-97.31371,29.43166],[-97.31269,29.43038],[-97.31266,29.42836],[-97.31379,29.42575],[-97.31129,29.42571],[-97.3112,29.42343],[-97.30745,29.4249],[-97.30607,29.42467],[-97.28976,29.40892],[-97.28874,29.40729],[-97.28926,29.40564],[-97.28642,29.40052],[-97.28757,29.39891],[-97.28657,29.39866],[-97.28744,29.39765],[-97.28697,29.39545],[-97.28775,29.39467],[-97.28893,29.39513],[-97.2906,29.39408],[-97.29194,29.39476],[-97.29372,29.39346],[-97.29375,29.39197],[-97.29631,29.39337],[-97.29691,29.39231],[-97.29851,29.3922],[-97.29866,29.39126],[-97.29751,29.39018],[-97.29887,29.38929],[-97.29874,29.38738],[-97.30311,29.38862],[-97.30317,29.39103],[-97.3045,29.39256],[-97.3059,29.3925],[-97.30704,29.39008],[-97.30987,29.39105],[-97.31116,29.38841],[-97.31591,29.38431],[-97.31954,29.38337],[-97.32072,29.38165]]]},"properties":{"zip_code":"77984","county":"Gonzales"}}]}