{"type":"FeatureCollection","features":[{"type":"Feature","geometry":{"type":"Polygon","coordinates":[[[-97.57567,29.13791],[-97.55358,29.12248],[-97.54381,29.12193],[-97.53124,29.11326],[-97.52787,29.10929],[-97.52545,29.10924],[-97.52307,29.10783],[-97.51843,29.11301],[-97.49926,29.10754],[-97.49174,29.10744],[-97.48414,29.10499],[-97.47951,29.1065],[-97.47954,29.11026],[-97.47587,29.11287],[-97.47304,29.11249],[-97.47062,29.11389],[-97.46772,29.11943],[-97.46595,29.12047],[-97.46345,29.12059],[-97.46087,29.12291],[-97.45985,29.12453],[-97.46105,29.12975],[-97.46032,29.13223],[-97.45881,29.13264],[-97.45677,29.13111],[-97.45367,29.1337],[-97.45539,29.13418],[-97.45941,29.13945],[-97.46165,29.13899],[-97.46954,29.14032],[-97.47132,29.14223],[-97.47273,29.14222],[-97.46069,29.15579],[-97.44888,29.16002],[-97.45524,29.1771],[-97.45087,29.17817],[-97.45035,29.17892],[-97.44669,29.17937],[-97.44448,29.17876],[-97.44236,29.18013],[-97.43922,29.17974],[-97.43732,29.18164],[-97.43529,29.18231],[-97.43341,29.18167],[-97.43022,29.18247],[-97.42701,29.18105],[-97.42461,29.18151],[-97.4215,29.18073],[-97.41855,29.17781],[-97.41826,29.17548],[-97.414,29.17263],[-97.4115,29.17376],[-97.41011,29.17639],[-97.40788,29.17818],[-97.39378,29.17863],[-97.3938,29.18551],[-97.38841,29.18351],[-97.38708,29.18367],[-97.38541,29.18296],[-97.38585,29.17629],[-97.38481,29.17162],[-97.38225,29.16944],[-97.3851,29.16658],[-97.38568,29.16041],[-97.38314,29.15639],[-97.38147,29.15512],[-97.38087,29.15565],[-97.38081,29.15969],[-97.37665,29.16142],[-97.37449,29.16409],[-97.37239,29.1642],[-97.37271,29.17455],[-97.37512,29.17497],[-97.37531,29.19504],[-97.36642,29.19515],[-97.36606,29.19623],[-97.35835,29.19811],[-97.36177,29.20135],[-97.37425,29.21748],[-97.38046,29.22258],[-97.39322,29.24071],[-97.40074,29.24691],[-97.40509,29.24709],[-97.40538,29.25393],[-97.42051,29.24874],[-97.42612,29.24121],[-97.44137,29.22811],[-97.44449,29.23522],[-97.45056,29.23081],[-97.45065,29.23527],[-97.45159,29.23635],[-97.44992,29.23867],[-97.4472,29.24009],[-97.44722,29.24142],[-97.44885,29.24231],[-97.45156,29.24151],[-97.45329,29.2419],[-97.45324,29.24527],[-97.45473,29.24692],[-97.46209,29.2454],[-97.46343,29.24779],[-97.47135,29.2471],[-97.47388,29.2487],[-97.47865,29.24702],[-97.47975,29.24755],[-97.48318,29.2471],[-97.48767,29.23052],[-97.48653,29.22422],[-97.48953,29.21865],[-97.48865,29.21605],[-97.48694,29.21502],[-97.48346,29.20697],[-97.57567,29.13791]]]},"properties":{"zip_code":"77994","county":"Gonzales"}}]}