{"type":"FeatureCollection","features":[{"type":"Feature","geometry":{"type":"Polygon","coordinates":[[[-98.26875,29.60675],[-98.26916,29.60642],[-98.26515,29.60032],[-98.263,29.59741],[-98.26184,29.59799],[-98.25337,29.58548],[-98.26362,29.58033],[-98.2627,29.57864],[-98.26007,29.57471],[-98.25715,29.57618],[-98.25098,29.56715],[-98.24796,29.5669],[-98.2472,29.56514],[-98.24357,29.56373],[-98.24567,29.56071],[-98.24744,29.55982],[-98.2464,29.556],[-98.24877,29.55498],[-98.24932,29.55088],[-98.25128,29.54982],[-98.25388,29.5504],[-98.25812,29.54601],[-98.25299,29.54316],[-98.25388,29.54098],[-98.25609,29.54027],[-98.25413,29.53856],[-98.2495,29.53027],[-98.24885,29.53063],[-98.24964,29.5318],[-98.24683,29.53322],[-98.24532,29.53091],[-98.24871,29.52912],[-98.24033,29.53338],[-98.2385,29.53322],[-98.23374,29.52605],[-98.2216,29.53216],[-98.21864,29.52689],[-98.21927,29.52496],[-98.21884,29.52355],[-98.21613,29.52435],[-98.21414,29.52292],[-98.21006,29.52338],[-98.20487,29.52218],[-98.20144,29.51971],[-98.20253,29.51778],[-98.20207,29.51701],[-98.19857,29.51733],[-98.19748,29.51639],[-98.19687,29.51494],[-98.19975,29.51344],[-98.20022,29.51126],[-98.19939,29.50966],[-98.19641,29.50991],[-98.19529,29.51111],[-98.19095,29.50955],[-98.19023,29.50645],[-98.18846,29.50403],[-98.18967,29.50563],[-98.18493,29.50787],[-98.18214,29.5048],[-98.18127,29.50525],[-98.18781,29.51487],[-98.1788,29.51949],[-98.18081,29.52247],[-98.17247,29.5267],[-98.18054,29.53773],[-98.17435,29.53895],[-98.1856,29.55573],[-98.18767,29.5604],[-98.18781,29.56371],[-98.18627,29.56307],[-98.18488,29.56096],[-98.1861,29.56062],[-98.18595,29.55969],[-98.17735,29.56411],[-98.17815,29.56536],[-98.18839,29.56453],[-98.19211,29.57035],[-98.19354,29.56965],[-98.19521,29.57159],[-98.19973,29.57898],[-98.20254,29.57757],[-98.20555,29.58327],[-98.20181,29.58565],[-98.20241,29.58658],[-98.20351,29.58603],[-98.20865,29.59357],[-98.2057,29.59554],[-98.21084,29.6041],[-98.20624,29.60646],[-98.20522,29.60503],[-98.20007,29.60775],[-98.19794,29.6046],[-98.19546,29.60605],[-98.19486,29.60519],[-98.19206,29.60646],[-98.19708,29.61393],[-98.19424,29.6156],[-98.20074,29.62568],[-98.20071,29.62665],[-98.19785,29.62805],[-98.20217,29.6363],[-98.20367,29.6441],[-98.21153,29.63939],[-98.21089,29.63303],[-98.21547,29.63135],[-98.2162,29.63447],[-98.21802,29.6363],[-98.25185,29.61905],[-98.25351,29.61806],[-98.25304,29.61738],[-98.2614,29.61413],[-98.26698,29.60938],[-98.2665,29.6087],[-98.26875,29.60675]]]},"properties":{"zip_code":"78108","county":"Guadalupe"}}]}