{"type":"FeatureCollection","features":[{"type":"Feature","geometry":{"type":"Polygon","coordinates":[[[-98.21084,29.6041],[-98.2057,29.59554],[-98.20865,29.59357],[-98.20351,29.58603],[-98.20241,29.58658],[-98.20181,29.58565],[-98.20555,29.58327],[-98.20254,29.57757],[-98.19973,29.57898],[-98.19521,29.57159],[-98.19354,29.56965],[-98.19211,29.57035],[-98.18839,29.56453],[-98.17815,29.56536],[-98.17735,29.56411],[-98.18595,29.55969],[-98.1861,29.56062],[-98.18488,29.56096],[-98.18627,29.56307],[-98.18781,29.56371],[-98.18767,29.5604],[-98.18413,29.55333],[-98.17435,29.53895],[-98.18054,29.53773],[-98.17247,29.5267],[-98.18081,29.52247],[-98.1788,29.51949],[-98.18781,29.51487],[-98.18127,29.50525],[-98.18214,29.5048],[-98.18493,29.50787],[-98.18967,29.50563],[-98.18632,29.5012],[-98.19554,29.49768],[-98.19442,29.49663],[-98.19542,29.49603],[-98.19454,29.49547],[-98.19827,29.49362],[-98.19993,29.49497],[-98.20402,29.49296],[-98.20162,29.48913],[-98.20106,29.48968],[-98.20005,29.48834],[-98.20039,29.48748],[-98.19929,29.48577],[-98.2005,29.48525],[-98.19911,29.48186],[-98.19402,29.48446],[-98.18891,29.47675],[-98.1933,29.47439],[-98.19164,29.4716],[-98.18831,29.47317],[-98.18441,29.46589],[-98.16471,29.47596],[-98.16131,29.47414],[-98.15316,29.46164],[-98.14725,29.46461],[-98.13815,29.45075],[-98.14321,29.44843],[-98.14162,29.44781],[-98.14205,29.44706],[-98.14129,29.44593],[-98.1388,29.44589],[-98.13803,29.43939],[-98.13719,29.44043],[-98.12957,29.44392],[-98.12868,29.44536],[-98.12519,29.44641],[-98.12092,29.44648],[-98.12158,29.44793],[-98.12068,29.45017],[-98.12201,29.45041],[-98.12663,29.45457],[-98.1269,29.4571],[-98.12569,29.45826],[-98.12024,29.45747],[-98.11742,29.4609],[-98.1169,29.46388],[-98.11832,29.46863],[-98.12058,29.47084],[-98.12068,29.47329],[-98.12293,29.47317],[-98.12488,29.47564],[-98.12479,29.47629],[-98.12306,29.47638],[-98.12223,29.47729],[-98.12588,29.48165],[-98.12297,29.48263],[-98.12176,29.48401],[-98.12353,29.48546],[-98.12691,29.48377],[-98.13032,29.48893],[-98.12649,29.49088],[-98.12585,29.48995],[-98.12701,29.48928],[-98.12502,29.49029],[-98.12464,29.48972],[-98.12075,29.49158],[-98.12091,29.49217],[-98.12194,29.49429],[-98.13014,29.49009],[-98.13517,29.49807],[-98.13193,29.49964],[-98.1336,29.50238],[-98.13607,29.50112],[-98.13791,29.50363],[-98.13395,29.50561],[-98.13234,29.50299],[-98.12816,29.50506],[-98.12981,29.50772],[-98.12728,29.509],[-98.12851,29.51082],[-98.13104,29.50952],[-98.13491,29.51542],[-98.12241,29.52181],[-98.12157,29.52033],[-98.12311,29.51954],[-98.12223,29.5182],[-98.11567,29.52157],[-98.11613,29.5231],[-98.11418,29.52409],[-98.11506,29.52548],[-98.1114,29.52758],[-98.11232,29.52914],[-98.11766,29.52716],[-98.11878,29.52856],[-98.11884,29.53153],[-98.12075,29.53278],[-98.12851,29.53248],[-98.12952,29.53308],[-98.1299,29.53476],[-98.12911,29.53623],[-98.12488,29.53843],[-98.12369,29.54039],[-98.12577,29.54213],[-98.12791,29.54239],[-98.12776,29.54396],[-98.13186,29.54562],[-98.13152,29.54852],[-98.13268,29.54975],[-98.13273,29.55118],[-98.1319,29.55377],[-98.12909,29.55396],[-98.12835,29.55332],[-98.12948,29.55182],[-98.12907,29.55127],[-98.12693,29.55173],[-98.12489,29.54883],[-98.12254,29.54759],[-98.11636,29.5482],[-98.11822,29.55119],[-98.1088,29.55422],[-98.10833,29.55363],[-98.10682,29.55428],[-98.10541,29.55208],[-98.10127,29.55357],[-98.09938,29.55063],[-98.09688,29.55107],[-98.1048,29.56315],[-98.09546,29.57338],[-98.0913,29.56995],[-98.08404,29.57606],[-98.0916,29.5826],[-98.08879,29.58505],[-98.07882,29.58745],[-98.07865,29.58827],[-98.07952,29.589],[-98.08045,29.58831],[-98.08355,29.59055],[-98.08109,29.5928],[-98.08779,29.59897],[-98.08656,29.60603],[-98.09874,29.60435],[-98.11452,29.60362],[-98.11737,29.60472],[-98.12328,29.60442],[-98.1242,29.60341],[-98.12609,29.60327],[-98.1274,29.60514],[-98.12474,29.60645],[-98.12686,29.60988],[-98.13148,29.60747],[-98.13409,29.61274],[-98.1305,29.61449],[-98.13969,29.62834],[-98.12814,29.6341],[-98.1284,29.63599],[-98.12974,29.6406],[-98.13413,29.63689],[-98.13757,29.6401],[-98.13618,29.64105],[-98.14165,29.6498],[-98.13585,29.65269],[-98.14307,29.66076],[-98.17355,29.64808],[-98.1704,29.64362],[-98.17667,29.64039],[-98.17525,29.63818],[-98.18014,29.63572],[-98.18065,29.6365],[-98.19126,29.63136],[-98.19209,29.63293],[-98.19502,29.63145],[-98.19619,29.63366],[-98.19905,29.63241],[-98.19694,29.62859],[-98.20071,29.62665],[-98.20074,29.62568],[-98.19424,29.6156],[-98.19708,29.61393],[-98.19206,29.60646],[-98.19486,29.60519],[-98.19546,29.60605],[-98.19794,29.6046],[-98.20007,29.60775],[-98.20522,29.60503],[-98.20624,29.60646],[-98.21084,29.6041]]]},"properties":{"zip_code":"78124","county":"Guadalupe"}}]}