{"type":"FeatureCollection","features":[{"type":"Feature","geometry":{"type":"Polygon","coordinates":[[[-98.20459,29.35824],[-98.18879,29.35801],[-98.18855,29.35886],[-98.18714,29.35872],[-98.18679,29.36135],[-98.18274,29.36109],[-98.18096,29.36732],[-98.16917,29.36484],[-98.16771,29.37064],[-98.16465,29.36987],[-98.16274,29.36585],[-98.1606,29.36701],[-98.15929,29.36496],[-98.15581,29.36677],[-98.15137,29.35996],[-98.15142,29.35814],[-98.15238,29.35814],[-98.15266,29.35627],[-98.15757,29.35734],[-98.15968,29.35161],[-98.16342,29.35202],[-98.16392,29.35056],[-98.1652,29.35082],[-98.1667,29.3467],[-98.16309,29.34589],[-98.16354,29.34184],[-98.16236,29.34161],[-98.16391,29.33616],[-98.16209,29.33574],[-98.16319,29.33208],[-98.16423,29.33241],[-98.16504,29.3308],[-98.16429,29.3282],[-98.16949,29.32938],[-98.17234,29.31928],[-98.17551,29.32004],[-98.1796,29.30656],[-98.18485,29.30766],[-98.18518,29.30671],[-98.18621,29.30693],[-98.18836,29.29713],[-98.18713,29.29683],[-98.1901,29.28509],[-98.1876,29.28456],[-98.18985,29.27515],[-98.19509,29.27128],[-98.18322,29.26867],[-98.1775,29.2634],[-98.17518,29.26257],[-98.17354,29.26796],[-98.16805,29.27089],[-98.16585,29.26923],[-98.15847,29.26693],[-98.15394,29.26744],[-98.15256,29.26567],[-98.15207,29.26196],[-98.1492,29.26296],[-98.14788,29.26255],[-98.14638,29.2644],[-98.14099,29.26314],[-98.13868,29.25944],[-98.13441,29.26148],[-98.13353,29.25755],[-98.1375,29.2551],[-98.13839,29.25378],[-98.13311,29.2496],[-98.1162,29.25556],[-98.10946,29.2443],[-98.09248,29.25318],[-98.1029,29.26779],[-98.10113,29.26868],[-98.10258,29.27274],[-98.08534,29.28221],[-98.08269,29.27878],[-98.08108,29.27908],[-98.08012,29.27681],[-98.07462,29.27948],[-98.06856,29.27543],[-98.06773,29.27649],[-98.06663,29.27624],[-98.06406,29.2796],[-98.0657,29.28141],[-98.06448,29.28236],[-98.06289,29.28151],[-98.06051,29.28494],[-98.06175,29.28605],[-98.05946,29.28994],[-98.05987,29.29246],[-98.05827,29.29557],[-98.0614,29.29649],[-98.06437,29.29456],[-98.06782,29.29739],[-98.06695,29.2988],[-98.0691,29.30055],[-98.06915,29.30185],[-98.0666,29.30175],[-98.06367,29.29988],[-98.06158,29.29998],[-98.06206,29.30227],[-98.06087,29.30329],[-98.01918,29.32369],[-98.00411,29.29929],[-97.99819,29.30242],[-98.01019,29.32037],[-97.99961,29.32552],[-98.0118,29.34439],[-98.01602,29.34225],[-98.01898,29.34662],[-98.01814,29.35101],[-98.01896,29.35212],[-98.01583,29.35728],[-98.01103,29.36249],[-98.01118,29.36511],[-98.00996,29.36574],[-98.01098,29.36735],[-98.0107,29.36835],[-98.00223,29.37279],[-98.00111,29.37246],[-97.99838,29.36852],[-97.99726,29.3691],[-98.00374,29.37888],[-98.00196,29.37888],[-98.01298,29.39512],[-98.01541,29.39353],[-98.01985,29.39678],[-98.01751,29.39917],[-98.01746,29.40036],[-98.02265,29.40037],[-98.02265,29.39952],[-98.02537,29.39948],[-98.02536,29.40035],[-98.02722,29.40032],[-98.02698,29.40798],[-98.02796,29.40897],[-98.03266,29.40903],[-98.03263,29.41412],[-98.03391,29.41497],[-98.03173,29.41671],[-98.03413,29.41971],[-98.03521,29.41873],[-98.03714,29.41959],[-98.04015,29.4161],[-98.08058,29.41591],[-98.08053,29.41952],[-98.08247,29.42121],[-98.07215,29.42121],[-98.07205,29.43147],[-98.08046,29.43154],[-98.08034,29.43442],[-98.07544,29.43688],[-98.07684,29.43895],[-98.07809,29.43887],[-98.0878,29.45358],[-98.09306,29.45092],[-98.09532,29.45432],[-98.09264,29.45569],[-98.09481,29.45892],[-98.11849,29.44579],[-98.12108,29.44905],[-98.12158,29.44793],[-98.12092,29.44648],[-98.12519,29.44641],[-98.12868,29.44536],[-98.12957,29.44392],[-98.13719,29.44043],[-98.20459,29.35824]]]},"properties":{"zip_code":"78121","county":"Guadalupe"}}]}