{"type":"FeatureCollection","features":[{"type":"Feature","geometry":{"type":"Polygon","coordinates":[[[-97.79111,29.44049],[-97.77989,29.4382],[-97.77944,29.43577],[-97.77767,29.43506],[-97.77363,29.43564],[-97.77251,29.43683],[-97.77195,29.43939],[-97.76779,29.43825],[-97.76371,29.43978],[-97.76287,29.43918],[-97.76282,29.4371],[-97.76138,29.43398],[-97.75978,29.43382],[-97.75599,29.42985],[-97.75468,29.42942],[-97.75248,29.43036],[-97.75086,29.43015],[-97.74742,29.42334],[-97.74395,29.42282],[-97.742,29.42143],[-97.74507,29.40693],[-97.75313,29.40614],[-97.75379,29.40753],[-97.76112,29.40739],[-97.76135,29.39683],[-97.76328,29.39644],[-97.76428,29.39018],[-97.76266,29.38883],[-97.76059,29.38979],[-97.75871,29.38821],[-97.75632,29.39118],[-97.75157,29.39214],[-97.75109,29.38984],[-97.74933,29.38827],[-97.74616,29.38623],[-97.74478,29.38676],[-97.7438,29.38581],[-97.74347,29.3882],[-97.7348,29.3883],[-97.73452,29.38236],[-97.73042,29.38213],[-97.72985,29.38005],[-97.72753,29.38005],[-97.72139,29.38554],[-97.70396,29.38535],[-97.70345,29.38431],[-97.69762,29.38447],[-97.69757,29.39278],[-97.69434,29.39319],[-97.69436,29.41669],[-97.67749,29.41778],[-97.66992,29.41977],[-97.65255,29.41706],[-97.65968,29.4279],[-97.66277,29.42989],[-97.66548,29.43494],[-97.66961,29.43417],[-97.66926,29.44138],[-97.68435,29.44234],[-97.68351,29.45054],[-97.68198,29.45468],[-97.6816,29.45886],[-97.68062,29.4592],[-97.6801,29.46574],[-97.67918,29.46616],[-97.67729,29.48303],[-97.68083,29.48756],[-97.68813,29.49187],[-97.693,29.49647],[-97.69719,29.49754],[-97.70357,29.4978],[-97.70894,29.50191],[-97.71382,29.50442],[-97.72749,29.50532],[-97.73327,29.50401],[-97.73973,29.49928],[-97.74522,29.49833],[-97.7476,29.49875],[-97.75386,29.48858],[-97.79111,29.44049]]]},"properties":{"zip_code":"78122","county":"Gonzales"}}]}