{"type":"FeatureCollection","features":[{"type":"Feature","geometry":{"type":"Polygon","coordinates":[[[-98.07072,29.5885],[-98.05413,29.58939],[-98.05401,29.5884],[-98.04892,29.58688],[-98.04868,29.58581],[-98.04982,29.58419],[-98.04468,29.5794],[-98.04026,29.58201],[-98.03913,29.58128],[-98.03643,29.58156],[-98.03306,29.5839],[-98.03352,29.587],[-98.03606,29.5902],[-98.03343,29.58769],[-98.03245,29.58514],[-98.03272,29.58359],[-98.0352,29.58201],[-98.03401,29.58133],[-98.03137,29.58379],[-98.03334,29.59219],[-98.03008,29.59369],[-98.02375,29.59379],[-98.02378,29.59966],[-98.0346,29.59961],[-98.03091,29.60196],[-98.0275,29.60806],[-98.02781,29.62181],[-98.03155,29.62293],[-98.03801,29.61985],[-98.04399,29.61857],[-98.04835,29.61844],[-98.04942,29.62052],[-98.04902,29.61874],[-98.04734,29.61824],[-98.04715,29.61707],[-98.05321,29.61186],[-98.05104,29.60952],[-98.05238,29.60848],[-98.0508,29.6072],[-98.05136,29.60567],[-98.07072,29.5885]]]},"properties":{"zip_code":"78123","county":"Guadalupe"}}]}