{"type":"FeatureCollection","features":[{"type":"Feature","geometry":{"type":"Polygon","coordinates":[[[-98.34858,29.80484],[-98.34925,29.80423],[-98.3432,29.80209],[-98.33288,29.79564],[-98.33156,29.7936],[-98.33065,29.78801],[-98.32924,29.78633],[-98.32011,29.78242],[-98.3155,29.77891],[-98.30145,29.77372],[-98.29762,29.77352],[-98.29816,29.77006],[-98.30017,29.76614],[-98.30431,29.76351],[-98.3055,29.76053],[-98.30365,29.74947],[-98.3037,29.74264],[-98.30975,29.72243],[-98.31,29.71697],[-98.30406,29.71811],[-98.29904,29.71399],[-98.29361,29.71327],[-98.2915,29.70528],[-98.29185,29.70425],[-98.28882,29.7007],[-98.29063,29.69949],[-98.28943,29.69802],[-98.28972,29.6969],[-98.28392,29.68996],[-98.27924,29.68927],[-98.27755,29.68693],[-98.28238,29.68011],[-98.28118,29.6832],[-98.28341,29.68614],[-98.28757,29.688],[-98.28924,29.68739],[-98.29464,29.68913],[-98.29613,29.69361],[-98.29034,29.69683],[-98.29107,29.69953],[-98.30692,29.68737],[-98.31187,29.68074],[-98.31421,29.67498],[-98.31133,29.66947],[-98.30402,29.6745],[-98.30258,29.6727],[-98.30545,29.67091],[-98.30306,29.66917],[-98.29838,29.66797],[-98.29385,29.66376],[-98.30319,29.65355],[-98.30131,29.65012],[-98.30352,29.64573],[-98.30225,29.6453],[-98.30052,29.64986],[-98.28582,29.65724],[-98.27922,29.66157],[-98.27358,29.65481],[-98.27315,29.65271],[-98.27189,29.65195],[-98.26533,29.65095],[-98.26393,29.64956],[-98.25765,29.64984],[-98.25644,29.6442],[-98.25482,29.64239],[-98.26441,29.63538],[-98.26256,29.63224],[-98.25972,29.63329],[-98.25375,29.63336],[-98.26074,29.62933],[-98.25561,29.62139],[-98.25567,29.61926],[-98.25729,29.61759],[-98.25657,29.61632],[-98.25304,29.61738],[-98.25351,29.61806],[-98.25185,29.61905],[-98.21802,29.6363],[-98.2162,29.63447],[-98.21547,29.63135],[-98.21089,29.63303],[-98.21153,29.63939],[-98.20367,29.6441],[-98.20217,29.6363],[-98.19785,29.62805],[-98.19694,29.62859],[-98.19905,29.63241],[-98.19619,29.63366],[-98.19502,29.63145],[-98.19209,29.63293],[-98.19126,29.63136],[-98.18065,29.6365],[-98.18014,29.63572],[-98.17525,29.63818],[-98.17667,29.64039],[-98.1704,29.64362],[-98.17355,29.64808],[-98.15157,29.65721],[-98.15489,29.66345],[-98.15011,29.66544],[-98.14893,29.6669],[-98.15504,29.67454],[-98.15534,29.69297],[-98.16265,29.70582],[-98.16173,29.70899],[-98.15804,29.71212],[-98.15514,29.71673],[-98.14351,29.72439],[-98.13759,29.72693],[-98.12108,29.72977],[-98.11838,29.72949],[-98.11594,29.73175],[-98.11384,29.73909],[-98.11225,29.74124],[-98.10427,29.74375],[-98.10034,29.74635],[-98.09321,29.74103],[-98.08916,29.74548],[-98.08462,29.75364],[-98.0772,29.76345],[-98.06892,29.77022],[-98.05983,29.77466],[-98.03442,29.79852],[-98.02418,29.79624],[-98.02428,29.80308],[-98.01757,29.80888],[-98.01868,29.81225],[-98.02444,29.80681],[-98.03207,29.80812],[-98.03552,29.80735],[-98.03961,29.81196],[-98.04723,29.81343],[-98.04862,29.81464],[-98.05102,29.81909],[-98.05034,29.82101],[-98.05132,29.82526],[-98.05283,29.82544],[-98.05524,29.82379],[-98.05615,29.82399],[-98.05777,29.82787],[-98.05972,29.82908],[-98.06143,29.82738],[-98.06559,29.82554],[-98.07078,29.82732],[-98.07304,29.82934],[-98.07345,29.83133],[-98.07672,29.83272],[-98.07614,29.83452],[-98.05686,29.85185],[-98.05621,29.85235],[-98.05495,29.85106],[-98.04475,29.85871],[-98.14315,29.92829],[-98.14536,29.92748],[-98.14488,29.90746],[-98.12298,29.90789],[-98.12284,29.90722],[-98.12194,29.90737],[-98.12148,29.9031],[-98.1226,29.89982],[-98.12144,29.89731],[-98.12084,29.88955],[-98.11074,29.87813],[-98.10665,29.87073],[-98.10784,29.86546],[-98.1104,29.86649],[-98.11272,29.86224],[-98.11662,29.86149],[-98.11745,29.86057],[-98.1161,29.85957],[-98.1165,29.85748],[-98.11573,29.8561],[-98.11687,29.85391],[-98.1194,29.85212],[-98.12331,29.85469],[-98.1268,29.85378],[-98.13127,29.8552],[-98.1336,29.85796],[-98.13645,29.85584],[-98.13988,29.85483],[-98.14738,29.85876],[-98.14647,29.8596],[-98.14787,29.86031],[-98.14283,29.86503],[-98.14826,29.86967],[-98.15547,29.86336],[-98.1533,29.86178],[-98.15473,29.85937],[-98.16018,29.86253],[-98.16195,29.8553],[-98.16296,29.85383],[-98.16263,29.85292],[-98.17388,29.84809],[-98.17745,29.84771],[-98.17673,29.84687],[-98.17966,29.84563],[-98.17774,29.84182],[-98.18056,29.8407],[-98.18096,29.83435],[-98.1989,29.82603],[-98.20381,29.83502],[-98.20925,29.83215],[-98.21023,29.83342],[-98.21778,29.83037],[-98.22327,29.83749],[-98.22627,29.83754],[-98.22635,29.83865],[-98.24603,29.83276],[-98.24865,29.83403],[-98.25248,29.83845],[-98.26083,29.84123],[-98.2604,29.83941],[-98.25885,29.8392],[-98.26125,29.83779],[-98.26269,29.83824],[-98.26283,29.83599],[-98.26734,29.83531],[-98.27165,29.83151],[-98.27497,29.83431],[-98.27716,29.83231],[-98.27909,29.8341],[-98.28179,29.83337],[-98.28302,29.832],[-98.28221,29.8301],[-98.28578,29.82497],[-98.29415,29.81735],[-98.29432,29.82036],[-98.2964,29.81702],[-98.31125,29.80753],[-98.31655,29.80691],[-98.33354,29.81053],[-98.34251,29.8095],[-98.34858,29.80484]]]},"properties":{"zip_code":"78132","county":"Guadalupe"}}]}