{"type":"FeatureCollection","features":[{"type":"Feature","geometry":{"type":"Polygon","coordinates":[[[-98.16266,29.70635],[-98.16251,29.70508],[-98.16202,29.70392],[-98.15608,29.6947],[-98.15525,29.69262],[-98.15491,29.68495],[-98.15504,29.67454],[-98.14893,29.6669],[-98.15011,29.66544],[-98.15489,29.66345],[-98.15157,29.65721],[-98.14307,29.66076],[-98.13585,29.65269],[-98.14165,29.6498],[-98.13618,29.64105],[-98.13757,29.6401],[-98.13413,29.63689],[-98.12974,29.6406],[-98.1284,29.63599],[-98.12814,29.6341],[-98.13969,29.62834],[-98.1305,29.61449],[-98.13409,29.61274],[-98.13283,29.6111],[-98.1336,29.61066],[-98.13148,29.60747],[-98.12686,29.60988],[-98.12474,29.60645],[-98.1274,29.60514],[-98.12609,29.60327],[-98.1242,29.60341],[-98.12328,29.60442],[-98.11737,29.60472],[-98.11715,29.60417],[-98.11558,29.60439],[-98.11452,29.60362],[-98.10501,29.60445],[-98.09874,29.60435],[-98.08656,29.60603],[-98.08779,29.59897],[-98.08109,29.5928],[-98.08355,29.59055],[-98.08045,29.58831],[-98.07952,29.589],[-98.07865,29.58827],[-98.07925,29.58773],[-98.07882,29.58745],[-98.07068,29.58819],[-98.07066,29.58861],[-98.06269,29.59582],[-98.05421,29.60311],[-98.05265,29.60454],[-98.05236,29.6051],[-98.05136,29.60567],[-98.05165,29.60596],[-98.05101,29.60654],[-98.05125,29.60673],[-98.0508,29.6072],[-98.05238,29.60848],[-98.05104,29.60952],[-98.05321,29.61186],[-98.04715,29.61707],[-98.04734,29.61824],[-98.04848,29.61822],[-98.04902,29.61874],[-98.04936,29.61958],[-98.04942,29.62052],[-98.04915,29.62041],[-98.04888,29.62295],[-98.04967,29.62423],[-98.04991,29.62537],[-98.04921,29.62669],[-98.04653,29.62789],[-98.04597,29.62905],[-98.03427,29.63862],[-98.03139,29.63558],[-98.02884,29.63743],[-98.01525,29.64878],[-98.01521,29.64935],[-98.01472,29.64906],[-98.00301,29.64909],[-98.003,29.66985],[-98.00262,29.67118],[-97.99381,29.6717],[-97.99388,29.6737],[-97.99569,29.67372],[-97.99546,29.6756],[-97.99381,29.67582],[-97.99386,29.67798],[-97.99444,29.67817],[-97.9945,29.68132],[-97.99819,29.68365],[-97.99838,29.68488],[-97.99898,29.68636],[-97.9986,29.6865],[-97.99838,29.68948],[-97.99488,29.68955],[-97.99486,29.69302],[-97.99676,29.69309],[-97.99712,29.70016],[-97.99881,29.70009],[-97.99881,29.70144],[-97.99297,29.70144],[-97.99102,29.70187],[-97.99097,29.72266],[-97.99072,29.72286],[-97.98564,29.72287],[-97.98572,29.732],[-97.98656,29.73245],[-97.9866,29.74172],[-97.99182,29.74439],[-97.99643,29.74715],[-98.00111,29.75105],[-97.99927,29.75244],[-98.00014,29.75515],[-97.99365,29.76076],[-97.9942,29.76188],[-97.99399,29.76504],[-97.995,29.76787],[-97.99731,29.76875],[-98.00152,29.76945],[-98.00275,29.7701],[-98.00294,29.77036],[-98.00277,29.77153],[-98.00294,29.77201],[-98.00717,29.777],[-98.01082,29.78816],[-98.01815,29.78997],[-98.02043,29.78885],[-98.02176,29.78994],[-98.02183,29.79076],[-98.02162,29.79114],[-98.02269,29.79188],[-98.0221,29.79306],[-98.0228,29.79396],[-98.02047,29.79641],[-98.01511,29.80126],[-98.01757,29.80888],[-98.02236,29.80535],[-98.02222,29.80478],[-98.02428,29.80308],[-98.02445,29.80105],[-98.02374,29.79772],[-98.02418,29.79624],[-98.03442,29.79852],[-98.04445,29.78922],[-98.04414,29.78896],[-98.05983,29.77466],[-98.06692,29.77141],[-98.06892,29.77022],[-98.0772,29.76345],[-98.0791,29.76131],[-98.08072,29.7587],[-98.08131,29.75837],[-98.08462,29.75364],[-98.08916,29.74548],[-98.09321,29.74103],[-98.09912,29.74508],[-98.10034,29.74635],[-98.10214,29.74493],[-98.10427,29.74375],[-98.11113,29.74194],[-98.11258,29.74092],[-98.11369,29.73942],[-98.11594,29.73175],[-98.11838,29.72949],[-98.1197,29.72978],[-98.12108,29.72977],[-98.13514,29.72758],[-98.13759,29.72693],[-98.14242,29.72501],[-98.15497,29.7169],[-98.15588,29.7158],[-98.15804,29.71212],[-98.16173,29.70899],[-98.16243,29.70766],[-98.16266,29.70635]]]},"properties":{"zip_code":"78130","county":"Guadalupe"}}]}