{"type":"FeatureCollection","features":[{"type":"Feature","geometry":{"type":"Polygon","coordinates":[[[-97.88689,29.37725],[-97.87335,29.37709],[-97.87343,29.37209],[-97.87085,29.36943],[-97.88052,29.35343],[-97.87438,29.35038],[-97.88155,29.33906],[-97.87634,29.33671],[-97.87753,29.33483],[-97.868,29.32482],[-97.85539,29.3254],[-97.84484,29.32038],[-97.85296,29.30781],[-97.8557,29.3084],[-97.8606,29.30022],[-97.85669,29.29774],[-97.86107,29.29066],[-97.86363,29.29152],[-97.86525,29.28888],[-97.8657,29.28565],[-97.86816,29.27933],[-97.86594,29.27829],[-97.86569,29.27717],[-97.86038,29.27475],[-97.86177,29.27219],[-97.86077,29.27037],[-97.8558,29.2677],[-97.85338,29.2642],[-97.8419,29.25872],[-97.8406,29.25737],[-97.82925,29.2775],[-97.82615,29.28095],[-97.82545,29.28021],[-97.82606,29.27953],[-97.81806,29.27388],[-97.803,29.28973],[-97.80169,29.28843],[-97.79888,29.28848],[-97.79781,29.2877],[-97.8132,29.27018],[-97.81365,29.26742],[-97.80492,29.25817],[-97.83327,29.25159],[-97.83831,29.25023],[-97.838,29.24951],[-97.84333,29.24838],[-97.84308,29.24916],[-97.84607,29.24864],[-97.85075,29.24092],[-97.84208,29.22803],[-97.81371,29.17012],[-97.808,29.16149],[-97.79753,29.16642],[-97.79304,29.16651],[-97.79169,29.16807],[-97.79023,29.16735],[-97.79021,29.16626],[-97.77075,29.15706],[-97.75907,29.17884],[-97.76376,29.17737],[-97.77229,29.18129],[-97.77313,29.18899],[-97.7377,29.21489],[-97.73359,29.21295],[-97.7262,29.19598],[-97.72064,29.20952],[-97.72128,29.21169],[-97.71496,29.20865],[-97.69727,29.19147],[-97.69266,29.19189],[-97.68978,29.19578],[-97.69037,29.19676],[-97.66141,29.18257],[-97.66497,29.19126],[-97.66539,29.19428],[-97.66836,29.19989],[-97.66793,29.20203],[-97.66587,29.20466],[-97.68096,29.21239],[-97.68204,29.21823],[-97.68865,29.22158],[-97.69167,29.22165],[-97.69593,29.22428],[-97.70114,29.22994],[-97.70363,29.23434],[-97.7187,29.24177],[-97.71,29.25543],[-97.7088,29.25483],[-97.70751,29.25126],[-97.69966,29.25253],[-97.69724,29.25388],[-97.69162,29.26294],[-97.66926,29.25248],[-97.66567,29.25539],[-97.65946,29.26501],[-97.64427,29.26692],[-97.64255,29.26947],[-97.66035,29.27073],[-97.66103,29.27257],[-97.66015,29.27712],[-97.65853,29.27775],[-97.65498,29.28382],[-97.658,29.28549],[-97.65587,29.28896],[-97.65583,29.29085],[-97.65414,29.28829],[-97.65281,29.28806],[-97.6478,29.28282],[-97.64691,29.28286],[-97.64519,29.28354],[-97.64372,29.28842],[-97.64032,29.28878],[-97.63941,29.29109],[-97.6372,29.29342],[-97.6361,29.29368],[-97.63208,29.29189],[-97.62767,29.29508],[-97.62433,29.29639],[-97.62047,29.29208],[-97.61595,29.29924],[-97.6162,29.30154],[-97.62717,29.3129],[-97.62763,29.31474],[-97.62946,29.31516],[-97.6726,29.35895],[-97.65989,29.3684],[-97.6571,29.3739],[-97.65965,29.37846],[-97.65783,29.37956],[-97.66287,29.38847],[-97.66571,29.38755],[-97.67152,29.39796],[-97.67017,29.39893],[-97.67487,29.40717],[-97.67411,29.41856],[-97.68127,29.41733],[-97.69436,29.41669],[-97.69434,29.39313],[-97.69757,29.39278],[-97.69766,29.38444],[-97.70345,29.38431],[-97.70396,29.38535],[-97.72139,29.38554],[-97.72753,29.38005],[-97.73,29.38007],[-97.73042,29.38213],[-97.73452,29.38236],[-97.7348,29.3883],[-97.74347,29.3882],[-97.7438,29.38581],[-97.74478,29.38676],[-97.74616,29.38623],[-97.74933,29.38827],[-97.75109,29.38984],[-97.75157,29.39214],[-97.75632,29.39118],[-97.75871,29.38821],[-97.76059,29.38979],[-97.76266,29.38883],[-97.76428,29.39018],[-97.76328,29.39644],[-97.76135,29.39683],[-97.76112,29.40739],[-97.75379,29.40753],[-97.75313,29.40614],[-97.74507,29.40693],[-97.742,29.42143],[-97.74395,29.42282],[-97.74742,29.42334],[-97.75086,29.43015],[-97.75248,29.43036],[-97.75468,29.42942],[-97.75599,29.42985],[-97.75978,29.43382],[-97.76138,29.43398],[-97.76282,29.4371],[-97.76287,29.43918],[-97.76371,29.43978],[-97.76779,29.43825],[-97.77195,29.43939],[-97.77251,29.43683],[-97.77363,29.43564],[-97.77767,29.43506],[-97.77944,29.43577],[-97.77989,29.4382],[-97.79111,29.44049],[-97.81884,29.40465],[-97.82009,29.40583],[-97.81991,29.40982],[-97.82108,29.41416],[-97.82841,29.4171],[-97.82893,29.41568],[-97.83144,29.41469],[-97.83226,29.41256],[-97.83481,29.41161],[-97.83583,29.41613],[-97.84323,29.42753],[-97.84733,29.42811],[-97.84818,29.41879],[-97.84804,29.38976],[-97.8725,29.38934],[-97.87402,29.38956],[-97.8743,29.39042],[-97.88259,29.39036],[-97.88541,29.38346],[-97.88593,29.37904],[-97.88689,29.37725]]]},"properties":{"zip_code":"78140","county":"Gonzales"}}]}