{"type":"FeatureCollection","features":[{"type":"Feature","geometry":{"type":"Polygon","coordinates":[[[-98.34173,29.58579],[-98.33851,29.58085],[-98.33742,29.5812],[-98.33157,29.57215],[-98.33014,29.57087],[-98.32846,29.57225],[-98.33003,29.57078],[-98.32854,29.5715],[-98.32605,29.56838],[-98.32238,29.57024],[-98.32072,29.56984],[-98.31984,29.57142],[-98.31853,29.57097],[-98.31717,29.57309],[-98.31584,29.57274],[-98.31491,29.5746],[-98.314,29.57477],[-98.31435,29.57523],[-98.31202,29.57641],[-98.31352,29.57883],[-98.31288,29.57907],[-98.3138,29.57972],[-98.31229,29.58026],[-98.30959,29.57517],[-98.30643,29.57292],[-98.3029,29.57465],[-98.30254,29.56989],[-98.2991,29.56577],[-98.29852,29.56114],[-98.29666,29.56072],[-98.29463,29.56156],[-98.29046,29.56063],[-98.28778,29.55937],[-98.28571,29.55732],[-98.28553,29.55476],[-98.28418,29.55325],[-98.27907,29.55114],[-98.27333,29.55101],[-98.27383,29.55078],[-98.27225,29.54956],[-98.27255,29.54751],[-98.27107,29.5458],[-98.27379,29.54411],[-98.26708,29.54074],[-98.2604,29.53075],[-98.26234,29.52669],[-98.25929,29.52183],[-98.25958,29.52086],[-98.26295,29.51929],[-98.26548,29.52174],[-98.27697,29.516],[-98.27169,29.50763],[-98.27552,29.50565],[-98.27664,29.50729],[-98.27813,29.50653],[-98.2794,29.50846],[-98.28427,29.50596],[-98.27719,29.50415],[-98.27881,29.49924],[-98.26931,29.49672],[-98.281,29.48066],[-98.29286,29.48363],[-98.29379,29.48053],[-98.29038,29.47963],[-98.29316,29.47138],[-98.28461,29.46805],[-98.25681,29.47676],[-98.18632,29.5012],[-98.1899,29.50572],[-98.19095,29.50955],[-98.19529,29.51111],[-98.19589,29.5101],[-98.198,29.50936],[-98.19979,29.51011],[-98.19969,29.5136],[-98.19707,29.51471],[-98.19687,29.51563],[-98.19857,29.51733],[-98.20207,29.51701],[-98.20253,29.51778],[-98.20144,29.51971],[-98.20478,29.52215],[-98.21006,29.52338],[-98.21414,29.52292],[-98.21613,29.52435],[-98.21884,29.52355],[-98.21927,29.52496],[-98.21864,29.52689],[-98.2216,29.53216],[-98.23374,29.52605],[-98.2385,29.53322],[-98.24033,29.53338],[-98.24871,29.52912],[-98.24532,29.53091],[-98.24683,29.53322],[-98.24964,29.5318],[-98.24885,29.53063],[-98.2495,29.53027],[-98.25413,29.53856],[-98.25609,29.54027],[-98.25388,29.54098],[-98.25299,29.54316],[-98.25812,29.54601],[-98.25388,29.5504],[-98.25128,29.54982],[-98.24932,29.55088],[-98.24877,29.55498],[-98.2464,29.556],[-98.24744,29.55982],[-98.24567,29.56071],[-98.24357,29.56373],[-98.2472,29.56514],[-98.24796,29.5669],[-98.25098,29.56715],[-98.25715,29.57618],[-98.26007,29.57471],[-98.2627,29.57864],[-98.26362,29.58033],[-98.25337,29.58548],[-98.26184,29.59799],[-98.263,29.59741],[-98.26916,29.60642],[-98.2665,29.6087],[-98.26698,29.60938],[-98.2614,29.61413],[-98.25508,29.61657],[-98.25657,29.61632],[-98.25727,29.61743],[-98.25567,29.61926],[-98.25561,29.62139],[-98.26074,29.62933],[-98.25375,29.63336],[-98.26159,29.63275],[-98.26978,29.6281],[-98.28933,29.62113],[-98.29075,29.62301],[-98.29596,29.62084],[-98.29723,29.61993],[-98.29639,29.61867],[-98.30608,29.6146],[-98.30152,29.60778],[-98.32879,29.59514],[-98.34173,29.58579]]]},"properties":{"zip_code":"78154","county":"Guadalupe"}}]}