{"type":"FeatureCollection","features":[{"type":"Feature","geometry":{"type":"Polygon","coordinates":[[[-97.7186,29.24192],[-97.70555,29.23475],[-97.70363,29.23434],[-97.70114,29.22994],[-97.69593,29.22428],[-97.69167,29.22165],[-97.68865,29.22158],[-97.68204,29.21823],[-97.68096,29.21239],[-97.66587,29.20466],[-97.66793,29.20203],[-97.66836,29.19989],[-97.66539,29.19428],[-97.66497,29.19126],[-97.66141,29.18257],[-97.69037,29.19676],[-97.68978,29.19578],[-97.69266,29.19189],[-97.69727,29.19147],[-97.61313,29.10977],[-97.48346,29.20697],[-97.48694,29.21502],[-97.48865,29.21605],[-97.48953,29.21865],[-97.48653,29.22422],[-97.48767,29.23052],[-97.48617,29.23728],[-97.48455,29.24042],[-97.48378,29.24665],[-97.47975,29.24755],[-97.47865,29.24702],[-97.47388,29.2487],[-97.47135,29.2471],[-97.46343,29.24779],[-97.46209,29.2454],[-97.45509,29.24708],[-97.45324,29.24527],[-97.45329,29.2419],[-97.44809,29.2422],[-97.44707,29.24048],[-97.44521,29.24015],[-97.44328,29.24439],[-97.44456,29.24517],[-97.44482,29.24887],[-97.4478,29.25073],[-97.44859,29.25349],[-97.45091,29.25601],[-97.45089,29.25771],[-97.45259,29.25945],[-97.45541,29.25922],[-97.4551,29.26144],[-97.45721,29.26351],[-97.45591,29.26566],[-97.46406,29.27017],[-97.46798,29.27063],[-97.47353,29.27322],[-97.47418,29.27393],[-97.47319,29.27638],[-97.47484,29.28115],[-97.48117,29.28589],[-97.48124,29.28676],[-97.48323,29.28658],[-97.48255,29.28266],[-97.4836,29.28229],[-97.48631,29.28351],[-97.48689,29.28912],[-97.48559,29.29075],[-97.48543,29.29258],[-97.48721,29.29474],[-97.48679,29.29636],[-97.4876,29.29751],[-97.48943,29.29758],[-97.49106,29.29884],[-97.49127,29.30152],[-97.48959,29.30326],[-97.49009,29.3045],[-97.49161,29.30303],[-97.49312,29.30305],[-97.49378,29.30404],[-97.49255,29.30544],[-97.49435,29.30677],[-97.49553,29.30484],[-97.49723,29.30488],[-97.49893,29.30624],[-97.502,29.30493],[-97.50443,29.30711],[-97.50388,29.30951],[-97.50629,29.311],[-97.50542,29.313],[-97.50683,29.31309],[-97.50769,29.3149],[-97.50921,29.31556],[-97.51118,29.31314],[-97.51204,29.31346],[-97.51212,29.3155],[-97.51337,29.31557],[-97.51502,29.31442],[-97.51413,29.31366],[-97.51439,29.31302],[-97.51787,29.31156],[-97.51983,29.31254],[-97.52268,29.31078],[-97.52305,29.31213],[-97.52213,29.31415],[-97.52446,29.316],[-97.52501,29.31578],[-97.5248,29.31351],[-97.52579,29.31351],[-97.52668,29.31589],[-97.52773,29.3163],[-97.52796,29.31814],[-97.53063,29.31958],[-97.52872,29.32332],[-97.52927,29.32731],[-97.53057,29.32971],[-97.53353,29.33141],[-97.53512,29.33081],[-97.53547,29.32841],[-97.54028,29.32816],[-97.54096,29.32862],[-97.53981,29.32988],[-97.54226,29.33114],[-97.54506,29.33123],[-97.54608,29.33095],[-97.5454,29.32988],[-97.54631,29.32849],[-97.56254,29.34265],[-97.57524,29.33155],[-97.57824,29.32733],[-97.58495,29.32309],[-97.6143,29.30086],[-97.61584,29.30054],[-97.61614,29.29881],[-97.62047,29.29208],[-97.62433,29.29639],[-97.62767,29.29508],[-97.63208,29.29189],[-97.63655,29.2937],[-97.63941,29.29109],[-97.64032,29.28878],[-97.64372,29.28842],[-97.6454,29.28329],[-97.6478,29.28282],[-97.65281,29.28806],[-97.65414,29.28829],[-97.65583,29.29085],[-97.65587,29.28896],[-97.658,29.28549],[-97.65498,29.28382],[-97.65853,29.27775],[-97.66015,29.27712],[-97.66103,29.27257],[-97.66035,29.27073],[-97.64255,29.26947],[-97.64427,29.26692],[-97.6594,29.26505],[-97.66574,29.2553],[-97.66955,29.25238],[-97.69162,29.26294],[-97.69724,29.25388],[-97.69966,29.25253],[-97.70751,29.25126],[-97.7088,29.25483],[-97.71,29.25543],[-97.7186,29.24192]]]},"properties":{"zip_code":"78159","county":"Gonzales"}}]}