{"type":"FeatureCollection","features":[{"type":"Feature","geometry":{"type":"Polygon","coordinates":[[[-98.13783,29.50367],[-98.13607,29.50112],[-98.1336,29.50238],[-98.13193,29.49964],[-98.13517,29.49807],[-98.13014,29.49009],[-98.12194,29.49429],[-98.12075,29.49158],[-98.12701,29.48928],[-98.12585,29.48995],[-98.12649,29.49088],[-98.13032,29.48893],[-98.12691,29.48377],[-98.12353,29.48546],[-98.12176,29.48401],[-98.12297,29.48263],[-98.12588,29.48165],[-98.12223,29.47729],[-98.12306,29.47638],[-98.12479,29.47629],[-98.12488,29.47564],[-98.12293,29.47317],[-98.12068,29.47329],[-98.12058,29.47084],[-98.11832,29.46863],[-98.1169,29.46388],[-98.11742,29.4609],[-98.12012,29.45757],[-98.12594,29.45817],[-98.1269,29.4571],[-98.12677,29.45474],[-98.12201,29.45041],[-98.12076,29.45028],[-98.12108,29.44905],[-98.11849,29.44579],[-98.09481,29.45892],[-98.09264,29.45569],[-98.09532,29.45432],[-98.09306,29.45092],[-98.0878,29.45358],[-98.07809,29.43887],[-98.07684,29.43895],[-98.07544,29.43688],[-98.08034,29.43442],[-98.08046,29.43154],[-98.07205,29.43147],[-98.07215,29.42121],[-98.08247,29.42121],[-98.08053,29.41952],[-98.08058,29.41591],[-98.04015,29.4161],[-98.03714,29.41959],[-98.03521,29.41873],[-98.03413,29.41971],[-98.03173,29.41671],[-98.03391,29.41497],[-98.03263,29.41412],[-98.03266,29.40903],[-98.02796,29.40897],[-98.02698,29.40798],[-98.02722,29.40032],[-98.02536,29.40035],[-98.02537,29.39948],[-98.02265,29.39952],[-98.02265,29.40037],[-98.01746,29.40036],[-98.01751,29.39917],[-98.01985,29.39678],[-98.01541,29.39353],[-98.01298,29.39512],[-98.00196,29.37888],[-97.88688,29.37724],[-97.88593,29.37904],[-97.88541,29.38346],[-97.88259,29.39036],[-97.8743,29.39042],[-97.87402,29.38956],[-97.8725,29.38934],[-97.84804,29.38976],[-97.84818,29.41879],[-97.84733,29.42811],[-97.84323,29.42753],[-97.83583,29.41613],[-97.83481,29.41161],[-97.83226,29.41256],[-97.83144,29.41469],[-97.82893,29.41568],[-97.82841,29.4171],[-97.82108,29.41416],[-97.81991,29.40982],[-97.82009,29.40583],[-97.81884,29.40465],[-97.75386,29.48858],[-97.74659,29.50034],[-97.73964,29.50938],[-97.74053,29.51031],[-97.74155,29.51457],[-97.74413,29.51586],[-97.74197,29.52086],[-97.74335,29.52161],[-97.74517,29.52084],[-97.74682,29.52228],[-97.7483,29.52248],[-97.74807,29.52398],[-97.74651,29.52569],[-97.7474,29.52795],[-97.75222,29.52737],[-97.75293,29.52815],[-97.75259,29.52997],[-97.75598,29.53022],[-97.76015,29.53215],[-97.76419,29.53027],[-97.76752,29.5305],[-97.7723,29.52896],[-97.7751,29.52907],[-97.77825,29.53096],[-97.77728,29.53317],[-97.77426,29.53601],[-97.77324,29.53916],[-97.78323,29.53973],[-97.77575,29.54012],[-97.77463,29.53948],[-97.77657,29.54172],[-97.77579,29.54211],[-97.77551,29.54118],[-97.77428,29.54131],[-97.77531,29.54326],[-97.77421,29.54329],[-97.77388,29.54476],[-97.77532,29.54516],[-97.77569,29.54669],[-97.77749,29.54765],[-97.77671,29.54848],[-97.77767,29.5502],[-97.77654,29.55005],[-97.77247,29.55483],[-97.77059,29.56972],[-97.76845,29.57297],[-97.77851,29.57276],[-97.78467,29.57381],[-97.77921,29.5854],[-97.78266,29.58564],[-97.80052,29.57552],[-97.79982,29.58292],[-97.80398,29.58309],[-97.80572,29.5849],[-97.80574,29.59326],[-97.80472,29.5966],[-97.80494,29.61037],[-97.80814,29.61043],[-97.80897,29.61213],[-97.81122,29.61216],[-97.81132,29.61515],[-97.83207,29.61497],[-97.82937,29.61853],[-97.82929,29.63022],[-97.82829,29.63391],[-97.82833,29.63899],[-97.8311,29.64193],[-97.82741,29.64479],[-97.82871,29.64463],[-97.829,29.64597],[-97.8277,29.64639],[-97.82804,29.6482],[-97.83157,29.6477],[-97.83398,29.64932],[-97.84329,29.65948],[-97.858,29.65638],[-97.87003,29.66872],[-97.87312,29.66779],[-97.87486,29.66876],[-97.87979,29.66478],[-97.88356,29.66039],[-97.88547,29.65583],[-97.88561,29.64857],[-97.88734,29.64786],[-97.88683,29.65791],[-97.88497,29.66187],[-97.88223,29.66504],[-97.88479,29.66671],[-97.88526,29.6699],[-97.8865,29.67214],[-97.88646,29.67548],[-97.88908,29.68055],[-97.87874,29.68843],[-97.89492,29.70326],[-97.89378,29.70413],[-97.8965,29.70682],[-97.89492,29.70858],[-97.89596,29.71],[-97.89559,29.71143],[-97.89787,29.71416],[-97.89692,29.71696],[-97.90712,29.70937],[-97.90576,29.708],[-97.90663,29.70741],[-97.90562,29.70598],[-97.90651,29.70534],[-97.90784,29.70652],[-97.90707,29.70735],[-97.9075,29.70785],[-97.91022,29.70599],[-97.91386,29.70962],[-97.91383,29.70848],[-97.91859,29.70839],[-97.91864,29.71228],[-97.92725,29.71197],[-97.92722,29.7138],[-97.9435,29.71379],[-97.94357,29.7108],[-97.95477,29.71038],[-97.95481,29.71427],[-97.96287,29.71437],[-97.9607,29.71904],[-97.95504,29.71851],[-97.95473,29.72423],[-97.94554,29.72426],[-97.94576,29.73489],[-97.9492,29.73492],[-97.95033,29.74136],[-97.94807,29.75281],[-97.94922,29.75023],[-97.95188,29.75002],[-97.97937,29.75074],[-97.97942,29.7572],[-97.97831,29.75751],[-97.97845,29.75999],[-97.9807,29.75982],[-97.98062,29.76196],[-97.98305,29.76213],[-97.98587,29.76546],[-98.00111,29.75105],[-97.99643,29.74715],[-97.9866,29.74172],[-97.98564,29.72287],[-97.99097,29.72266],[-97.99102,29.70187],[-97.99881,29.70144],[-97.99881,29.70009],[-97.99712,29.70016],[-97.99676,29.69309],[-97.99486,29.69302],[-97.99488,29.68955],[-97.99838,29.68948],[-97.99898,29.68636],[-97.99819,29.68365],[-97.9945,29.68132],[-97.99381,29.67582],[-97.99546,29.6756],[-97.99569,29.67372],[-97.99388,29.6737],[-97.99381,29.6717],[-98.00262,29.67118],[-98.00301,29.64909],[-98.01521,29.64935],[-98.03139,29.63558],[-98.03427,29.63862],[-98.04597,29.62905],[-98.04653,29.62789],[-98.04921,29.62669],[-98.04991,29.62537],[-98.04888,29.62295],[-98.04904,29.6193],[-98.04788,29.61835],[-98.03906,29.6195],[-98.03155,29.62293],[-98.02781,29.62181],[-98.0275,29.60806],[-98.03091,29.60196],[-98.0346,29.59961],[-98.02378,29.59966],[-98.02375,29.59379],[-98.03008,29.59369],[-98.03334,29.59219],[-98.03137,29.58379],[-98.03401,29.58133],[-98.0352,29.58201],[-98.03272,29.58359],[-98.03245,29.58514],[-98.03343,29.58769],[-98.03606,29.5902],[-98.03352,29.587],[-98.03306,29.5839],[-98.03643,29.58156],[-98.03913,29.58128],[-98.04026,29.58201],[-98.04456,29.57941],[-98.04982,29.58419],[-98.04868,29.58581],[-98.04892,29.58688],[-98.05401,29.5884],[-98.05413,29.58939],[-98.07765,29.58767],[-98.08879,29.58505],[-98.0916,29.5826],[-98.08404,29.57606],[-98.0913,29.56995],[-98.09546,29.57338],[-98.1048,29.56315],[-98.09688,29.55107],[-98.09938,29.55063],[-98.10127,29.55357],[-98.10541,29.55208],[-98.10682,29.55428],[-98.10833,29.55363],[-98.1088,29.55422],[-98.11822,29.55119],[-98.11636,29.5482],[-98.12254,29.54759],[-98.12489,29.54883],[-98.12693,29.55173],[-98.12924,29.55143],[-98.12853,29.55365],[-98.1319,29.55377],[-98.13274,29.55018],[-98.13152,29.54852],[-98.13188,29.54565],[-98.12776,29.54396],[-98.12791,29.54239],[-98.12577,29.54213],[-98.12369,29.54039],[-98.12488,29.53843],[-98.12911,29.53623],[-98.1299,29.53476],[-98.12952,29.53308],[-98.12851,29.53248],[-98.12039,29.53267],[-98.11884,29.53153],[-98.11878,29.52856],[-98.11766,29.52716],[-98.11232,29.52914],[-98.11138,29.52737],[-98.11506,29.52548],[-98.11418,29.52409],[-98.11613,29.5231],[-98.11532,29.52175],[-98.12223,29.5182],[-98.12311,29.51954],[-98.12157,29.52033],[-98.12241,29.52181],[-98.13491,29.51542],[-98.13104,29.50952],[-98.12851,29.51082],[-98.12728,29.509],[-98.12981,29.50772],[-98.12816,29.50506],[-98.13234,29.50299],[-98.13395,29.50561],[-98.13783,29.50367]]]},"properties":{"zip_code":"78155","county":"Guadalupe"}}]}