{"type":"FeatureCollection","features":[{"type":"Feature","geometry":{"type":"Polygon","coordinates":[[[-97.46464,30.01364],[-97.46359,30.01232],[-97.4629,30.00628],[-97.46102,30.00698],[-97.46012,30.00831],[-97.45815,30.00974],[-97.45547,30.00856],[-97.45586,30.00616],[-97.43241,29.99488],[-97.43259,29.99471],[-97.43174,29.9942],[-97.43158,29.9944],[-97.43031,29.99366],[-97.43014,29.99386],[-97.42911,29.9932],[-97.42936,29.99283],[-97.42907,29.99264],[-97.43028,29.99064],[-97.42868,29.98959],[-97.42761,29.99119],[-97.42649,29.9906],[-97.42857,29.98731],[-97.42406,29.99073],[-97.42279,29.99009],[-97.42206,29.99115],[-97.41992,29.9901],[-97.42004,29.98989],[-97.41938,29.98957],[-97.41872,29.99043],[-97.41404,29.98807],[-97.41064,29.99318],[-97.40958,29.99613],[-97.40815,29.99794],[-97.40704,29.99753],[-97.40526,30.00185],[-97.39948,29.99858],[-97.39506,29.99712],[-97.39108,29.99502],[-97.3921,29.99314],[-97.38642,29.99009],[-97.38574,29.9907],[-97.38502,29.99187],[-97.37402,29.98663],[-97.37558,29.9841],[-97.37301,29.98273],[-97.37478,29.98032],[-97.36279,29.97461],[-97.36169,29.97624],[-97.35569,29.97326],[-97.35512,29.97244],[-97.35424,29.97255],[-97.35292,29.97194],[-97.35112,29.97549],[-97.34281,29.97151],[-97.34294,29.97366],[-97.34243,29.97479],[-97.34153,29.97526],[-97.33931,29.97479],[-97.33894,29.97512],[-97.33903,29.97681],[-97.33987,29.97758],[-97.33951,29.97857],[-97.33874,29.97928],[-97.33852,29.98068],[-97.33926,29.98088],[-97.33992,29.98224],[-97.34012,29.98366],[-97.33903,29.98503],[-97.33747,29.98529],[-97.33637,29.98483],[-97.33564,29.9849],[-97.3359,29.98663],[-97.33683,29.98711],[-97.33682,29.99014],[-97.33634,29.9904],[-97.33597,29.99021],[-97.33567,29.98963],[-97.3347,29.98962],[-97.33423,29.99031],[-97.33418,29.99112],[-97.3328,29.99211],[-97.33305,29.99327],[-97.33486,29.99391],[-97.33765,29.99652],[-97.33859,29.99796],[-97.33838,30.00138],[-97.33701,30.00371],[-97.33664,30.00555],[-97.33473,30.00575],[-97.33367,30.00511],[-97.3333,30.00432],[-97.33179,30.00403],[-97.33068,30.00397],[-97.32931,30.00451],[-97.32893,30.00387],[-97.32929,30.00354],[-97.32916,30.00297],[-97.32838,30.00244],[-97.32721,30.00263],[-97.32633,30.00312],[-97.32481,30.00309],[-97.32378,30.0034],[-97.32314,30.0049],[-97.32363,30.00854],[-97.3241,30.00889],[-97.32474,30.00888],[-97.32621,30.00827],[-97.32759,30.00873],[-97.32817,30.00939],[-97.32921,30.01136],[-97.32879,30.013],[-97.32776,30.01396],[-97.32565,30.01489],[-97.32492,30.0166],[-97.32293,30.01768],[-97.32194,30.01862],[-97.32094,30.02009],[-97.31924,30.02072],[-97.31668,30.0207],[-97.31592,30.02189],[-97.31463,30.02291],[-97.31474,30.02347],[-97.31602,30.02421],[-97.31675,30.02507],[-97.31638,30.02558],[-97.3146,30.02581],[-97.31375,30.02638],[-97.3139,30.0269],[-97.31559,30.02856],[-97.31572,30.02937],[-97.31505,30.03013],[-97.31356,30.03048],[-97.31327,30.03191],[-97.31348,30.03215],[-97.31468,30.03227],[-97.3154,30.03452],[-97.31461,30.03474],[-97.31421,30.03541],[-97.31299,30.03605],[-97.31249,30.0367],[-97.31244,30.03715],[-97.31307,30.03802],[-97.31684,30.04004],[-97.3171,30.0406],[-97.31611,30.04265],[-97.31455,30.04502],[-97.3129,30.04506],[-97.31193,30.04423],[-97.31031,30.04196],[-97.30928,30.03931],[-97.30842,30.03836],[-97.3064,30.03812],[-97.30114,30.03923],[-97.29636,30.03919],[-97.2941,30.03864],[-97.29337,30.0379],[-97.29284,30.03328],[-97.29216,30.03213],[-97.28465,30.02769],[-97.28185,30.02543],[-97.28118,30.02528],[-97.2804,30.02549],[-97.27873,30.02548],[-97.2773,30.02524],[-97.27538,30.02417],[-97.27506,30.02328],[-97.27462,30.0228],[-97.27378,30.02244],[-97.27108,30.02265],[-97.26826,30.02248],[-97.26638,30.02266],[-97.26422,30.02325],[-97.26005,30.02484],[-97.25911,30.02563],[-97.25875,30.02634],[-97.25715,30.02727],[-97.25534,30.0272],[-97.2543,30.02646],[-97.25076,30.02628],[-97.24724,30.02653],[-97.24633,30.02632],[-97.24555,30.0256],[-97.246,30.02332],[-97.24603,30.02159],[-97.24591,30.02002],[-97.24536,30.0187],[-97.246,30.0168],[-97.24915,30.01201],[-97.24868,30.01091],[-97.24778,30.01042],[-97.24738,30.01056],[-97.24699,30.01111],[-97.24398,30.01274],[-97.24279,30.01373],[-97.23555,30.01502],[-97.23377,30.01641],[-97.23222,30.01878],[-97.232,30.02064],[-97.23328,30.02282],[-97.23351,30.02473],[-97.2333,30.02544],[-97.23169,30.02679],[-97.22893,30.02792],[-97.22774,30.02808],[-97.22552,30.02779],[-97.2217,30.0269],[-97.21849,30.02651],[-97.21691,30.02595],[-97.21412,30.02369],[-97.21257,30.02337],[-97.21075,30.02366],[-97.20488,30.02988],[-97.20314,30.03202],[-97.20263,30.03298],[-97.20239,30.03467],[-97.20321,30.04012],[-97.20392,30.04284],[-97.2054,30.04616],[-97.20541,30.04848],[-97.20458,30.05081],[-97.20379,30.05166],[-97.20226,30.0521],[-97.20242,30.05246],[-97.20421,30.05367],[-97.20587,30.05377],[-97.20683,30.05277],[-97.20992,30.05083],[-97.21296,30.04997],[-97.21372,30.04997],[-97.21464,30.04927],[-97.21604,30.0487],[-97.21694,30.04768],[-97.21821,30.04699],[-97.21849,30.04648],[-97.21853,30.04554],[-97.21928,30.04383],[-97.22096,30.04257],[-97.222,30.04129],[-97.2231,30.04077],[-97.22266,30.03945],[-97.22374,30.0395],[-97.22549,30.04035],[-97.2263,30.04201],[-97.22752,30.04331],[-97.22772,30.04412],[-97.22819,30.04438],[-97.22788,30.04535],[-97.22842,30.04573],[-97.22832,30.04608],[-97.22873,30.0464],[-97.22839,30.04668],[-97.22805,30.04769],[-97.22611,30.04905],[-97.22598,30.05031],[-97.2267,30.05123],[-97.22552,30.05176],[-97.2243,30.05296],[-97.22403,30.05405],[-97.22281,30.05592],[-97.22128,30.05702],[-97.22761,30.06139],[-97.22979,30.06352],[-97.2293,30.06683],[-97.22829,30.07067],[-97.22614,30.07012],[-97.22596,30.07035],[-97.2307,30.07159],[-97.22973,30.07518],[-97.23602,30.07645],[-97.23466,30.08136],[-97.23923,30.08261],[-97.23885,30.08283],[-97.23804,30.08556],[-97.2338,30.10049],[-97.23193,30.10822],[-97.23022,30.11366],[-97.22273,30.11201],[-97.22336,30.11294],[-97.22347,30.11382],[-97.22392,30.11393],[-97.22437,30.11452],[-97.22393,30.11515],[-97.22444,30.11533],[-97.22519,30.11682],[-97.22433,30.11925],[-97.22321,30.1206],[-97.22336,30.12279],[-97.22201,30.1261],[-97.22119,30.1275],[-97.22113,30.12826],[-97.22148,30.12877],[-97.22067,30.12897],[-97.2196,30.13105],[-97.21746,30.13232],[-97.21686,30.13234],[-97.21682,30.13309],[-97.21654,30.13354],[-97.21484,30.13416],[-97.21455,30.13458],[-97.21315,30.13471],[-97.21371,30.13706],[-97.21268,30.14198],[-97.21276,30.14555],[-97.21332,30.14663],[-97.21519,30.14727],[-97.21916,30.14947],[-97.22038,30.14938],[-97.22134,30.1487],[-97.22269,30.14885],[-97.22574,30.15174],[-97.21775,30.15648],[-97.22815,30.16532],[-97.22157,30.17085],[-97.22374,30.17266],[-97.22437,30.17228],[-97.22494,30.17275],[-97.22522,30.17361],[-97.22468,30.17443],[-97.22515,30.1747],[-97.2319,30.1686],[-97.23186,30.16842],[-97.23349,30.16984],[-97.23348,30.1702],[-97.23225,30.17112],[-97.23198,30.17224],[-97.23251,30.18616],[-97.23251,30.19211],[-97.23084,30.19414],[-97.23103,30.19675],[-97.24852,30.21049],[-97.274,30.23192],[-97.26641,30.24101],[-97.2598,30.24942],[-97.26001,30.24957],[-97.25192,30.2612],[-97.25123,30.26062],[-97.24892,30.27021],[-97.24834,30.27142],[-97.24736,30.27262],[-97.24935,30.27422],[-97.25623,30.26807],[-97.26095,30.27153],[-97.2633,30.27375],[-97.26029,30.2764],[-97.26514,30.28061],[-97.26924,30.28272],[-97.27123,30.28437],[-97.27132,30.28473],[-97.27419,30.28687],[-97.28776,30.29836],[-97.28778,30.29868],[-97.28956,30.30015],[-97.29957,30.30637],[-97.30514,30.31076],[-97.30628,30.3086],[-97.30539,30.30725],[-97.30545,30.30656],[-97.30924,30.30292],[-97.30889,30.29915],[-97.30892,30.29646],[-97.30927,30.29496],[-97.31887,30.28658],[-97.32333,30.29035],[-97.3334,30.28143],[-97.33592,30.2804],[-97.3308,30.27038],[-97.32797,30.26551],[-97.32896,30.26431],[-97.33139,30.26286],[-97.33225,30.26185],[-97.33258,30.26078],[-97.3322,30.25752],[-97.33314,30.25698],[-97.33324,30.25647],[-97.33225,30.25579],[-97.3316,30.25617],[-97.33005,30.25569],[-97.32878,30.25585],[-97.32804,30.25567],[-97.32672,30.25492],[-97.32653,30.2543],[-97.3271,30.25391],[-97.32671,30.25329],[-97.32694,30.25237],[-97.32876,30.24905],[-97.3288,30.24867],[-97.32812,30.24757],[-97.32862,30.24726],[-97.32876,30.24627],[-97.33065,30.24169],[-97.33111,30.24115],[-97.33154,30.24107],[-97.33257,30.24122],[-97.33536,30.24223],[-97.33612,30.24198],[-97.33661,30.24123],[-97.33641,30.24044],[-97.33839,30.23891],[-97.33881,30.23825],[-97.33571,30.23619],[-97.33411,30.23614],[-97.33276,30.23581],[-97.33236,30.2349],[-97.32989,30.23373],[-97.32953,30.2332],[-97.32992,30.2329],[-97.33069,30.2308],[-97.33475,30.23418],[-97.3352,30.23409],[-97.33684,30.23269],[-97.34058,30.23581],[-97.34077,30.23633],[-97.34067,30.23706],[-97.33953,30.2381],[-97.33953,30.23838],[-97.34516,30.24314],[-97.34643,30.24381],[-97.34768,30.24638],[-97.348,30.2476],[-97.34907,30.24747],[-97.34982,30.24717],[-97.3504,30.24655],[-97.35288,30.24332],[-97.35658,30.23795],[-97.35934,30.23338],[-97.36449,30.23747],[-97.36698,30.23385],[-97.36645,30.23358],[-97.37738,30.21687],[-97.37803,30.21713],[-97.38182,30.21094],[-97.40179,30.22032],[-97.41176,30.2046],[-97.41234,30.20473],[-97.41823,30.20416],[-97.4223,30.20312],[-97.42707,30.19578],[-97.42977,30.19076],[-97.42818,30.19076],[-97.42758,30.1905],[-97.42478,30.18916],[-97.42368,30.18817],[-97.42273,30.18663],[-97.42266,30.18594],[-97.42328,30.18409],[-97.4245,30.18212],[-97.43123,30.17767],[-97.43403,30.17512],[-97.43868,30.16856],[-97.43952,30.16661],[-97.44138,30.16449],[-97.44257,30.16371],[-97.44254,30.1643],[-97.44217,30.1647],[-97.44255,30.16441],[-97.44274,30.16381],[-97.4436,30.16352],[-97.44633,30.1594],[-97.44726,30.15757],[-97.4523,30.15365],[-97.45324,30.15237],[-97.4536,30.1513],[-97.45357,30.15009],[-97.45289,30.14928],[-97.44575,30.14343],[-97.4445,30.14267],[-97.4431,30.14205],[-97.44207,30.14188],[-97.44056,30.14205],[-97.43748,30.14326],[-97.43747,30.14271],[-97.44064,30.13998],[-97.44155,30.1343],[-97.44093,30.13296],[-97.43976,30.13135],[-97.43933,30.13114],[-97.43934,30.13523],[-97.4363,30.13514],[-97.4363,30.13121],[-97.43248,30.13121],[-97.43245,30.12713],[-97.43379,30.12709],[-97.43385,30.12583],[-97.43481,30.12367],[-97.43082,30.12105],[-97.43079,30.11912],[-97.42776,30.11756],[-97.42662,30.11792],[-97.42649,30.11632],[-97.42207,30.11336],[-97.42085,30.1117],[-97.41649,30.11304],[-97.41525,30.11239],[-97.41696,30.11107],[-97.41901,30.11037],[-97.4145,30.11029],[-97.4145,30.10933],[-97.41411,30.10922],[-97.41396,30.10582],[-97.41442,30.10571],[-97.41433,30.10209],[-97.42007,30.10209],[-97.42014,30.09698],[-97.42428,30.09684],[-97.4271,30.09649],[-97.43175,30.09481],[-97.43594,30.09457],[-97.43926,30.08602],[-97.43786,30.08477],[-97.4374,30.08353],[-97.43723,30.08192],[-97.43614,30.08025],[-97.43616,30.08],[-97.43683,30.07996],[-97.43697,30.07955],[-97.43601,30.07878],[-97.43528,30.07945],[-97.43502,30.08034],[-97.43423,30.08032],[-97.43331,30.08164],[-97.43393,30.08318],[-97.43388,30.08419],[-97.43243,30.08363],[-97.43072,30.08385],[-97.43033,30.08413],[-97.43048,30.08489],[-97.42998,30.08531],[-97.42819,30.08494],[-97.42651,30.08569],[-97.4255,30.08525],[-97.42461,30.08425],[-97.42371,30.08415],[-97.42279,30.08623],[-97.42086,30.08821],[-97.42004,30.08966],[-97.41914,30.08999],[-97.41886,30.08988],[-97.41874,30.08932],[-97.41764,30.08942],[-97.41746,30.08864],[-97.41716,30.0884],[-97.41415,30.08804],[-97.41171,30.08669],[-97.40985,30.08679],[-97.40808,30.0876],[-97.40589,30.08808],[-97.40516,30.08795],[-97.40359,30.08688],[-97.40424,30.08512],[-97.40334,30.0832],[-97.40147,30.08315],[-97.39882,30.0822],[-97.3973,30.08323],[-97.39626,30.08222],[-97.39394,30.08067],[-97.39255,30.08144],[-97.39166,30.08243],[-97.39104,30.08279],[-97.39009,30.08291],[-97.38903,30.08256],[-97.38782,30.08266],[-97.38635,30.08232],[-97.38476,30.08152],[-97.38376,30.08065],[-97.38358,30.07967],[-97.38423,30.07811],[-97.38537,30.07716],[-97.38701,30.07638],[-97.38732,30.07575],[-97.38704,30.07296],[-97.38819,30.07215],[-97.38857,30.07077],[-97.38782,30.06914],[-97.38717,30.06842],[-97.39775,30.06216],[-97.39791,30.06272],[-97.39867,30.06257],[-97.3986,30.062],[-97.3989,30.06144],[-97.40253,30.05933],[-97.40486,30.05285],[-97.40295,30.05273],[-97.40238,30.0548],[-97.39987,30.05424],[-97.40074,30.05064],[-97.40867,30.0515],[-97.41291,30.04679],[-97.41344,30.04672],[-97.4136,30.04603],[-97.41611,30.04324],[-97.41763,30.04343],[-97.42156,30.03767],[-97.42176,30.03737],[-97.42141,30.03698],[-97.42136,30.03544],[-97.42085,30.03479],[-97.42042,30.03331],[-97.42063,30.0322],[-97.42139,30.03098],[-97.42062,30.02913],[-97.42071,30.02853],[-97.42036,30.02819],[-97.42002,30.0284],[-97.42004,30.02726],[-97.41945,30.02783],[-97.41859,30.02813],[-97.41986,30.02605],[-97.42128,30.02534],[-97.42323,30.02504],[-97.42395,30.02735],[-97.42482,30.02851],[-97.42548,30.02877],[-97.42546,30.02776],[-97.42642,30.02807],[-97.42541,30.03163],[-97.42419,30.03379],[-97.42775,30.03532],[-97.43278,30.02968],[-97.43537,30.02882],[-97.43623,30.02802],[-97.43643,30.02746],[-97.43639,30.02568],[-97.43711,30.0236],[-97.44198,30.02568],[-97.44299,30.02637],[-97.44676,30.02711],[-97.44857,30.02415],[-97.44956,30.02398],[-97.45137,30.02237],[-97.45471,30.01768],[-97.45644,30.01817],[-97.46048,30.02192],[-97.4641,30.01665],[-97.46262,30.01525],[-97.46464,30.01364]]]},"properties":{"zip_code":"78602","county":"Bastrop"}}]}