{"type":"FeatureCollection","features":[{"type":"Feature","geometry":{"type":"Polygon","coordinates":[[[-98.16742,30.76458],[-98.1651,30.75768],[-98.16445,30.75787],[-98.16241,30.75296],[-98.16434,30.74943],[-98.16087,30.74941],[-98.1629,30.74076],[-98.16206,30.73898],[-98.1552,30.73614],[-98.15472,30.73553],[-98.15551,30.73301],[-98.14985,30.73235],[-98.14719,30.72937],[-98.14018,30.72521],[-98.14545,30.72032],[-98.14656,30.71781],[-98.15497,30.71228],[-98.15506,30.71113],[-98.15968,30.70657],[-98.16067,30.70684],[-98.14776,30.70113],[-98.14413,30.69635],[-98.15114,30.69385],[-98.14468,30.67868],[-98.15249,30.67606],[-98.15036,30.66929],[-98.1535,30.66096],[-98.15179,30.65691],[-98.14759,30.65786],[-98.13956,30.64859],[-98.14193,30.64794],[-98.14396,30.64589],[-98.14817,30.63692],[-98.16187,30.64335],[-98.15987,30.64714],[-98.16378,30.64909],[-98.16424,30.64732],[-98.16296,30.64543],[-98.16328,30.64422],[-98.16215,30.64335],[-98.16331,30.64141],[-98.15999,30.63745],[-98.16023,30.63637],[-98.16234,30.63594],[-98.16355,30.6341],[-98.16298,30.63034],[-98.16083,30.62923],[-98.15898,30.62698],[-98.1581,30.6283],[-98.12907,30.61443],[-98.13097,30.61054],[-98.12977,30.60764],[-98.12802,30.60671],[-98.1184,30.61317],[-98.10778,30.60798],[-98.10497,30.60492],[-98.10172,30.60546],[-98.0963,30.59971],[-98.08582,30.60376],[-98.08333,30.6091],[-98.07687,30.61816],[-98.07404,30.62049],[-98.07282,30.61873],[-98.06922,30.61925],[-98.06668,30.6187],[-98.06485,30.61689],[-98.06356,30.61744],[-98.06317,30.61398],[-98.06048,30.61263],[-98.05683,30.61212],[-98.03034,30.66045],[-98.03442,30.66316],[-98.04283,30.66295],[-98.07114,30.65386],[-98.07512,30.66464],[-98.06683,30.67353],[-98.05927,30.6845],[-98.05992,30.69257],[-98.06198,30.69777],[-98.06134,30.69764],[-98.06091,30.69985],[-98.05862,30.7014],[-98.05772,30.70063],[-98.05474,30.70075],[-98.05057,30.69936],[-98.04683,30.7023],[-98.04498,30.70176],[-98.04333,30.69932],[-98.03769,30.70018],[-98.03619,30.70337],[-98.03449,30.70405],[-98.03216,30.70309],[-98.03383,30.70589],[-98.03411,30.71143],[-98.03353,30.71153],[-98.01747,30.71334],[-98.00437,30.70837],[-97.96286,30.78564],[-97.90413,30.83789],[-97.92924,30.83076],[-97.93828,30.85359],[-97.93495,30.85468],[-97.93417,30.85347],[-97.88786,30.86794],[-97.88857,30.8716],[-97.88783,30.87257],[-97.88527,30.87328],[-97.88846,30.87602],[-97.88747,30.88057],[-97.88796,30.8811],[-97.88544,30.88671],[-97.88583,30.89085],[-97.88476,30.89185],[-97.8844,30.89547],[-97.88233,30.89657],[-97.88062,30.89644],[-97.87935,30.89725],[-97.87948,30.89803],[-97.88297,30.89856],[-97.88808,30.89646],[-97.89515,30.89665],[-97.90036,30.89497],[-97.90313,30.89694],[-97.91294,30.89373],[-97.91468,30.89218],[-97.91379,30.89203],[-97.91386,30.88813],[-97.91253,30.88606],[-97.92148,30.88336],[-97.92322,30.88495],[-97.93225,30.88956],[-97.953,30.89043],[-97.95971,30.89315],[-97.9627,30.89595],[-97.96547,30.896],[-97.96927,30.89828],[-97.97307,30.89799],[-97.9742,30.89709],[-97.97968,30.89794],[-97.98288,30.8968],[-97.98446,30.89874],[-97.98285,30.89994],[-97.98279,30.90082],[-97.98402,30.9024],[-97.98598,30.90149],[-97.9873,30.90213],[-97.98747,30.9034],[-97.98936,30.90503],[-97.98928,30.90837],[-97.9907,30.90957],[-97.99153,30.91185],[-97.99234,30.91088],[-97.99841,30.91061],[-98.00226,30.90916],[-98.00265,30.90991],[-98.00116,30.91514],[-98.00333,30.91923],[-98.00242,30.92019],[-98.00292,30.92075],[-98.00667,30.9232],[-98.01054,30.92239],[-98.01294,30.92449],[-98.02006,30.92464],[-98.0199,30.9227],[-98.01773,30.92181],[-98.0187,30.91885],[-98.02274,30.91759],[-98.02967,30.91837],[-98.02999,30.91644],[-98.03157,30.91518],[-98.03252,30.91048],[-98.03569,30.91042],[-98.03689,30.91159],[-98.03942,30.90911],[-98.03556,30.90742],[-98.0379,30.90483],[-98.04268,30.90328],[-98.04765,30.89462],[-98.05471,30.89574],[-98.0553,30.89789],[-98.06525,30.89675],[-98.06902,30.90054],[-98.07338,30.89924],[-98.06796,30.8866],[-98.06477,30.88411],[-98.06274,30.88492],[-98.06059,30.88039],[-98.0628,30.87935],[-98.06465,30.88277],[-98.08335,30.87737],[-98.08817,30.87377],[-98.0931,30.87244],[-98.09338,30.86412],[-98.09171,30.85849],[-98.09538,30.85467],[-98.09421,30.85205],[-98.09449,30.85024],[-98.09783,30.84699],[-98.09698,30.84532],[-98.09773,30.84513],[-98.09817,30.84354],[-98.09142,30.83223],[-98.08995,30.82781],[-98.08311,30.8239],[-98.08045,30.81827],[-98.08334,30.81732],[-98.08195,30.81261],[-98.08438,30.80963],[-98.083,30.80977],[-98.08064,30.80745],[-98.07793,30.80704],[-98.07764,30.80521],[-98.07635,30.80439],[-98.0815,30.80504],[-98.08427,30.80422],[-98.08608,30.79879],[-98.08846,30.79779],[-98.09353,30.79836],[-98.09511,30.79292],[-98.09854,30.79243],[-98.10168,30.79024],[-98.10825,30.7898],[-98.11011,30.79081],[-98.11407,30.78927],[-98.12009,30.79008],[-98.12132,30.78746],[-98.12459,30.78482],[-98.12801,30.78435],[-98.12793,30.78697],[-98.12963,30.78705],[-98.13323,30.78493],[-98.14203,30.78184],[-98.14249,30.78061],[-98.15925,30.77541],[-98.15862,30.77384],[-98.16225,30.77283],[-98.16428,30.77115],[-98.16514,30.76663],[-98.16396,30.76567],[-98.16742,30.76458]]]},"properties":{"zip_code":"78605","county":"Burnet"}}]}