{"type":"FeatureCollection","features":[{"type":"Feature","geometry":{"type":"Polygon","coordinates":[[[-98.01965,30.93677],[-98.00628,30.92997],[-98.00692,30.9239],[-98.01045,30.92329],[-98.01204,30.9238],[-98.01054,30.92239],[-98.00667,30.9232],[-98.00242,30.92019],[-98.00333,30.91923],[-98.00116,30.91514],[-98.00265,30.90991],[-98.00226,30.90916],[-97.99841,30.91061],[-97.99234,30.91088],[-97.99153,30.91185],[-97.9907,30.90957],[-97.98928,30.90837],[-97.98936,30.90503],[-97.98747,30.9034],[-97.9873,30.90213],[-97.98598,30.90149],[-97.98402,30.9024],[-97.98279,30.90082],[-97.98285,30.89994],[-97.98446,30.89874],[-97.98288,30.8968],[-97.97968,30.89794],[-97.9742,30.89709],[-97.97307,30.89799],[-97.96927,30.89828],[-97.96547,30.896],[-97.9627,30.89595],[-97.95971,30.89315],[-97.953,30.89043],[-97.93225,30.88956],[-97.92322,30.88495],[-97.92148,30.88336],[-97.91253,30.88606],[-97.91386,30.88813],[-97.91379,30.89203],[-97.91468,30.89218],[-97.91419,30.89315],[-97.90313,30.89694],[-97.90036,30.89497],[-97.89588,30.89655],[-97.89023,30.89618],[-97.88297,30.89856],[-97.88014,30.8985],[-97.87954,30.89711],[-97.8844,30.89547],[-97.88476,30.89185],[-97.88608,30.88967],[-97.88539,30.88869],[-97.87709,30.89117],[-97.87614,30.88899],[-97.86829,30.89007],[-97.86864,30.893],[-97.85742,30.89747],[-97.85599,30.89508],[-97.85495,30.89562],[-97.85684,30.9004],[-97.85452,30.90129],[-97.85555,30.90555],[-97.85474,30.90859],[-97.85692,30.91071],[-97.85689,30.91504],[-97.85793,30.91841],[-97.85978,30.91945],[-97.86163,30.9222],[-97.86162,30.92357],[-97.86304,30.92419],[-97.86106,30.92643],[-97.8609,30.93105],[-97.86261,30.93371],[-97.86622,30.93524],[-97.86761,30.93803],[-97.86453,30.94164],[-97.86356,30.94468],[-97.86749,30.94975],[-97.86217,30.95469],[-97.86115,30.95693],[-97.86261,30.95773],[-97.86208,30.95616],[-97.87462,30.95218],[-97.87616,30.95293],[-97.876,30.95372],[-97.87394,30.95373],[-97.87366,30.95438],[-97.87515,30.95583],[-97.87476,30.9585],[-97.87783,30.95932],[-97.87776,30.96091],[-97.87589,30.96111],[-97.87672,30.96291],[-97.87622,30.96322],[-97.88059,30.96368],[-97.87771,30.96602],[-97.87786,30.96807],[-97.87886,30.96848],[-97.88462,30.96377],[-97.88799,30.96369],[-97.90132,30.95913],[-97.90527,30.96194],[-97.90973,30.96922],[-97.91815,30.97789],[-97.92343,30.98592],[-97.92503,30.98647],[-97.92682,30.9854],[-97.92745,30.9862],[-97.92877,30.98888],[-97.92886,30.99234],[-97.92594,30.99332],[-97.92674,30.99472],[-97.93423,30.99749],[-97.93528,30.99729],[-97.93623,30.99584],[-97.93992,30.99561],[-97.94742,30.99714],[-97.94982,30.99517],[-97.94971,30.99217],[-97.94884,30.99097],[-97.94954,30.99035],[-97.95218,30.99014],[-97.95486,30.98815],[-97.9593,30.9875],[-97.9582,30.98337],[-97.95892,30.98153],[-97.962,30.98105],[-97.96421,30.98208],[-97.9665,30.97988],[-97.96878,30.98183],[-97.9689,30.9764],[-97.9644,30.9744],[-97.96328,30.97314],[-97.9641,30.97032],[-97.96232,30.96817],[-97.95996,30.96256],[-97.96267,30.96407],[-97.9683,30.96513],[-97.97437,30.96455],[-97.97947,30.96576],[-97.98112,30.96814],[-97.98293,30.9692],[-97.98968,30.96814],[-97.99814,30.96919],[-98.00387,30.96772],[-97.99968,30.9576],[-97.99532,30.9564],[-97.9964,30.95504],[-97.99568,30.95034],[-97.99321,30.94928],[-97.99197,30.94713],[-97.98998,30.94761],[-97.98983,30.94675],[-97.99146,30.94592],[-97.99218,30.94379],[-97.99421,30.94295],[-97.99878,30.94189],[-98.00146,30.94258],[-98.00285,30.94138],[-98.00421,30.94302],[-98.00694,30.9432],[-98.0136,30.93939],[-98.01931,30.93764],[-98.01965,30.93677]]]},"properties":{"zip_code":"78608","county":"Burnet"}}]}