{"type":"FeatureCollection","features":[{"type":"Feature","geometry":{"type":"Polygon","coordinates":[[[-97.58383,30.08129],[-97.54575,30.04913],[-97.54861,30.0467],[-97.54591,30.04445],[-97.54318,30.04695],[-97.54172,30.04543],[-97.54069,30.04314],[-97.54047,30.04084],[-97.54114,30.03594],[-97.54147,30.03603],[-97.54232,30.03698],[-97.54351,30.03632],[-97.5441,30.03625],[-97.54662,30.03656],[-97.54788,30.03693],[-97.54853,30.03787],[-97.55224,30.03553],[-97.55498,30.03171],[-97.55439,30.03127],[-97.55541,30.03005],[-97.55577,30.02979],[-97.55681,30.03035],[-97.56304,30.02432],[-97.56256,30.02355],[-97.56628,30.0194],[-97.56647,30.018],[-97.55664,30.0098],[-97.55617,30.00969],[-97.55784,30.00804],[-97.5625,30.01203],[-97.56609,30.00895],[-97.55582,30],[-97.55307,30.00237],[-97.55092,30.00055],[-97.54835,30.00285],[-97.54152,29.9973],[-97.53592,30.00209],[-97.5385,30.00457],[-97.53315,30.00941],[-97.52453,30.00182],[-97.52216,30.00388],[-97.51851,30.00088],[-97.51679,30.00238],[-97.51537,30.00127],[-97.51486,30.00173],[-97.50931,29.99702],[-97.50865,29.99761],[-97.50733,29.99656],[-97.50619,29.99759],[-97.50436,29.99728],[-97.50285,29.9951],[-97.50182,29.99606],[-97.49926,29.99403],[-97.49709,29.99574],[-97.49595,29.99485],[-97.49479,29.9952],[-97.49455,29.99577],[-97.49293,29.9973],[-97.48844,29.99455],[-97.48913,29.99407],[-97.48302,29.98841],[-97.47818,29.99264],[-97.48181,29.996],[-97.47231,30.00386],[-97.47067,30.00248],[-97.4686,29.99937],[-97.46282,30.00481],[-97.46359,30.01232],[-97.46464,30.01364],[-97.46262,30.01525],[-97.4641,30.01665],[-97.46048,30.02192],[-97.45644,30.01817],[-97.45471,30.01768],[-97.45137,30.02237],[-97.44956,30.02398],[-97.44857,30.02415],[-97.44676,30.02711],[-97.44299,30.02637],[-97.44198,30.02568],[-97.43711,30.0236],[-97.43639,30.02568],[-97.43643,30.02746],[-97.43623,30.02802],[-97.43537,30.02882],[-97.43278,30.02968],[-97.42775,30.03532],[-97.42419,30.03379],[-97.42541,30.03163],[-97.42642,30.02807],[-97.42546,30.02776],[-97.42548,30.02877],[-97.42482,30.02851],[-97.42395,30.02735],[-97.42323,30.02504],[-97.42128,30.02534],[-97.41979,30.02612],[-97.41859,30.02813],[-97.41945,30.02783],[-97.42004,30.02726],[-97.42002,30.0284],[-97.42036,30.02819],[-97.42071,30.02853],[-97.42062,30.02913],[-97.42139,30.03098],[-97.42063,30.0322],[-97.42042,30.03331],[-97.42085,30.03479],[-97.42136,30.03544],[-97.42141,30.03698],[-97.42176,30.03737],[-97.42156,30.03767],[-97.41763,30.04343],[-97.41611,30.04324],[-97.4136,30.04603],[-97.41344,30.04672],[-97.41291,30.04679],[-97.40867,30.0515],[-97.40074,30.05064],[-97.39987,30.05424],[-97.40238,30.0548],[-97.40295,30.05273],[-97.40486,30.05285],[-97.40253,30.05933],[-97.3989,30.06144],[-97.3986,30.062],[-97.39867,30.06257],[-97.39791,30.06272],[-97.39775,30.06216],[-97.38717,30.06842],[-97.38782,30.06914],[-97.38857,30.07077],[-97.38819,30.07215],[-97.38704,30.07296],[-97.38732,30.07575],[-97.38701,30.07638],[-97.38537,30.07716],[-97.38423,30.07811],[-97.38355,30.0799],[-97.38376,30.08065],[-97.38484,30.08157],[-97.38635,30.08232],[-97.38782,30.08266],[-97.38903,30.08256],[-97.39009,30.08291],[-97.39104,30.08279],[-97.39166,30.08243],[-97.39255,30.08144],[-97.39394,30.08067],[-97.39626,30.08222],[-97.3973,30.08323],[-97.39882,30.0822],[-97.40147,30.08315],[-97.40334,30.0832],[-97.40424,30.08512],[-97.40359,30.08688],[-97.40516,30.08795],[-97.40589,30.08808],[-97.40808,30.0876],[-97.40985,30.08679],[-97.41171,30.08669],[-97.41415,30.08804],[-97.41716,30.0884],[-97.41746,30.08864],[-97.41764,30.08942],[-97.41874,30.08932],[-97.41886,30.08988],[-97.41914,30.08999],[-97.42004,30.08966],[-97.42086,30.08821],[-97.42279,30.08623],[-97.42365,30.08418],[-97.42461,30.08425],[-97.4255,30.08525],[-97.42651,30.08569],[-97.42819,30.08494],[-97.42998,30.08531],[-97.43048,30.08489],[-97.43033,30.08413],[-97.43072,30.08385],[-97.43243,30.08363],[-97.43388,30.08419],[-97.43393,30.08318],[-97.43329,30.0817],[-97.43382,30.08083],[-97.43427,30.0803],[-97.43502,30.08034],[-97.43528,30.07945],[-97.43586,30.0788],[-97.43696,30.07951],[-97.43679,30.07999],[-97.43614,30.08002],[-97.43622,30.08051],[-97.43723,30.08192],[-97.4374,30.08353],[-97.43786,30.08477],[-97.43926,30.08602],[-97.43594,30.09457],[-97.43175,30.09481],[-97.4271,30.09649],[-97.42428,30.09684],[-97.42014,30.09698],[-97.42007,30.10209],[-97.41433,30.10209],[-97.41442,30.10571],[-97.41396,30.10582],[-97.41411,30.10922],[-97.4145,30.10933],[-97.4145,30.11029],[-97.41901,30.11037],[-97.41696,30.11107],[-97.41525,30.11239],[-97.41649,30.11304],[-97.42085,30.1117],[-97.42207,30.11336],[-97.42649,30.11632],[-97.42662,30.11792],[-97.42776,30.11756],[-97.43079,30.11912],[-97.43082,30.12105],[-97.43481,30.12367],[-97.43385,30.12583],[-97.43379,30.12709],[-97.43245,30.12713],[-97.43248,30.13121],[-97.4363,30.13121],[-97.4363,30.13514],[-97.43934,30.13523],[-97.43933,30.13114],[-97.43976,30.13135],[-97.44093,30.13296],[-97.44155,30.1343],[-97.44064,30.13998],[-97.43747,30.14271],[-97.43748,30.14326],[-97.44056,30.14205],[-97.44207,30.14188],[-97.4431,30.14205],[-97.4445,30.14267],[-97.44575,30.14343],[-97.45289,30.14928],[-97.45357,30.15009],[-97.4536,30.1513],[-97.45324,30.15237],[-97.4523,30.15365],[-97.44726,30.15757],[-97.44633,30.1594],[-97.4436,30.16352],[-97.44274,30.16381],[-97.44255,30.16441],[-97.44217,30.1647],[-97.44254,30.1643],[-97.44257,30.16371],[-97.44138,30.16449],[-97.43952,30.16661],[-97.43868,30.16856],[-97.43403,30.17512],[-97.43123,30.17767],[-97.4245,30.18212],[-97.42289,30.18502],[-97.42273,30.18663],[-97.42368,30.18817],[-97.42478,30.18916],[-97.42758,30.1905],[-97.42818,30.19076],[-97.43199,30.1908],[-97.43396,30.19034],[-97.43558,30.18911],[-97.44944,30.18524],[-97.45371,30.18344],[-97.45854,30.18209],[-97.46145,30.18207],[-97.463,30.18358],[-97.46501,30.18445],[-97.46658,30.18414],[-97.46846,30.1832],[-97.46974,30.18285],[-97.47234,30.18324],[-97.47311,30.18361],[-97.47396,30.18484],[-97.47532,30.18548],[-97.47993,30.18691],[-97.48401,30.1884],[-97.48458,30.18881],[-97.48541,30.19011],[-97.48547,30.1953],[-97.4866,30.19684],[-97.48829,30.19851],[-97.48894,30.19983],[-97.48895,30.20041],[-97.48844,30.20136],[-97.4853,30.20181],[-97.48424,30.20275],[-97.48364,30.20421],[-97.48361,30.20612],[-97.48477,30.20697],[-97.48569,30.20826],[-97.48701,30.20848],[-97.4905,30.21114],[-97.49125,30.21211],[-97.49224,30.21265],[-97.49508,30.21052],[-97.49595,30.20923],[-97.49729,30.20882],[-97.50064,30.2086],[-97.50143,30.20845],[-97.50188,30.20794],[-97.50396,30.20775],[-97.50941,30.20293],[-97.51318,30.19891],[-97.51563,30.19827],[-97.51904,30.1979],[-97.51901,30.19724],[-97.51827,30.19743],[-97.51811,30.19725],[-97.51921,30.19622],[-97.51854,30.19599],[-97.51833,30.19557],[-97.51862,30.1946],[-97.51632,30.19402],[-97.51851,30.1907],[-97.51948,30.19076],[-97.51946,30.1903],[-97.52128,30.19066],[-97.52165,30.19037],[-97.52193,30.18976],[-97.52246,30.18945],[-97.52217,30.18863],[-97.52244,30.18798],[-97.52286,30.18773],[-97.52273,30.18692],[-97.52455,30.18543],[-97.52592,30.185],[-97.52709,30.18539],[-97.52815,30.18518],[-97.52878,30.18544],[-97.52969,30.18522],[-97.53085,30.1841],[-97.53118,30.18345],[-97.5318,30.18326],[-97.5322,30.18259],[-97.53226,30.18195],[-97.53145,30.18214],[-97.5311,30.18195],[-97.53154,30.181],[-97.53224,30.18098],[-97.53274,30.18041],[-97.5332,30.18042],[-97.53514,30.17964],[-97.52923,30.17652],[-97.52946,30.17634],[-97.53535,30.17945],[-97.53584,30.17861],[-97.53583,30.17734],[-97.53542,30.17621],[-97.53583,30.1759],[-97.53591,30.17536],[-97.5353,30.17469],[-97.53486,30.17487],[-97.53418,30.17474],[-97.53431,30.17386],[-97.5346,30.17365],[-97.5365,30.1736],[-97.53707,30.17293],[-97.53666,30.17258],[-97.53565,30.17282],[-97.53549,30.1724],[-97.53568,30.172],[-97.53487,30.17155],[-97.568,30.14146],[-97.56684,30.14033],[-97.56551,30.13957],[-97.5672,30.13679],[-97.56424,30.13541],[-97.56237,30.13848],[-97.56172,30.13817],[-97.56144,30.13862],[-97.56097,30.13855],[-97.54642,30.13292],[-97.54211,30.13034],[-97.53325,30.12718],[-97.54086,30.11537],[-97.54567,30.11788],[-97.54943,30.11464],[-97.55003,30.11513],[-97.55121,30.11549],[-97.55238,30.11543],[-97.55432,30.1131],[-97.55467,30.11252],[-97.55428,30.11114],[-97.55471,30.10999],[-97.55669,30.10812],[-97.55655,30.10707],[-97.55772,30.1067],[-97.55783,30.10571],[-97.55777,30.10264],[-97.55675,30.10184],[-97.5552,30.09338],[-97.56448,30.08638],[-97.57885,30.08571],[-97.58383,30.08129]]]},"properties":{"zip_code":"78612","county":"Bastrop"}}]}