{"type":"FeatureCollection","features":[{"type":"Feature","geometry":{"type":"Polygon","coordinates":[[[-97.67393,30.22622],[-97.67264,30.22503],[-97.67337,30.22384],[-97.67287,30.22341],[-97.67223,30.22378],[-97.67118,30.22295],[-97.67108,30.22229],[-97.67031,30.22117],[-97.66878,30.22249],[-97.66658,30.22082],[-97.66892,30.21862],[-97.65865,30.21291],[-97.65353,30.21055],[-97.6419,30.20455],[-97.6444,30.20265],[-97.64565,30.20368],[-97.65162,30.19843],[-97.64669,30.19433],[-97.64748,30.19296],[-97.64766,30.1916],[-97.64596,30.18489],[-97.64576,30.18329],[-97.64591,30.18227],[-97.64762,30.17835],[-97.65172,30.173],[-97.65932,30.16736],[-97.66158,30.16947],[-97.66351,30.17034],[-97.66376,30.16792],[-97.66066,30.1663],[-97.66906,30.15351],[-97.67053,30.15287],[-97.67048,30.15175],[-97.6718,30.14933],[-97.66918,30.14821],[-97.67046,30.14586],[-97.67257,30.14426],[-97.66478,30.14042],[-97.66554,30.13913],[-97.66629,30.1371],[-97.66653,30.13547],[-97.66647,30.13356],[-97.66546,30.1304],[-97.66165,30.12446],[-97.66097,30.12306],[-97.66034,30.12067],[-97.66042,30.11789],[-97.65855,30.11657],[-97.654,30.1153],[-97.64966,30.11326],[-97.65049,30.11071],[-97.65674,30.10053],[-97.65573,30.09942],[-97.66032,30.09532],[-97.65567,30.09141],[-97.65127,30.09536],[-97.65083,30.09541],[-97.64472,30.09025],[-97.6452,30.08983],[-97.64544,30.08849],[-97.64647,30.08778],[-97.63873,30.08167],[-97.64087,30.07959],[-97.64061,30.07895],[-97.64139,30.07825],[-97.63921,30.07829],[-97.64937,30.06794],[-97.6481,30.06689],[-97.64426,30.07013],[-97.63379,30.06161],[-97.62482,30.06976],[-97.62333,30.06869],[-97.6163,30.07485],[-97.61199,30.07115],[-97.60668,30.07634],[-97.60418,30.07784],[-97.59842,30.08279],[-97.59028,30.0758],[-97.57885,30.08571],[-97.56448,30.08638],[-97.5552,30.09338],[-97.55675,30.10184],[-97.55777,30.10264],[-97.55783,30.10571],[-97.55772,30.1067],[-97.55655,30.10707],[-97.55669,30.10812],[-97.55471,30.10999],[-97.55428,30.11114],[-97.55467,30.11252],[-97.55432,30.1131],[-97.55238,30.11543],[-97.55121,30.11549],[-97.55003,30.11513],[-97.54943,30.11464],[-97.54567,30.11788],[-97.54086,30.11537],[-97.53325,30.12718],[-97.54211,30.13034],[-97.54642,30.13292],[-97.56097,30.13855],[-97.56144,30.13862],[-97.56172,30.13817],[-97.56237,30.13848],[-97.56424,30.13541],[-97.5672,30.13679],[-97.56551,30.13957],[-97.56684,30.14033],[-97.568,30.14146],[-97.53487,30.17155],[-97.53568,30.172],[-97.53549,30.1724],[-97.53565,30.17282],[-97.53666,30.17258],[-97.53707,30.17293],[-97.5365,30.1736],[-97.5346,30.17365],[-97.53431,30.17386],[-97.53418,30.17474],[-97.53486,30.17487],[-97.5353,30.17469],[-97.53591,30.17536],[-97.53583,30.1759],[-97.53542,30.17621],[-97.53583,30.17734],[-97.53584,30.17861],[-97.53535,30.17945],[-97.52946,30.17634],[-97.52923,30.17652],[-97.53514,30.17964],[-97.5332,30.18042],[-97.53274,30.18041],[-97.53224,30.18098],[-97.53154,30.181],[-97.5311,30.18195],[-97.53145,30.18214],[-97.53226,30.18195],[-97.5322,30.18259],[-97.5318,30.18326],[-97.53118,30.18345],[-97.53085,30.1841],[-97.52969,30.18522],[-97.52878,30.18544],[-97.52815,30.18518],[-97.52709,30.18539],[-97.52592,30.185],[-97.52455,30.18543],[-97.52273,30.18692],[-97.52286,30.18773],[-97.52244,30.18798],[-97.52217,30.18863],[-97.52246,30.18945],[-97.52193,30.18976],[-97.52165,30.19037],[-97.52128,30.19066],[-97.51946,30.1903],[-97.51948,30.19076],[-97.51851,30.1907],[-97.51632,30.19402],[-97.51862,30.1946],[-97.51833,30.19557],[-97.51854,30.19599],[-97.51921,30.19622],[-97.51811,30.19725],[-97.51827,30.19743],[-97.51901,30.19724],[-97.51904,30.1979],[-97.51563,30.19827],[-97.51318,30.19891],[-97.50941,30.20293],[-97.50481,30.20709],[-97.50396,30.20775],[-97.50188,30.20794],[-97.50143,30.20845],[-97.50376,30.2079],[-97.50506,30.20715],[-97.50938,30.20355],[-97.5127,30.19962],[-97.51554,30.19857],[-97.51801,30.1984],[-97.521,30.19779],[-97.52281,30.19793],[-97.52372,30.19836],[-97.52413,30.19913],[-97.52541,30.20014],[-97.52689,30.20229],[-97.52913,30.20362],[-97.52928,30.20464],[-97.52844,30.20572],[-97.52668,30.2066],[-97.52381,30.20738],[-97.52085,30.20715],[-97.51888,30.20621],[-97.51699,30.20617],[-97.51555,30.20668],[-97.51494,30.20713],[-97.51531,30.20867],[-97.51499,30.2096],[-97.51416,30.21023],[-97.51324,30.2105],[-97.51357,30.21188],[-97.51558,30.21699],[-97.51611,30.21906],[-97.51647,30.22179],[-97.51651,30.22492],[-97.51687,30.22698],[-97.51756,30.22857],[-97.51833,30.22916],[-97.51995,30.22934],[-97.5222,30.22893],[-97.52272,30.22854],[-97.52315,30.22812],[-97.52332,30.22718],[-97.52315,30.22301],[-97.52387,30.22122],[-97.5258,30.22017],[-97.52695,30.21889],[-97.52835,30.21853],[-97.5294,30.21868],[-97.53091,30.21959],[-97.53213,30.21997],[-97.53397,30.22011],[-97.53649,30.22085],[-97.53762,30.22193],[-97.53791,30.22443],[-97.53839,30.22528],[-97.53962,30.22598],[-97.54111,30.22558],[-97.54167,30.22525],[-97.54185,30.22426],[-97.54247,30.22335],[-97.54285,30.22202],[-97.54207,30.22035],[-97.54243,30.21963],[-97.54278,30.21929],[-97.54463,30.21873],[-97.5456,30.21802],[-97.54617,30.21798],[-97.5484,30.21638],[-97.55095,30.21381],[-97.55212,30.21202],[-97.55475,30.209],[-97.55675,30.20764],[-97.55949,30.20754],[-97.56121,30.20793],[-97.56239,30.20874],[-97.56289,30.21031],[-97.56358,30.21114],[-97.56509,30.21197],[-97.57449,30.21418],[-97.57621,30.2143],[-97.57813,30.21396],[-97.57952,30.21328],[-97.58125,30.21184],[-97.58171,30.21118],[-97.58177,30.21036],[-97.58409,30.20801],[-97.58888,30.20606],[-97.591,30.20634],[-97.59368,30.20721],[-97.59473,30.20791],[-97.59525,30.2087],[-97.59459,30.21167],[-97.59443,30.21388],[-97.59561,30.21749],[-97.59551,30.21989],[-97.59535,30.22054],[-97.59477,30.22134],[-97.59265,30.22262],[-97.59209,30.22427],[-97.59246,30.22643],[-97.59349,30.22763],[-97.59483,30.22833],[-97.59698,30.22847],[-97.59823,30.22769],[-97.60238,30.22699],[-97.60336,30.2264],[-97.60376,30.22535],[-97.60387,30.22353],[-97.6048,30.22128],[-97.6052,30.21848],[-97.60594,30.21699],[-97.60725,30.2157],[-97.60785,30.21547],[-97.61055,30.21558],[-97.61131,30.21527],[-97.61278,30.21407],[-97.61469,30.21378],[-97.61882,30.21133],[-97.62087,30.21057],[-97.62691,30.2095],[-97.63276,30.20747],[-97.63734,30.20825],[-97.63848,30.20806],[-97.6407,30.20865],[-97.64604,30.21073],[-97.65056,30.21357],[-97.65089,30.21438],[-97.65405,30.21823],[-97.655,30.2179],[-97.65743,30.22136],[-97.65878,30.22491],[-97.65918,30.22681],[-97.65845,30.22827],[-97.66169,30.22526],[-97.66355,30.22679],[-97.66355,30.22704],[-97.66588,30.22758],[-97.66627,30.22749],[-97.66637,30.22722],[-97.66585,30.22668],[-97.6659,30.22632],[-97.66686,30.22533],[-97.66852,30.22557],[-97.67003,30.22661],[-97.67109,30.22553],[-97.67191,30.22569],[-97.67322,30.22677],[-97.67393,30.22622]]]},"properties":{"zip_code":"78617","county":"Travis"}}]}