{"type":"FeatureCollection","features":[{"type":"Feature","geometry":{"type":"Polygon","coordinates":[[[-97.67446,30.03052],[-97.6743,30.03036],[-97.67437,30.02888],[-97.6702,30.02452],[-97.65906,30.01504],[-97.66577,30.00903],[-97.66343,30.00677],[-97.66199,30.00765],[-97.65932,30.00514],[-97.65878,30.00572],[-97.65147,29.99948],[-97.6452,30.00506],[-97.64475,30.00497],[-97.63797,29.99929],[-97.64568,29.99209],[-97.64585,29.99159],[-97.64695,29.99082],[-97.64443,29.98833],[-97.64503,29.98731],[-97.64442,29.98656],[-97.64508,29.98579],[-97.64453,29.98478],[-97.64307,29.9852],[-97.64385,29.98167],[-97.64307,29.98082],[-97.6432,29.97965],[-97.63898,29.98339],[-97.63856,29.98303],[-97.63375,29.98718],[-97.63158,29.98533],[-97.62976,29.98624],[-97.62662,29.98959],[-97.62603,29.9918],[-97.62544,29.99284],[-97.6215,29.9904],[-97.62339,29.98758],[-97.61472,29.97985],[-97.60921,29.97586],[-97.61235,29.97295],[-97.61363,29.97138],[-97.60759,29.96639],[-97.61872,29.95604],[-97.60965,29.94898],[-97.60586,29.95218],[-97.6026,29.94931],[-97.6116,29.94124],[-97.59251,29.9251],[-97.59559,29.92437],[-97.59809,29.92303],[-97.6111,29.91183],[-97.61912,29.90671],[-97.62383,29.9024],[-97.62282,29.90293],[-97.61284,29.90444],[-97.61175,29.89863],[-97.59845,29.90059],[-97.59698,29.89629],[-97.59611,29.89616],[-97.59516,29.89558],[-97.59439,29.89143],[-97.59197,29.89176],[-97.5631,29.90519],[-97.55991,29.90205],[-97.55707,29.90325],[-97.5554,29.90358],[-97.55345,29.90211],[-97.55414,29.90091],[-97.55111,29.89857],[-97.54737,29.89429],[-97.54757,29.89202],[-97.54811,29.89093],[-97.54968,29.88981],[-97.55112,29.89031],[-97.55156,29.88975],[-97.53903,29.87906],[-97.5389,29.87948],[-97.53832,29.87926],[-97.5368,29.88011],[-97.53667,29.88053],[-97.5356,29.88106],[-97.53517,29.88172],[-97.53351,29.88272],[-97.52714,29.87863],[-97.52877,29.87655],[-97.52855,29.87632],[-97.529,29.87568],[-97.53258,29.87804],[-97.53389,29.87605],[-97.53394,29.87487],[-97.52642,29.86807],[-97.53131,29.86395],[-97.52519,29.85846],[-97.525,29.85392],[-97.52618,29.85259],[-97.52872,29.85215],[-97.5321,29.85105],[-97.53344,29.85086],[-97.53433,29.84276],[-97.57803,29.79177],[-97.57623,29.79083],[-97.57607,29.78986],[-97.57536,29.78945],[-97.57537,29.78912],[-97.57594,29.7888],[-97.57605,29.78703],[-97.57538,29.78679],[-97.57527,29.78569],[-97.57257,29.78289],[-97.57265,29.78244],[-97.57361,29.78128],[-97.57308,29.78008],[-97.57252,29.77958],[-97.57624,29.77579],[-97.57127,29.77585],[-97.57121,29.77312],[-97.57091,29.77213],[-97.57125,29.77142],[-97.57107,29.77059],[-97.57065,29.77002],[-97.57076,29.7685],[-97.55707,29.76856],[-97.557,29.76446],[-97.55395,29.76443],[-97.5504,29.76174],[-97.5395,29.76194],[-97.53959,29.77079],[-97.52678,29.77092],[-97.52681,29.77001],[-97.51654,29.76999],[-97.51641,29.76279],[-97.51771,29.76266],[-97.51792,29.76243],[-97.5179,29.76056],[-97.49629,29.76095],[-97.49613,29.7555],[-97.48513,29.75546],[-97.4799,29.7553],[-97.4798,29.75511],[-97.47966,29.76736],[-97.47674,29.77211],[-97.4817,29.77448],[-97.48144,29.77468],[-97.48223,29.77471],[-97.48308,29.77514],[-97.48291,29.78866],[-97.48248,29.79841],[-97.4658,29.7982],[-97.46562,29.79753],[-97.46103,29.79504],[-97.45486,29.79493],[-97.45442,29.79476],[-97.45423,29.79437],[-97.45421,29.79548],[-97.45491,29.79859],[-97.45584,29.79988],[-97.45714,29.80105],[-97.45662,29.80162],[-97.45667,29.80308],[-97.45615,29.80406],[-97.45684,29.80721],[-97.45784,29.80764],[-97.45953,29.80728],[-97.46131,29.8084],[-97.46576,29.80852],[-97.46767,29.81164],[-97.47036,29.81173],[-97.47033,29.82051],[-97.47605,29.8256],[-97.47774,29.82675],[-97.46441,29.84794],[-97.46082,29.8533],[-97.46022,29.85399],[-97.45972,29.85417],[-97.44829,29.87208],[-97.47538,29.88506],[-97.47996,29.87762],[-97.48496,29.87993],[-97.4853,29.87988],[-97.48735,29.87358],[-97.48852,29.87201],[-97.49175,29.8737],[-97.49124,29.87465],[-97.50316,29.88046],[-97.50018,29.88547],[-97.49897,29.88503],[-97.4969,29.8883],[-97.49911,29.89121],[-97.49794,29.89297],[-97.49983,29.894],[-97.49857,29.89598],[-97.4978,29.89802],[-97.49078,29.90902],[-97.48781,29.9125],[-97.48005,29.92479],[-97.49031,29.93344],[-97.51065,29.91922],[-97.51119,29.9184],[-97.51365,29.9171],[-97.51723,29.91456],[-97.5175,29.91499],[-97.51336,29.9205],[-97.51551,29.92172],[-97.50485,29.9376],[-97.50441,29.93878],[-97.50444,29.94095],[-97.50732,29.93976],[-97.50762,29.93995],[-97.51079,29.93779],[-97.51731,29.93462],[-97.52395,29.92968],[-97.51819,29.93846],[-97.5282,29.9418],[-97.5294,29.94568],[-97.52939,29.9492],[-97.52967,29.95065],[-97.53076,29.95303],[-97.53296,29.95607],[-97.52869,29.96288],[-97.5284,29.96289],[-97.52576,29.96062],[-97.52508,29.96061],[-97.50719,29.97648],[-97.51682,29.9805],[-97.53254,29.983],[-97.52705,29.99083],[-97.51537,30.00127],[-97.51679,30.00238],[-97.51851,30.00088],[-97.52216,30.00388],[-97.52453,30.00182],[-97.53315,30.00941],[-97.5385,30.00457],[-97.53592,30.00209],[-97.54152,29.9973],[-97.54835,30.00285],[-97.55092,30.00055],[-97.55307,30.00237],[-97.55582,30],[-97.56609,30.00895],[-97.5625,30.01203],[-97.55784,30.00804],[-97.55617,30.00969],[-97.55664,30.0098],[-97.56647,30.018],[-97.56628,30.0194],[-97.56256,30.02355],[-97.56304,30.02432],[-97.55681,30.03035],[-97.55577,30.02979],[-97.55541,30.03005],[-97.55439,30.03127],[-97.55498,30.03171],[-97.55224,30.03553],[-97.54853,30.03787],[-97.54788,30.03693],[-97.54662,30.03656],[-97.5441,30.03625],[-97.54351,30.03632],[-97.54232,30.03698],[-97.54147,30.03603],[-97.54114,30.03594],[-97.54045,30.0416],[-97.54079,30.04345],[-97.54172,30.04543],[-97.54318,30.04695],[-97.54591,30.04445],[-97.54861,30.0467],[-97.54575,30.04913],[-97.58383,30.08129],[-97.59028,30.0758],[-97.59842,30.08279],[-97.60418,30.07784],[-97.60668,30.07634],[-97.61199,30.07115],[-97.6163,30.07485],[-97.62333,30.06869],[-97.62482,30.06976],[-97.63379,30.06161],[-97.64426,30.07013],[-97.6481,30.06689],[-97.65369,30.07156],[-97.66266,30.06357],[-97.66442,30.065],[-97.66777,30.06501],[-97.66768,30.06399],[-97.6649,30.06156],[-97.66624,30.06027],[-97.66536,30.0596],[-97.66861,30.05669],[-97.65992,30.04963],[-97.67204,30.03889],[-97.66572,30.03327],[-97.66948,30.03163],[-97.67446,30.03052]]]},"properties":{"zip_code":"78616","county":"Caldwell"}}]}