{"type":"FeatureCollection","features":[{"type":"Feature","geometry":{"type":"Polygon","coordinates":[[[-98.45738,30.87937],[-98.45635,30.87645],[-98.45079,30.87143],[-98.44587,30.87033],[-98.43778,30.87057],[-98.43239,30.86967],[-98.42482,30.8661],[-98.42147,30.86317],[-98.41935,30.85912],[-98.41925,30.85706],[-98.41963,30.85088],[-98.42221,30.83923],[-98.42159,30.835],[-98.41572,30.83473],[-98.40999,30.83599],[-98.4069,30.83905],[-98.40498,30.84382],[-98.40138,30.844],[-98.39365,30.84296],[-98.38137,30.8382],[-98.37757,30.83566],[-98.37659,30.83378],[-98.3776,30.82951],[-98.38007,30.826],[-98.38396,30.82189],[-98.38763,30.81935],[-98.391,30.81829],[-98.40089,30.8189],[-98.40334,30.81794],[-98.40816,30.80901],[-98.40938,30.79995],[-98.41255,30.79499],[-98.4156,30.79427],[-98.42537,30.79557],[-98.43088,30.7918],[-98.43254,30.78858],[-98.43121,30.7848],[-98.42355,30.77758],[-98.42253,30.77504],[-98.42387,30.77107],[-98.42786,30.76647],[-98.43021,30.76096],[-98.42991,30.75612],[-98.42796,30.75295],[-98.42663,30.75153],[-98.42405,30.75051],[-98.4155,30.75163],[-98.40171,30.74947],[-98.39984,30.74825],[-98.41217,30.74618],[-98.39874,30.74587],[-98.39096,30.74362],[-98.39001,30.74267],[-98.39236,30.73775],[-98.39448,30.73568],[-98.41144,30.74495],[-98.41397,30.74381],[-98.41853,30.74],[-98.43912,30.73624],[-98.43872,30.71299],[-98.4086,30.71309],[-98.40825,30.71567],[-98.40415,30.72108],[-98.40211,30.72184],[-98.39265,30.72123],[-98.3854,30.72947],[-98.39203,30.72104],[-98.39762,30.72071],[-98.4019,30.72158],[-98.40413,30.72084],[-98.4072,30.71619],[-98.40781,30.7144],[-98.40719,30.7128],[-98.40969,30.70764],[-98.4132,30.70449],[-98.41346,30.70249],[-98.40652,30.69362],[-98.40376,30.68727],[-98.40274,30.6881],[-98.4035,30.68868],[-98.40267,30.68826],[-98.40367,30.6867],[-98.40183,30.68222],[-98.4018,30.67827],[-98.40111,30.67792],[-98.40102,30.67902],[-98.39998,30.67896],[-98.39913,30.67719],[-98.39799,30.67802],[-98.39903,30.6768],[-98.39968,30.67861],[-98.4019,30.67787],[-98.40377,30.67549],[-98.40308,30.67405],[-98.40519,30.67283],[-98.40602,30.671],[-98.40517,30.66949],[-98.394,30.67315],[-98.39168,30.67238],[-98.38643,30.67468],[-98.38485,30.67378],[-98.38461,30.6757],[-98.38348,30.67589],[-98.38197,30.679],[-98.37589,30.67857],[-98.37556,30.68436],[-98.35685,30.68432],[-98.35694,30.69032],[-98.35272,30.68835],[-98.351,30.68575],[-98.34922,30.68454],[-98.34606,30.68347],[-98.3426,30.68362],[-98.31643,30.67071],[-98.31892,30.67769],[-98.31534,30.67426],[-98.31155,30.67269],[-98.3079,30.67274],[-98.30665,30.67151],[-98.30507,30.67158],[-98.30047,30.67927],[-98.29999,30.67752],[-98.29651,30.67486],[-98.29765,30.67339],[-98.29716,30.67303],[-98.2977,30.67171],[-98.29063,30.66696],[-98.28765,30.66706],[-98.28671,30.66599],[-98.28661,30.66393],[-98.27036,30.65333],[-98.26623,30.65414],[-98.25947,30.65322],[-98.25662,30.65406],[-98.255,30.68404],[-98.25259,30.68424],[-98.24934,30.68304],[-98.24659,30.67814],[-98.24365,30.67677],[-98.24028,30.67139],[-98.23659,30.66923],[-98.23213,30.66907],[-98.22917,30.66496],[-98.22929,30.65622],[-98.2304,30.64904],[-98.2371,30.6457],[-98.23754,30.642],[-98.23446,30.63564],[-98.22963,30.63231],[-98.23374,30.63734],[-98.22866,30.64862],[-98.2259,30.65236],[-98.22682,30.65478],[-98.22279,30.65567],[-98.22161,30.65755],[-98.21503,30.65456],[-98.21691,30.66109],[-98.20941,30.66273],[-98.20776,30.65661],[-98.20153,30.65818],[-98.19801,30.65737],[-98.19596,30.64917],[-98.19816,30.64998],[-98.19899,30.64477],[-98.19489,30.64344],[-98.18873,30.65293],[-98.18247,30.65006],[-98.17831,30.65101],[-98.16679,30.64516],[-98.16328,30.64422],[-98.16296,30.64543],[-98.16424,30.64732],[-98.16378,30.64909],[-98.15987,30.64714],[-98.16187,30.64335],[-98.14817,30.63692],[-98.14396,30.64589],[-98.14193,30.64794],[-98.13982,30.64818],[-98.13966,30.64894],[-98.14759,30.65786],[-98.15179,30.65691],[-98.1535,30.66096],[-98.15036,30.66929],[-98.15249,30.67606],[-98.14468,30.67868],[-98.15114,30.69385],[-98.14413,30.69635],[-98.14776,30.70113],[-98.16067,30.70684],[-98.15968,30.70657],[-98.15506,30.71113],[-98.15497,30.71228],[-98.14656,30.71781],[-98.14545,30.72032],[-98.14018,30.72521],[-98.14719,30.72937],[-98.14985,30.73235],[-98.15551,30.73301],[-98.15472,30.73553],[-98.1552,30.73614],[-98.16206,30.73898],[-98.1629,30.74076],[-98.16087,30.74941],[-98.16434,30.74943],[-98.16241,30.75296],[-98.16445,30.75787],[-98.1651,30.75768],[-98.16742,30.76458],[-98.16396,30.76567],[-98.16514,30.76663],[-98.16428,30.77115],[-98.16225,30.77283],[-98.15862,30.77384],[-98.15925,30.77541],[-98.14249,30.78061],[-98.14203,30.78184],[-98.13323,30.78493],[-98.12963,30.78705],[-98.12793,30.78697],[-98.12801,30.78435],[-98.12459,30.78482],[-98.12132,30.78746],[-98.12009,30.79008],[-98.11407,30.78927],[-98.11011,30.79081],[-98.10825,30.7898],[-98.10168,30.79024],[-98.09854,30.79243],[-98.09511,30.79292],[-98.09353,30.79836],[-98.08846,30.79779],[-98.08608,30.79879],[-98.08427,30.80422],[-98.0815,30.80504],[-98.07635,30.80439],[-98.07764,30.80521],[-98.07793,30.80704],[-98.08064,30.80745],[-98.083,30.80977],[-98.08438,30.80963],[-98.08195,30.81261],[-98.08334,30.81732],[-98.08045,30.81827],[-98.08311,30.8239],[-98.08995,30.82781],[-98.09142,30.83223],[-98.09817,30.84354],[-98.09773,30.84513],[-98.09698,30.84532],[-98.09783,30.84699],[-98.09449,30.85024],[-98.09421,30.85205],[-98.09538,30.85467],[-98.09171,30.85849],[-98.09338,30.86412],[-98.0931,30.87244],[-98.08817,30.87377],[-98.08335,30.87737],[-98.06465,30.88277],[-98.0628,30.87935],[-98.06059,30.88039],[-98.06274,30.88492],[-98.06477,30.88411],[-98.06796,30.8866],[-98.07338,30.89924],[-98.07424,30.89899],[-98.07505,30.90036],[-98.09867,30.89339],[-98.11267,30.8884],[-98.11374,30.89165],[-98.11969,30.88965],[-98.12202,30.89754],[-98.11882,30.89924],[-98.11849,30.90441],[-98.11912,30.90704],[-98.12622,30.91548],[-98.13236,30.92029],[-98.13435,30.92391],[-98.13721,30.92452],[-98.14279,30.92285],[-98.1477,30.91527],[-98.14476,30.91765],[-98.14014,30.91664],[-98.14053,30.91566],[-98.14222,30.91603],[-98.1433,30.91487],[-98.14303,30.91355],[-98.14406,30.91121],[-98.14676,30.90962],[-98.15126,30.91052],[-98.15351,30.90599],[-98.16173,30.90479],[-98.17948,30.90557],[-98.18744,30.90408],[-98.19226,30.90843],[-98.19534,30.89464],[-98.21122,30.88982],[-98.20905,30.90683],[-98.2376,30.89563],[-98.24248,30.89503],[-98.24616,30.89723],[-98.24859,30.90022],[-98.28084,30.8867],[-98.28426,30.88999],[-98.28867,30.88644],[-98.28869,30.89584],[-98.34035,30.89519],[-98.34416,30.91171],[-98.38032,30.91091],[-98.37958,30.90984],[-98.37866,30.91007],[-98.37933,30.90971],[-98.38246,30.91098],[-98.38341,30.90995],[-98.3828,30.90885],[-98.38494,30.90944],[-98.3849,30.91053],[-98.38365,30.91101],[-98.40574,30.91069],[-98.41023,30.90855],[-98.41026,30.90643],[-98.41111,30.90551],[-98.41758,30.90242],[-98.42308,30.90162],[-98.42725,30.90275],[-98.43084,30.90273],[-98.436,30.90474],[-98.44258,30.90441],[-98.44456,30.90895],[-98.44421,30.91025],[-98.44653,30.91017],[-98.44517,30.91175],[-98.44699,30.91225],[-98.44383,30.91372],[-98.44293,30.9174],[-98.44756,30.91592],[-98.44946,30.90316],[-98.44875,30.89033],[-98.45522,30.88475],[-98.45693,30.88207],[-98.45738,30.87937]]]},"properties":{"zip_code":"78611","county":"Burnet"}}]}