{"type":"FeatureCollection","features":[{"type":"Feature","geometry":{"type":"Polygon","coordinates":[[[-97.88293,30.51554],[-97.88244,30.5149],[-97.88144,30.51212],[-97.87676,30.51366],[-97.87629,30.51295],[-97.87809,30.51214],[-97.87799,30.5115],[-97.87905,30.51118],[-97.87898,30.50989],[-97.8806,30.50981],[-97.88038,30.50801],[-97.87943,30.50812],[-97.87824,30.50722],[-97.87421,30.50957],[-97.87373,30.50783],[-97.87194,30.5081],[-97.87202,30.5088],[-97.87086,30.50993],[-97.87173,30.51111],[-97.86879,30.51377],[-97.86801,30.51238],[-97.8665,30.51375],[-97.86573,30.51299],[-97.865,30.51349],[-97.86264,30.51158],[-97.85839,30.50083],[-97.86225,30.49731],[-97.85922,30.49331],[-97.86026,30.49165],[-97.86022,30.49022],[-97.86126,30.48989],[-97.86353,30.48859],[-97.86316,30.4871],[-97.86411,30.48557],[-97.86194,30.48448],[-97.86146,30.48338],[-97.85964,30.4834],[-97.85966,30.47895],[-97.85695,30.47984],[-97.8569,30.47837],[-97.85754,30.47742],[-97.85742,30.47665],[-97.85775,30.47569],[-97.85693,30.47496],[-97.85741,30.47339],[-97.85732,30.47269],[-97.8568,30.47185],[-97.8565,30.47057],[-97.85604,30.47002],[-97.85503,30.46961],[-97.8548,30.46921],[-97.85485,30.46811],[-97.85569,30.46738],[-97.85588,30.46653],[-97.85574,30.46578],[-97.85734,30.46511],[-97.85783,30.46456],[-97.85777,30.46425],[-97.8583,30.46366],[-97.85832,30.46252],[-97.8609,30.46095],[-97.86215,30.45869],[-97.86255,30.45719],[-97.86243,30.45674],[-97.86157,30.45624],[-97.8614,30.45512],[-97.86204,30.45402],[-97.8615,30.45353],[-97.86164,30.45259],[-97.86112,30.45119],[-97.85936,30.45017],[-97.85804,30.4483],[-97.85593,30.44956],[-97.84872,30.45267],[-97.84762,30.45349],[-97.84677,30.45456],[-97.84584,30.45737],[-97.84409,30.45865],[-97.84218,30.45925],[-97.84109,30.45987],[-97.84394,30.46201],[-97.84253,30.46222],[-97.83602,30.4643],[-97.83201,30.46187],[-97.82656,30.45752],[-97.82629,30.45601],[-97.82606,30.45585],[-97.82562,30.456],[-97.82323,30.45817],[-97.82419,30.45887],[-97.82124,30.46173],[-97.82254,30.46281],[-97.82,30.46091],[-97.81603,30.46224],[-97.81623,30.46267],[-97.8156,30.46293],[-97.81585,30.46354],[-97.81371,30.46418],[-97.81433,30.46563],[-97.8117,30.46647],[-97.81062,30.46389],[-97.79702,30.46816],[-97.79895,30.47294],[-97.7961,30.47449],[-97.79389,30.47531],[-97.79429,30.47623],[-97.79439,30.4776],[-97.79548,30.48017],[-97.79634,30.47989],[-97.79871,30.48018],[-97.80137,30.48018],[-97.80253,30.47985],[-97.80428,30.48267],[-97.80488,30.48468],[-97.80493,30.48663],[-97.80712,30.48592],[-97.80819,30.48835],[-97.80673,30.4889],[-97.8065,30.4896],[-97.80701,30.49034],[-97.80851,30.49075],[-97.80876,30.49157],[-97.80904,30.49149],[-97.80905,30.49175],[-97.80891,30.49217],[-97.8085,30.49238],[-97.80752,30.49218],[-97.80696,30.49236],[-97.80652,30.49377],[-97.80601,30.49413],[-97.80624,30.49472],[-97.80598,30.49524],[-97.80465,30.49599],[-97.80334,30.49605],[-97.79978,30.49782],[-97.7975,30.49979],[-97.79588,30.50278],[-97.79116,30.50545],[-97.78969,30.5058],[-97.78891,30.50569],[-97.78806,30.5052],[-97.78608,30.50488],[-97.78269,30.50361],[-97.78032,30.50394],[-97.77732,30.50354],[-97.77565,30.50419],[-97.77492,30.50577],[-97.77399,30.50623],[-97.77321,30.50598],[-97.77253,30.50531],[-97.77167,30.50526],[-97.77066,30.50557],[-97.76421,30.50887],[-97.76203,30.50914],[-97.76064,30.50858],[-97.75838,30.50869],[-97.75774,30.50917],[-97.75589,30.51271],[-97.75526,30.51334],[-97.75334,30.51466],[-97.7488,30.51669],[-97.74544,30.51918],[-97.74789,30.5205],[-97.74853,30.52168],[-97.74851,30.52235],[-97.74942,30.52468],[-97.75142,30.52714],[-97.75243,30.52792],[-97.75677,30.52965],[-97.76068,30.53032],[-97.76315,30.53146],[-97.76283,30.53604],[-97.76491,30.54076],[-97.76387,30.5411],[-97.76392,30.54129],[-97.76334,30.54148],[-97.76345,30.54168],[-97.75996,30.54283],[-97.76276,30.54972],[-97.77104,30.54722],[-97.77166,30.54874],[-97.77768,30.54694],[-97.7767,30.54456],[-97.77784,30.54419],[-97.77761,30.5437],[-97.77863,30.54339],[-97.77814,30.54223],[-97.77866,30.54211],[-97.7788,30.53951],[-97.77912,30.53965],[-97.77954,30.54128],[-97.77927,30.54276],[-97.77955,30.5442],[-97.7813,30.54621],[-97.78213,30.54673],[-97.7823,30.54615],[-97.78209,30.54562],[-97.78169,30.54562],[-97.78596,30.5442],[-97.79899,30.54057],[-97.79874,30.53995],[-97.79893,30.5398],[-97.80258,30.539],[-97.80237,30.53777],[-97.80733,30.53676],[-97.81319,30.53595],[-97.81411,30.53608],[-97.8167,30.53705],[-97.81639,30.53837],[-97.81647,30.54008],[-97.81907,30.55054],[-97.81933,30.5505],[-97.81774,30.54419],[-97.83458,30.53891],[-97.83501,30.53979],[-97.83637,30.54006],[-97.83811,30.5395],[-97.84016,30.54416],[-97.84678,30.54215],[-97.84553,30.53905],[-97.84539,30.53795],[-97.84779,30.53622],[-97.8477,30.53599],[-97.86085,30.53201],[-97.86112,30.53277],[-97.86284,30.53233],[-97.86504,30.53339],[-97.86655,30.531],[-97.86766,30.53141],[-97.86994,30.52952],[-97.87053,30.52637],[-97.87086,30.52642],[-97.87114,30.52456],[-97.87169,30.524],[-97.87425,30.52619],[-97.87738,30.52337],[-97.8777,30.52354],[-97.87785,30.52292],[-97.88123,30.51992],[-97.88031,30.51915],[-97.88167,30.51835],[-97.88185,30.51616],[-97.88255,30.51597],[-97.88293,30.51554]]]},"properties":{"zip_code":"78613","county":"Williamson"}}]}