{"type":"FeatureCollection","features":[{"type":"Feature","geometry":{"type":"Polygon","coordinates":[[[-97.52149,30.44063],[-97.52102,30.43992],[-97.52103,30.43929],[-97.52067,30.43918],[-97.52036,30.43837],[-97.52042,30.43759],[-97.51934,30.43695],[-97.52021,30.43559],[-97.52017,30.43473],[-97.51951,30.43363],[-97.51982,30.4328],[-97.51932,30.43237],[-97.51827,30.4302],[-97.51757,30.43014],[-97.51707,30.42968],[-97.5168,30.42969],[-97.51646,30.42919],[-97.51738,30.42797],[-97.51762,30.42675],[-97.51742,30.42574],[-97.51793,30.42454],[-97.51605,30.42387],[-97.51555,30.42415],[-97.5151,30.42411],[-97.51436,30.42353],[-97.51386,30.42282],[-97.51377,30.42214],[-97.51439,30.42132],[-97.5141,30.421],[-97.51376,30.42136],[-97.51351,30.42101],[-97.51355,30.4206],[-97.51388,30.42054],[-97.51419,30.41995],[-97.51241,30.4192],[-97.51131,30.41816],[-97.51098,30.41738],[-97.51147,30.41615],[-97.51035,30.41437],[-97.50981,30.41397],[-97.50713,30.41804],[-97.50405,30.42184],[-97.50176,30.42538],[-97.48346,30.41652],[-97.48316,30.41662],[-97.48207,30.41815],[-97.4775,30.41614],[-97.47396,30.42166],[-97.46035,30.41518],[-97.46123,30.41391],[-97.41076,30.41518],[-97.40316,30.42694],[-97.38845,30.42],[-97.39124,30.41563],[-97.37945,30.41591],[-97.38037,30.41727],[-97.38148,30.41981],[-97.38208,30.42219],[-97.38225,30.42408],[-97.37943,30.4239],[-97.37773,30.42237],[-97.37677,30.4192],[-97.37354,30.41772],[-97.36995,30.41944],[-97.37273,30.4208],[-97.37359,30.4227],[-97.3735,30.42297],[-97.36359,30.42608],[-97.36449,30.42823],[-97.36671,30.43633],[-97.36246,30.43767],[-97.35974,30.43883],[-97.35923,30.43924],[-97.35768,30.43833],[-97.35457,30.43882],[-97.35307,30.43928],[-97.35623,30.44693],[-97.35619,30.44913],[-97.36149,30.4621],[-97.35103,30.46531],[-97.34715,30.45557],[-97.34732,30.45542],[-97.34697,30.45503],[-97.34511,30.45039],[-97.34667,30.44697],[-97.3384,30.44966],[-97.33968,30.45281],[-97.33966,30.4533],[-97.32897,30.45671],[-97.32773,30.45476],[-97.32591,30.45353],[-97.32328,30.44792],[-97.32166,30.44304],[-97.3009,30.44956],[-97.29585,30.4514],[-97.30012,30.46143],[-97.30709,30.45927],[-97.30752,30.45939],[-97.31152,30.46907],[-97.31033,30.46945],[-97.30998,30.46982],[-97.31106,30.47035],[-97.31123,30.47132],[-97.31101,30.47149],[-97.30917,30.47138],[-97.30932,30.47193],[-97.30854,30.47264],[-97.30846,30.47349],[-97.30731,30.47305],[-97.30687,30.4733],[-97.30689,30.47392],[-97.30667,30.47408],[-97.30411,30.47392],[-97.30096,30.47645],[-97.30155,30.47777],[-97.30065,30.478],[-97.30004,30.47903],[-97.29903,30.4794],[-97.29934,30.48007],[-97.29869,30.48133],[-97.29982,30.48234],[-97.29871,30.48337],[-97.29829,30.48311],[-97.29726,30.48372],[-97.29721,30.48446],[-97.29668,30.48518],[-97.29663,30.48633],[-97.2959,30.4872],[-97.2944,30.48689],[-97.29352,30.48708],[-97.29307,30.48626],[-97.29261,30.48607],[-97.29194,30.48625],[-97.29211,30.48691],[-97.29173,30.48759],[-97.2911,30.48793],[-97.29077,30.48766],[-97.29056,30.48685],[-97.28982,30.4869],[-97.28924,30.48737],[-97.28857,30.48722],[-97.28845,30.48674],[-97.28894,30.48654],[-97.28904,30.48609],[-97.28889,30.48525],[-97.28871,30.48505],[-97.28738,30.48499],[-97.28702,30.48613],[-97.28716,30.48644],[-97.28679,30.48681],[-97.28605,30.48701],[-97.28578,30.48757],[-97.2869,30.48851],[-97.28648,30.48868],[-97.28637,30.48933],[-97.28543,30.48908],[-97.28514,30.48934],[-97.28516,30.48959],[-97.28659,30.49034],[-97.28655,30.49094],[-97.28555,30.49131],[-97.28448,30.49115],[-97.28465,30.49056],[-97.28365,30.48985],[-97.28356,30.48927],[-97.28324,30.48913],[-97.28285,30.48943],[-97.28178,30.48819],[-97.28108,30.48922],[-97.28108,30.49045],[-97.28006,30.4907],[-97.28178,30.49563],[-97.28349,30.49824],[-97.28522,30.49813],[-97.28512,30.49719],[-97.28853,30.49792],[-97.29115,30.49663],[-97.29355,30.5028],[-97.28934,30.50408],[-97.29217,30.51104],[-97.28952,30.51188],[-97.29234,30.51875],[-97.29146,30.51908],[-97.2911,30.51997],[-97.29181,30.5218],[-97.2861,30.52364],[-97.2878,30.52739],[-97.28922,30.5309],[-97.28973,30.53282],[-97.29179,30.5377],[-97.29265,30.53877],[-97.293,30.53992],[-97.29437,30.54018],[-97.2973,30.53943],[-97.29858,30.53862],[-97.30187,30.53755],[-97.30271,30.53751],[-97.30319,30.53658],[-97.30366,30.53622],[-97.30645,30.5358],[-97.30793,30.53464],[-97.30858,30.53454],[-97.30928,30.53401],[-97.31053,30.53374],[-97.31169,30.53277],[-97.31358,30.53204],[-97.31557,30.53223],[-97.31649,30.53291],[-97.31755,30.5328],[-97.31889,30.53316],[-97.31941,30.53281],[-97.32038,30.53324],[-97.32184,30.53269],[-97.32333,30.5327],[-97.32382,30.53191],[-97.32658,30.53097],[-97.32672,30.53044],[-97.32782,30.52951],[-97.32975,30.52935],[-97.33042,30.52906],[-97.33277,30.52611],[-97.3334,30.5246],[-97.33438,30.524],[-97.33427,30.52365],[-97.3336,30.52361],[-97.33309,30.52326],[-97.33344,30.52259],[-97.3348,30.52177],[-97.3358,30.52173],[-97.33848,30.51955],[-97.33915,30.52031],[-97.34094,30.51979],[-97.34144,30.51994],[-97.34373,30.52544],[-97.34415,30.52597],[-97.34738,30.52496],[-97.34772,30.52464],[-97.3477,30.52386],[-97.35422,30.52188],[-97.35398,30.52132],[-97.3612,30.51892],[-97.36482,30.51723],[-97.3649,30.51683],[-97.36116,30.50792],[-97.37315,30.50414],[-97.37533,30.49046],[-97.3756,30.48994],[-97.37684,30.48899],[-97.37796,30.48732],[-97.38123,30.47052],[-97.38179,30.46978],[-97.38221,30.47014],[-97.38323,30.47017],[-97.3831,30.47085],[-97.38338,30.47109],[-97.38527,30.47136],[-97.38786,30.47231],[-97.39017,30.47206],[-97.39147,30.47237],[-97.39304,30.47198],[-97.39354,30.4726],[-97.3942,30.47281],[-97.39435,30.47262],[-97.39395,30.47215],[-97.39408,30.47174],[-97.39462,30.47131],[-97.39595,30.47086],[-97.39621,30.47027],[-97.39721,30.47],[-97.39772,30.47036],[-97.39796,30.47094],[-97.39838,30.47091],[-97.39857,30.47066],[-97.39828,30.46924],[-97.39891,30.46848],[-97.40146,30.46833],[-97.40313,30.46789],[-97.40562,30.46841],[-97.40637,30.46887],[-97.4072,30.46843],[-97.40832,30.46836],[-97.40875,30.46844],[-97.40909,30.46881],[-97.41295,30.46873],[-97.41406,30.46831],[-97.41466,30.46852],[-97.41553,30.46827],[-97.41665,30.46849],[-97.41751,30.46798],[-97.42104,30.46748],[-97.42191,30.46768],[-97.4225,30.46738],[-97.42346,30.46768],[-97.42358,30.46818],[-97.42335,30.46857],[-97.42455,30.46914],[-97.42509,30.469],[-97.42528,30.4679],[-97.42701,30.46784],[-97.42739,30.4681],[-97.42751,30.4688],[-97.42809,30.46913],[-97.42932,30.46855],[-97.42978,30.4686],[-97.42991,30.46954],[-97.43045,30.47035],[-97.43147,30.47024],[-97.43227,30.46949],[-97.4333,30.46932],[-97.4341,30.4696],[-97.43444,30.47009],[-97.43552,30.46987],[-97.43549,30.47037],[-97.43493,30.47112],[-97.43493,30.47151],[-97.43522,30.47178],[-97.43568,30.47186],[-97.43766,30.47116],[-97.43825,30.47177],[-97.43903,30.47199],[-97.44005,30.4715],[-97.44039,30.47076],[-97.44185,30.47063],[-97.44233,30.47016],[-97.44291,30.47008],[-97.44472,30.47051],[-97.44475,30.47001],[-97.44376,30.46934],[-97.44369,30.46812],[-97.44488,30.46738],[-97.44651,30.46788],[-97.44717,30.46866],[-97.44747,30.46944],[-97.44792,30.46879],[-97.44839,30.46865],[-97.44943,30.46891],[-97.44974,30.46978],[-97.45061,30.46916],[-97.45097,30.46922],[-97.45159,30.46969],[-97.4516,30.47041],[-97.45215,30.47094],[-97.45308,30.47056],[-97.45335,30.47125],[-97.45445,30.47179],[-97.45545,30.47135],[-97.45604,30.47068],[-97.45705,30.47053],[-97.45738,30.47086],[-97.45724,30.4713],[-97.45768,30.47279],[-97.45877,30.47308],[-97.45942,30.47275],[-97.45955,30.47144],[-97.45757,30.47031],[-97.45741,30.47005],[-97.45763,30.46955],[-97.45889,30.46869],[-97.46124,30.46801],[-97.46218,30.4671],[-97.463,30.46684],[-97.46367,30.46702],[-97.46393,30.46751],[-97.46305,30.46906],[-97.46441,30.47008],[-97.46458,30.46857],[-97.46719,30.46838],[-97.46687,30.46926],[-97.46606,30.47005],[-97.46477,30.47055],[-97.46482,30.47097],[-97.46679,30.47127],[-97.46679,30.47037],[-97.46705,30.46986],[-97.46852,30.4696],[-97.46952,30.47052],[-97.46969,30.47153],[-97.4706,30.47191],[-97.47126,30.4727],[-97.47275,30.47263],[-97.47392,30.47203],[-97.47451,30.47108],[-97.47583,30.47082],[-97.47634,30.47091],[-97.47677,30.4715],[-97.47759,30.47189],[-97.47785,30.46954],[-97.48012,30.47043],[-97.48643,30.46947],[-97.4887,30.47313],[-97.48909,30.47329],[-97.48952,30.47104],[-97.49391,30.47194],[-97.49457,30.4719],[-97.49549,30.4664],[-97.49757,30.46663],[-97.49752,30.46696],[-97.49884,30.46712],[-97.50173,30.45436],[-97.50417,30.45471],[-97.51063,30.44452],[-97.50719,30.44262],[-97.50904,30.43996],[-97.51757,30.44384],[-97.51995,30.44018],[-97.52149,30.44063]]]},"properties":{"zip_code":"78615","county":"Williamson"}}]}