{"type":"FeatureCollection","features":[{"type":"Feature","geometry":{"type":"Polygon","coordinates":[[[-98.01637,30.13041],[-98.01624,30.12969],[-98.01503,30.12787],[-98.01315,30.12715],[-98.0123,30.1271],[-98.00929,30.12817],[-98.00861,30.12803],[-98.00821,30.12767],[-98.00756,30.12521],[-98.00765,30.12423],[-98.00829,30.12242],[-98.00813,30.12139],[-98.00579,30.11875],[-98.00331,30.11726],[-98.00307,30.11687],[-98.00247,30.11252],[-98.00144,30.11107],[-98.00092,30.11066],[-97.99691,30.11074],[-97.9964,30.11035],[-97.99606,30.11043],[-97.99565,30.11093],[-97.9964,30.11251],[-97.99627,30.11295],[-97.99587,30.11319],[-97.99467,30.11282],[-97.99356,30.112],[-97.99241,30.11034],[-97.99229,30.10968],[-97.99241,30.10834],[-97.99299,30.10745],[-97.99318,30.10668],[-97.99457,30.10461],[-97.99365,30.10461],[-97.99561,30.10271],[-97.99793,30.09991],[-97.99814,30.09936],[-98.00103,30.09686],[-98.00203,30.0965],[-98.00269,30.09585],[-98.00522,30.09166],[-98.00638,30.09049],[-98.0105,30.08923],[-98.0122,30.08809],[-98.01327,30.08551],[-98.01322,30.08496],[-98.0121,30.08462],[-98.01108,30.08473],[-98.01051,30.08452],[-98.00813,30.08308],[-98.00683,30.08396],[-98.00462,30.08443],[-98.00002,30.08398],[-97.99895,30.0835],[-97.99832,30.08273],[-97.99702,30.08018],[-97.99577,30.07975],[-97.99461,30.08023],[-97.99254,30.08416],[-97.9904,30.08625],[-97.98608,30.08737],[-97.98187,30.08928],[-97.98014,30.08951],[-97.9789,30.08895],[-97.97785,30.08797],[-97.97663,30.08613],[-97.9752,30.08501],[-97.9745,30.0841],[-97.97426,30.08305],[-97.9747,30.08134],[-97.97713,30.07923],[-97.9786,30.07834],[-97.97924,30.07733],[-97.97948,30.0761],[-97.97931,30.0745],[-97.97822,30.07263],[-97.97793,30.07012],[-97.97837,30.06932],[-97.98106,30.06712],[-97.98269,30.06485],[-97.98294,30.06387],[-97.98176,30.06224],[-97.979,30.06062],[-97.97719,30.06042],[-97.97625,30.05894],[-97.97511,30.05794],[-97.97245,30.05661],[-97.96934,30.05373],[-97.96743,30.05282],[-97.96304,30.05205],[-97.95564,30.05157],[-97.9465,30.05378],[-97.94511,30.05324],[-97.94284,30.05096],[-97.94179,30.05032],[-97.94014,30.04977],[-97.93888,30.0498],[-97.93778,30.05027],[-97.93769,30.05156],[-97.9372,30.05254],[-97.93407,30.05512],[-97.93239,30.05681],[-97.93107,30.05879],[-97.92992,30.05984],[-97.9259,30.06228],[-97.92591,30.0608],[-97.92614,30.06084],[-97.92618,30.06023],[-97.92783,30.05989],[-97.92764,30.05171],[-97.90335,30.05198],[-97.90444,30.05],[-97.90649,30.04823],[-97.90694,30.04682],[-97.90819,30.04475],[-97.90871,30.04445],[-97.90985,30.04446],[-97.91263,30.04533],[-97.9146,30.04473],[-97.91439,30.03582],[-97.90646,30.0363],[-97.90646,30.02853],[-97.90329,30.02843],[-97.90239,30.03323],[-97.9017,30.03421],[-97.8879,30.03452],[-97.88719,30.03714],[-97.88353,30.04629],[-97.88039,30.04939],[-97.87843,30.05014],[-97.87528,30.05021],[-97.87471,30.04971],[-97.87478,30.04446],[-97.87212,30.03733],[-97.87247,30.02816],[-97.86686,30.0282],[-97.86337,30.04052],[-97.85632,30.04079],[-97.8563,30.03972],[-97.85272,30.0398],[-97.85276,30.04139],[-97.85177,30.04137],[-97.8518,30.04257],[-97.84462,30.04248],[-97.84456,30.04199],[-97.84741,30.04145],[-97.85056,30.04145],[-97.85053,30.03591],[-97.84286,30.03532],[-97.84164,30.0377],[-97.8315,30.03771],[-97.83148,30.03497],[-97.82812,30.03499],[-97.8281,30.03268],[-97.82906,30.03196],[-97.82774,30.03178],[-97.82562,30.03063],[-97.82464,30.0304],[-97.81239,30.0306],[-97.81113,30.03121],[-97.80485,30.03672],[-97.80432,30.03634],[-97.80397,30.03658],[-97.8025,30.0354],[-97.79962,30.03789],[-97.79849,30.03797],[-97.79597,30.036],[-97.78933,30.04176],[-97.78246,30.03614],[-97.77763,30.03333],[-97.77662,30.03297],[-97.77467,30.03279],[-97.76911,30.03329],[-97.76942,30.03464],[-97.75414,30.04847],[-97.7544,30.04884],[-97.75616,30.04971],[-97.75627,30.05005],[-97.75148,30.05435],[-97.7348,30.0424],[-97.73379,30.04282],[-97.73288,30.04281],[-97.73234,30.04329],[-97.73131,30.04355],[-97.73044,30.04417],[-97.72797,30.04456],[-97.72642,30.04554],[-97.72517,30.04534],[-97.72463,30.04456],[-97.72375,30.04416],[-97.7212,30.04649],[-97.70415,30.03211],[-97.70311,30.03067],[-97.70051,30.02595],[-97.6946,30.02722],[-97.69425,30.02655],[-97.67093,30.03123],[-97.66816,30.0321],[-97.66572,30.03327],[-97.67204,30.03889],[-97.65992,30.04963],[-97.66861,30.05669],[-97.66536,30.0596],[-97.66624,30.06027],[-97.6649,30.06156],[-97.66768,30.06399],[-97.66777,30.06501],[-97.66442,30.065],[-97.66266,30.06357],[-97.65369,30.07156],[-97.66628,30.08203],[-97.669,30.07959],[-97.66899,30.08039],[-97.66858,30.08118],[-97.6692,30.08208],[-97.66844,30.0824],[-97.66846,30.08293],[-97.66901,30.08341],[-97.66896,30.0842],[-97.67168,30.08642],[-97.67188,30.08595],[-97.67295,30.08509],[-97.67319,30.08435],[-97.67303,30.08365],[-97.67418,30.08186],[-97.67451,30.08194],[-97.67497,30.08164],[-97.67661,30.08228],[-97.67809,30.08217],[-97.67863,30.08239],[-97.68079,30.08219],[-97.68207,30.08175],[-97.68282,30.08196],[-97.68467,30.08014],[-97.68572,30.07953],[-97.68641,30.07851],[-97.68725,30.07835],[-97.68971,30.07595],[-97.69157,30.07552],[-97.69145,30.06852],[-97.69081,30.06136],[-97.69114,30.06096],[-97.69071,30.05615],[-97.69205,30.05602],[-97.69282,30.06322],[-97.69335,30.08107],[-97.6961,30.08048],[-97.69819,30.08031],[-97.69884,30.08083],[-97.71044,30.08245],[-97.72628,30.08114],[-97.72977,30.08169],[-97.73522,30.08396],[-97.73505,30.0856],[-97.73305,30.0856],[-97.73305,30.08602],[-97.73249,30.0861],[-97.73192,30.0859],[-97.73146,30.08684],[-97.73042,30.08733],[-97.72962,30.08724],[-97.72948,30.08757],[-97.72879,30.08712],[-97.72839,30.08656],[-97.7283,30.08594],[-97.72744,30.08513],[-97.72726,30.08423],[-97.72464,30.08342],[-97.72219,30.0823],[-97.72119,30.08266],[-97.72032,30.08374],[-97.71805,30.08513],[-97.71659,30.08536],[-97.7138,30.08631],[-97.71255,30.08709],[-97.71147,30.08844],[-97.71464,30.08853],[-97.71484,30.08884],[-97.71058,30.09548],[-97.72204,30.10101],[-97.72331,30.10242],[-97.72443,30.10302],[-97.72485,30.10289],[-97.72357,30.10201],[-97.72345,30.10164],[-97.72435,30.10057],[-97.72453,30.09995],[-97.7252,30.09959],[-97.71818,30.09625],[-97.72292,30.08885],[-97.72394,30.08909],[-97.73228,30.09359],[-97.72638,30.10292],[-97.7309,30.10558],[-97.72784,30.11029],[-97.73093,30.11194],[-97.73267,30.10969],[-97.73809,30.11227],[-97.74439,30.11425],[-97.74539,30.11192],[-97.74878,30.1135],[-97.74975,30.11199],[-97.74927,30.1115],[-97.75626,30.1004],[-97.78179,30.11265],[-97.78529,30.11277],[-97.78515,30.1129],[-97.79198,30.1128],[-97.80435,30.11863],[-97.80734,30.1114],[-97.81325,30.09868],[-97.86656,30.13688],[-97.86736,30.13679],[-97.86745,30.13338],[-97.86847,30.13337],[-97.86851,30.12815],[-97.87502,30.12797],[-97.87988,30.12837],[-97.87942,30.12465],[-97.90716,30.12431],[-97.90698,30.12749],[-97.90668,30.12837],[-97.90566,30.129],[-97.90179,30.12982],[-97.90138,30.13048],[-97.90026,30.13142],[-97.89444,30.13352],[-97.89412,30.13416],[-97.9039,30.13394],[-97.90399,30.13253],[-97.91273,30.13259],[-97.91285,30.14185],[-97.91519,30.14179],[-97.91537,30.14254],[-97.91551,30.15487],[-97.95673,30.12073],[-97.9567,30.11699],[-97.95768,30.11724],[-97.96118,30.11731],[-97.98533,30.11712],[-97.98636,30.1174],[-97.98781,30.11826],[-97.99275,30.12186],[-97.99507,30.12252],[-98.00017,30.1227],[-98.00182,30.12337],[-98.0104,30.13192],[-98.0114,30.13137],[-98.01264,30.13121],[-98.01582,30.13144],[-98.01637,30.13041]]]},"properties":{"zip_code":"78610","county":"Hays"}}]}