{"type":"FeatureCollection","features":[{"type":"Feature","geometry":{"type":"Polygon","coordinates":[[[-97.67488,29.40734],[-97.67017,29.39893],[-97.67152,29.39796],[-97.66574,29.3876],[-97.66291,29.38853],[-97.65785,29.37961],[-97.65965,29.37846],[-97.6571,29.3739],[-97.65989,29.3684],[-97.6726,29.35895],[-97.65319,29.33921],[-97.64426,29.34598],[-97.64509,29.3508],[-97.64269,29.35219],[-97.64344,29.35418],[-97.64249,29.35535],[-97.64017,29.35675],[-97.64001,29.35767],[-97.63703,29.35769],[-97.63348,29.35732],[-97.6337,29.35574],[-97.63006,29.35432],[-97.62941,29.35276],[-97.62493,29.35333],[-97.62349,29.35134],[-97.62205,29.35244],[-97.61925,29.34965],[-97.61593,29.35036],[-97.61151,29.34882],[-97.60989,29.34901],[-97.60792,29.3475],[-97.60669,29.34782],[-97.60405,29.3469],[-97.60185,29.34518],[-97.60104,29.34294],[-97.59976,29.34324],[-97.59498,29.34148],[-97.59296,29.33886],[-97.59043,29.33989],[-97.58968,29.34169],[-97.59044,29.34311],[-97.59321,29.34453],[-97.59269,29.34683],[-97.59421,29.3473],[-97.59438,29.34837],[-97.5933,29.35112],[-97.59034,29.35362],[-97.59095,29.35804],[-97.58922,29.36091],[-97.58995,29.36274],[-97.58797,29.36348],[-97.58844,29.36462],[-97.58786,29.36678],[-97.592,29.36753],[-97.59409,29.3671],[-97.59359,29.3682],[-97.59529,29.37026],[-97.59519,29.3718],[-97.59336,29.37219],[-97.59406,29.37399],[-97.59354,29.37569],[-97.58876,29.37798],[-97.58771,29.37999],[-97.58959,29.38061],[-97.58795,29.38357],[-97.58787,29.38529],[-97.59075,29.38538],[-97.59096,29.38655],[-97.58962,29.38767],[-97.59184,29.38832],[-97.59201,29.39136],[-97.59088,29.3932],[-97.59242,29.39354],[-97.59309,29.39479],[-97.59077,29.39357],[-97.57601,29.37816],[-97.5649,29.37386],[-97.56331,29.37576],[-97.5454,29.38729],[-97.54286,29.3908],[-97.54098,29.39542],[-97.53842,29.39665],[-97.53514,29.40682],[-97.53528,29.41602],[-97.51504,29.41579],[-97.50782,29.42192],[-97.50341,29.42877],[-97.49766,29.43403],[-97.49022,29.44595],[-97.51545,29.43871],[-97.52585,29.43856],[-97.52987,29.43702],[-97.53228,29.43862],[-97.53836,29.44631],[-97.53457,29.44911],[-97.53279,29.44845],[-97.53219,29.45006],[-97.53098,29.45005],[-97.5319,29.44719],[-97.53007,29.44744],[-97.52923,29.4485],[-97.528,29.44788],[-97.52828,29.44969],[-97.52962,29.44948],[-97.52978,29.45005],[-97.52629,29.45237],[-97.52533,29.45853],[-97.52676,29.4593],[-97.52836,29.45896],[-97.53197,29.45567],[-97.53306,29.4555],[-97.53424,29.4563],[-97.53362,29.45835],[-97.53405,29.4596],[-97.5369,29.45967],[-97.53941,29.4612],[-97.54329,29.46725],[-97.54334,29.46819],[-97.54143,29.46823],[-97.54027,29.46929],[-97.54093,29.47096],[-97.54339,29.47295],[-97.54177,29.4752],[-97.54226,29.47898],[-97.54829,29.47483],[-97.55017,29.47011],[-97.553,29.47112],[-97.55884,29.4708],[-97.56075,29.47209],[-97.56107,29.47353],[-97.55568,29.47587],[-97.55541,29.47671],[-97.55896,29.47784],[-97.55951,29.48109],[-97.55903,29.48264],[-97.56058,29.48304],[-97.56241,29.48149],[-97.56298,29.47924],[-97.56413,29.47883],[-97.56556,29.47966],[-97.56776,29.47845],[-97.56752,29.47752],[-97.56557,29.4765],[-97.56501,29.47495],[-97.56977,29.46904],[-97.57092,29.46881],[-97.57296,29.4714],[-97.57467,29.47617],[-97.57719,29.47796],[-97.57659,29.47966],[-97.57358,29.47943],[-97.57214,29.48138],[-97.57237,29.48234],[-97.58011,29.48613],[-97.58748,29.48763],[-97.58738,29.48599],[-97.58883,29.48242],[-97.59265,29.47981],[-97.59781,29.4666],[-97.6087,29.46875],[-97.61003,29.46392],[-97.61388,29.45961],[-97.61539,29.45484],[-97.62846,29.45535],[-97.62858,29.45279],[-97.62749,29.44971],[-97.63061,29.44955],[-97.63152,29.43757],[-97.63738,29.43764],[-97.63793,29.42926],[-97.64341,29.42646],[-97.63791,29.41637],[-97.65149,29.41693],[-97.66534,29.41949],[-97.67186,29.41948],[-97.67411,29.41856],[-97.67488,29.40734]]]},"properties":{"zip_code":"78614","county":"Gonzales"}}]}