{"type":"FeatureCollection","features":[{"type":"Feature","geometry":{"type":"Polygon","coordinates":[[[-98.10058,30.08669],[-98.10003,30.08351],[-98.09738,30.07904],[-98.09303,30.07505],[-98.09171,30.07407],[-98.0909,30.07412],[-98.09038,30.07302],[-98.09056,30.07254],[-98.08958,30.07016],[-98.08761,30.07017],[-98.08765,30.07114],[-98.08834,30.07266],[-98.08843,30.07387],[-98.08604,30.07389],[-98.08629,30.07886],[-98.08034,30.07901],[-98.08056,30.08382],[-98.08692,30.08368],[-98.08697,30.08667],[-98.08623,30.08689],[-98.08602,30.08721],[-98.08048,30.08653],[-98.08054,30.08974],[-98.0763,30.08925],[-98.07636,30.09071],[-98.05291,30.0915],[-98.05294,30.09179],[-98.0503,30.09179],[-98.05028,30.09081],[-98.04661,30.09078],[-98.04642,30.08352],[-98.04532,30.08354],[-98.04494,30.07878],[-98.04621,30.07889],[-98.04597,30.07051],[-98.03682,30.07026],[-98.03597,30.05685],[-98.02703,30.05207],[-98.02688,30.05138],[-98.0279,30.04978],[-98.02705,30.04939],[-98.02604,30.04807],[-98.02028,30.04805],[-98.01517,30.04656],[-98.01284,30.04634],[-98.005,30.04648],[-98.00399,30.04663],[-98.00035,30.04793],[-97.98717,30.04721],[-97.98806,30.04772],[-97.98874,30.04853],[-97.98915,30.05247],[-97.98685,30.05163],[-97.98457,30.05255],[-97.98403,30.05369],[-97.98301,30.05441],[-97.98198,30.05454],[-97.98152,30.05509],[-97.98128,30.05603],[-97.98134,30.0582],[-97.98094,30.05917],[-97.979,30.06062],[-97.98176,30.06224],[-97.98294,30.06387],[-97.98269,30.06485],[-97.98106,30.06712],[-97.97837,30.06932],[-97.97793,30.07012],[-97.97822,30.07263],[-97.97931,30.0745],[-97.97948,30.0761],[-97.97924,30.07733],[-97.9786,30.07834],[-97.97713,30.07923],[-97.9747,30.08134],[-97.97426,30.08305],[-97.9745,30.0841],[-97.9752,30.08501],[-97.97663,30.08613],[-97.97785,30.08797],[-97.9789,30.08895],[-97.98014,30.08951],[-97.98187,30.08928],[-97.98608,30.08737],[-97.9904,30.08625],[-97.99254,30.08416],[-97.99461,30.08023],[-97.99577,30.07975],[-97.99702,30.08018],[-97.99832,30.08273],[-97.99895,30.0835],[-98.00002,30.08398],[-98.00462,30.08443],[-98.00683,30.08396],[-98.00813,30.08308],[-98.01051,30.08452],[-98.01108,30.08473],[-98.0121,30.08462],[-98.01322,30.08496],[-98.01327,30.08551],[-98.0122,30.08809],[-98.0105,30.08923],[-98.00638,30.09049],[-98.00522,30.09166],[-98.00269,30.09585],[-98.00203,30.0965],[-98.00103,30.09686],[-97.99814,30.09936],[-97.99793,30.09991],[-97.99561,30.10271],[-97.99365,30.10461],[-97.99457,30.10461],[-97.99318,30.10668],[-97.99299,30.10745],[-97.99241,30.10834],[-97.99229,30.10968],[-97.99241,30.11034],[-97.99356,30.112],[-97.99467,30.11282],[-97.99587,30.11319],[-97.99627,30.11295],[-97.9964,30.11251],[-97.99565,30.11093],[-97.99606,30.11043],[-97.9964,30.11035],[-97.99691,30.11074],[-98.00092,30.11066],[-98.00144,30.11107],[-98.00247,30.11252],[-98.00307,30.11687],[-98.00331,30.11726],[-98.00579,30.11875],[-98.00813,30.12139],[-98.00829,30.12242],[-98.00765,30.12423],[-98.00756,30.12521],[-98.00821,30.12767],[-98.00861,30.12803],[-98.00929,30.12817],[-98.0123,30.1271],[-98.01315,30.12715],[-98.01503,30.12787],[-98.01624,30.12969],[-98.01637,30.13041],[-98.01582,30.13144],[-98.01264,30.13121],[-98.0114,30.13137],[-98.0104,30.13192],[-98.00182,30.12337],[-98.00017,30.1227],[-97.99507,30.12252],[-97.99275,30.12186],[-97.98781,30.11826],[-97.98636,30.1174],[-97.98533,30.11712],[-97.96118,30.11731],[-97.95768,30.11724],[-97.9567,30.11699],[-97.95654,30.12851],[-97.97204,30.12839],[-97.97222,30.1523],[-97.97422,30.15122],[-97.97747,30.1506],[-97.98278,30.14808],[-97.98599,30.14685],[-97.99057,30.1488],[-97.99246,30.14993],[-97.99348,30.15105],[-97.99405,30.15296],[-97.99527,30.15375],[-98.01918,30.15327],[-98.019,30.15432],[-98.01959,30.15557],[-98.01827,30.15672],[-98.01694,30.15661],[-98.01551,30.15595],[-98.01505,30.1562],[-98.01506,30.15775],[-98.01458,30.15899],[-98.01477,30.16044],[-98.01376,30.16131],[-98.01329,30.16252],[-98.01372,30.16367],[-98.01516,30.16601],[-98.03749,30.16565],[-98.03769,30.17075],[-98.04437,30.17071],[-98.0444,30.17013],[-98.05627,30.16998],[-98.05607,30.16961],[-98.05607,30.16835],[-98.05468,30.16684],[-98.05476,30.16588],[-98.0653,30.16677],[-98.06785,30.16602],[-98.07705,30.16608],[-98.08009,30.16142],[-98.08182,30.1623],[-98.08282,30.16323],[-98.08565,30.1672],[-98.08684,30.16808],[-98.08801,30.16617],[-98.09095,30.16319],[-98.09134,30.1617],[-98.09112,30.15739],[-98.09001,30.15438],[-98.09165,30.14952],[-98.08985,30.14561],[-98.08863,30.14131],[-98.08598,30.14045],[-98.08477,30.14075],[-98.08449,30.14183],[-98.08467,30.14273],[-98.08436,30.1435],[-98.083,30.14405],[-98.08237,30.14354],[-98.08062,30.14279],[-98.07915,30.1413],[-98.07845,30.14106],[-98.07764,30.14117],[-98.07678,30.14198],[-98.07904,30.14371],[-98.07909,30.14519],[-98.08047,30.14596],[-98.0787,30.14771],[-98.07808,30.14789],[-98.07714,30.14771],[-98.0765,30.14702],[-98.07617,30.14579],[-98.07585,30.14544],[-98.07526,30.14529],[-98.07336,30.14559],[-98.07106,30.14648],[-98.06748,30.14887],[-98.06555,30.1488],[-98.06347,30.14628],[-98.06332,30.14504],[-98.06219,30.14316],[-98.06055,30.13961],[-98.06006,30.13926],[-98.06001,30.13807],[-98.0605,30.13718],[-98.06021,30.1359],[-98.05922,30.13452],[-98.05749,30.13377],[-98.05616,30.13382],[-98.05443,30.13486],[-98.05391,30.13726],[-98.05297,30.13794],[-98.05118,30.13873],[-98.05001,30.14077],[-98.04834,30.14243],[-98.04743,30.14322],[-98.04447,30.14402],[-98.04436,30.12523],[-98.06553,30.1253],[-98.06554,30.12512],[-98.06664,30.12516],[-98.06662,30.12433],[-98.0732,30.12431],[-98.07324,30.12536],[-98.07275,30.12539],[-98.07267,30.12709],[-98.07494,30.12708],[-98.07488,30.13019],[-98.07412,30.13018],[-98.07271,30.13358],[-98.08137,30.13349],[-98.08138,30.13291],[-98.08646,30.13313],[-98.08656,30.13185],[-98.08732,30.13187],[-98.08736,30.13096],[-98.08994,30.13099],[-98.08999,30.12983],[-98.08952,30.12816],[-98.0896,30.12565],[-98.08921,30.12281],[-98.08844,30.12068],[-98.08835,30.11772],[-98.08947,30.11376],[-98.09231,30.10709],[-98.09593,30.1021],[-98.09665,30.09928],[-98.09607,30.09758],[-98.09609,30.09674],[-98.09853,30.09096],[-98.09968,30.08928],[-98.10058,30.08669]]]},"properties":{"zip_code":"78619","county":"Hays"}}]}