{"type":"FeatureCollection","features":[{"type":"Feature","geometry":{"type":"Polygon","coordinates":[[[-98.278,30.14255],[-98.27802,30.142],[-98.27747,30.14151],[-98.27672,30.13821],[-98.27585,30.13747],[-98.27037,30.14046],[-98.26586,30.14108],[-98.26592,30.13471],[-98.2635,30.13475],[-98.26345,30.12614],[-98.25924,30.13654],[-98.25788,30.13674],[-98.25672,30.13552],[-98.25665,30.13496],[-98.24906,30.13642],[-98.24449,30.13187],[-98.23054,30.13173],[-98.22965,30.12469],[-98.22936,30.1249],[-98.2298,30.12422],[-98.22952,30.11833],[-98.21447,30.11854],[-98.21348,30.11829],[-98.21148,30.11634],[-98.20912,30.11978],[-98.20617,30.12284],[-98.19945,30.11835],[-98.20589,30.11154],[-98.20224,30.10856],[-98.20194,30.1089],[-98.20091,30.10892],[-98.19978,30.10733],[-98.19781,30.1086],[-98.19273,30.10979],[-98.19238,30.10949],[-98.19154,30.11007],[-98.18882,30.11071],[-98.18665,30.11344],[-98.18453,30.11146],[-98.18326,30.11294],[-98.18318,30.11364],[-98.17953,30.11487],[-98.17929,30.11549],[-98.17884,30.11572],[-98.17754,30.11551],[-98.1744,30.11219],[-98.1739,30.11355],[-98.17378,30.11478],[-98.174,30.11589],[-98.17382,30.11639],[-98.17173,30.1178],[-98.1702,30.11938],[-98.16974,30.12036],[-98.16847,30.12172],[-98.16798,30.12355],[-98.16683,30.12406],[-98.16475,30.12416],[-98.16366,30.12488],[-98.16319,30.12576],[-98.16327,30.12714],[-98.16148,30.12819],[-98.16073,30.12979],[-98.16042,30.12966],[-98.15989,30.12645],[-98.15851,30.1257],[-98.15816,30.12501],[-98.1582,30.12421],[-98.15742,30.12374],[-98.15718,30.12288],[-98.15751,30.12242],[-98.15745,30.12192],[-98.15833,30.12084],[-98.1581,30.1187],[-98.15711,30.11885],[-98.15637,30.11976],[-98.15536,30.12021],[-98.15358,30.11988],[-98.1506,30.12006],[-98.14906,30.12151],[-98.14749,30.12254],[-98.14515,30.12145],[-98.14221,30.12148],[-98.14179,30.12127],[-98.1413,30.12024],[-98.1427,30.1174],[-98.14239,30.1168],[-98.14057,30.11664],[-98.14018,30.11637],[-98.13982,30.11559],[-98.13839,30.11575],[-98.13785,30.11684],[-98.13763,30.11676],[-98.13705,30.11505],[-98.13541,30.11398],[-98.13476,30.11287],[-98.13396,30.11224],[-98.13372,30.11106],[-98.13239,30.10994],[-98.13164,30.10808],[-98.13073,30.10731],[-98.1279,30.10709],[-98.12505,30.10775],[-98.1236,30.10738],[-98.12092,30.10595],[-98.11976,30.10404],[-98.11922,30.10366],[-98.11548,30.10195],[-98.11301,30.10216],[-98.11,30.10196],[-98.10667,30.10106],[-98.10496,30.10109],[-98.1015,30.10066],[-98.10073,30.10075],[-98.0979,30.10222],[-98.09598,30.10195],[-98.09231,30.10709],[-98.08924,30.11437],[-98.08831,30.11798],[-98.08846,30.1208],[-98.08933,30.12344],[-98.08961,30.12604],[-98.08952,30.12816],[-98.08999,30.12983],[-98.08999,30.13082],[-98.08994,30.13099],[-98.08736,30.13096],[-98.08732,30.13187],[-98.08656,30.13185],[-98.08646,30.13313],[-98.08138,30.13291],[-98.08137,30.13349],[-98.07271,30.13358],[-98.07412,30.13018],[-98.07488,30.13019],[-98.07494,30.12708],[-98.07267,30.12709],[-98.07275,30.12539],[-98.07324,30.12536],[-98.0732,30.12431],[-98.06662,30.12433],[-98.06664,30.12516],[-98.06554,30.12512],[-98.06553,30.1253],[-98.04436,30.12523],[-98.04447,30.14402],[-98.04743,30.14322],[-98.04834,30.14243],[-98.05001,30.14077],[-98.05118,30.13873],[-98.05297,30.13794],[-98.05391,30.13726],[-98.05443,30.13486],[-98.05616,30.13382],[-98.05749,30.13377],[-98.05922,30.13452],[-98.06021,30.1359],[-98.0605,30.13718],[-98.06001,30.13807],[-98.06006,30.13926],[-98.06055,30.13961],[-98.06219,30.14316],[-98.06332,30.14504],[-98.06347,30.14628],[-98.06555,30.1488],[-98.06748,30.14887],[-98.07106,30.14648],[-98.07336,30.14559],[-98.07526,30.14529],[-98.07585,30.14544],[-98.07617,30.14579],[-98.0765,30.14702],[-98.07714,30.14771],[-98.07808,30.14789],[-98.0787,30.14771],[-98.08047,30.14596],[-98.07909,30.14519],[-98.07904,30.14371],[-98.07678,30.14198],[-98.07764,30.14117],[-98.07845,30.14106],[-98.07915,30.1413],[-98.08062,30.14279],[-98.08237,30.14354],[-98.083,30.14405],[-98.08436,30.1435],[-98.08467,30.14273],[-98.08449,30.14183],[-98.08477,30.14075],[-98.08598,30.14045],[-98.08863,30.14131],[-98.08985,30.14561],[-98.09165,30.14952],[-98.09001,30.15438],[-98.09112,30.15739],[-98.09134,30.1617],[-98.09095,30.16319],[-98.08801,30.16617],[-98.08684,30.16808],[-98.08565,30.1672],[-98.08282,30.16323],[-98.08182,30.1623],[-98.08009,30.16142],[-98.07705,30.16608],[-98.06785,30.16602],[-98.0653,30.16677],[-98.05476,30.16588],[-98.05468,30.16684],[-98.05607,30.16835],[-98.05607,30.16961],[-98.05627,30.16998],[-98.0444,30.17013],[-98.04437,30.17071],[-98.03769,30.17075],[-98.03749,30.16565],[-98.01516,30.16601],[-98.01372,30.16367],[-98.01329,30.16252],[-98.01376,30.16131],[-98.01477,30.16044],[-98.01458,30.15899],[-98.01506,30.15775],[-98.01505,30.1562],[-98.01551,30.15595],[-98.01694,30.15661],[-98.01827,30.15672],[-98.01959,30.15557],[-98.019,30.15432],[-98.01918,30.15327],[-98.00878,30.15347],[-98.00898,30.15507],[-98.00892,30.15756],[-98.00861,30.16041],[-98.00841,30.16692],[-98.00781,30.16859],[-98.005,30.17224],[-98.00448,30.17404],[-98.00298,30.17664],[-98.00229,30.17886],[-98.00188,30.18185],[-98.00073,30.18599],[-98.00064,30.18846],[-98.00035,30.18943],[-97.99991,30.1903],[-97.99753,30.19186],[-97.99723,30.19241],[-97.99788,30.19434],[-97.99733,30.19661],[-97.99739,30.19684],[-98.00027,30.19637],[-98.00675,30.19631],[-98.01277,30.19683],[-98.0142,30.20154],[-98.01522,30.20359],[-98.0155,30.20536],[-98.01634,30.20713],[-98.01727,30.2067],[-98.01781,30.20791],[-98.01949,30.20837],[-98.02132,30.21011],[-98.02252,30.21065],[-98.02262,30.21164],[-98.02296,30.21181],[-98.02371,30.21448],[-98.02247,30.21504],[-98.02286,30.21561],[-98.02432,30.21496],[-98.02489,30.21579],[-98.02655,30.22096],[-98.02696,30.221],[-98.02696,30.22226],[-98.03013,30.22222],[-98.03064,30.2238],[-98.03089,30.22397],[-98.03066,30.22447],[-98.0299,30.22477],[-98.0307,30.22546],[-98.0302,30.22598],[-98.03026,30.2262],[-98.03158,30.22632],[-98.03442,30.22756],[-98.03484,30.22717],[-98.03613,30.22739],[-98.03668,30.22705],[-98.03749,30.22854],[-98.03734,30.22971],[-98.03601,30.23129],[-98.03513,30.23175],[-98.03408,30.23168],[-98.03266,30.23245],[-98.03241,30.23333],[-98.03336,30.23583],[-98.03316,30.23652],[-98.03256,30.23704],[-98.0284,30.23782],[-98.02797,30.2378],[-98.02735,30.23715],[-98.02636,30.23665],[-98.02499,30.23672],[-98.02633,30.2375],[-98.0264,30.23865],[-98.02692,30.23979],[-98.02893,30.2413],[-98.02973,30.24266],[-98.02911,30.24491],[-98.02758,30.24592],[-98.02856,30.24605],[-98.02853,30.24743],[-98.02671,30.25169],[-98.03067,30.25451],[-98.02657,30.26074],[-98.04025,30.28432],[-98.03887,30.28492],[-98.03897,30.2852],[-98.03835,30.2853],[-98.03801,30.28575],[-98.03711,30.28559],[-98.03642,30.28577],[-98.0367,30.28651],[-98.03725,30.28706],[-98.03835,30.28749],[-98.03984,30.2873],[-98.04101,30.28786],[-98.04209,30.28994],[-98.04437,30.28977],[-98.0462,30.28871],[-98.04791,30.28905],[-98.04946,30.28807],[-98.04973,30.28863],[-98.05171,30.28763],[-98.05285,30.28739],[-98.05513,30.28724],[-98.06131,30.28592],[-98.06288,30.28582],[-98.06482,30.2865],[-98.07383,30.29075],[-98.07475,30.29092],[-98.07453,30.29259],[-98.07368,30.29307],[-98.07379,30.29336],[-98.07297,30.29458],[-98.07305,30.29537],[-98.07232,30.29573],[-98.07186,30.29654],[-98.07131,30.29666],[-98.07053,30.29727],[-98.06975,30.29713],[-98.06898,30.2976],[-98.06741,30.29754],[-98.06622,30.29799],[-98.06477,30.29801],[-98.06428,30.29837],[-98.06388,30.29934],[-98.06036,30.30044],[-98.05809,30.30073],[-98.05845,30.3018],[-98.05711,30.30284],[-98.05726,30.30431],[-98.05657,30.30551],[-98.05699,30.30631],[-98.05825,30.30699],[-98.05865,30.30865],[-98.05734,30.31022],[-98.0563,30.31083],[-98.05659,30.31257],[-98.0562,30.31282],[-98.05624,30.31381],[-98.0558,30.31427],[-98.05576,30.31592],[-98.05547,30.31626],[-98.05375,30.31683],[-98.05291,30.31805],[-98.05119,30.31918],[-98.05011,30.32022],[-98.04841,30.32081],[-98.04683,30.3226],[-98.04593,30.3228],[-98.04424,30.32239],[-98.04356,30.3225],[-98.04354,30.3228],[-98.04508,30.32489],[-98.04528,30.3255],[-98.04521,30.3259],[-98.04485,30.32602],[-98.04353,30.3255],[-98.04348,30.32579],[-98.04408,30.32655],[-98.04314,30.32666],[-98.04277,30.3271],[-98.04295,30.32846],[-98.0437,30.3296],[-98.04385,30.33031],[-98.04357,30.33368],[-98.04314,30.33466],[-98.0427,30.33504],[-98.04111,30.33484],[-98.04063,30.33501],[-98.04044,30.33562],[-98.0406,30.33627],[-98.04018,30.33692],[-98.04198,30.33782],[-98.04262,30.33869],[-98.04388,30.33961],[-98.04558,30.33939],[-98.04689,30.33867],[-98.04764,30.33877],[-98.04864,30.33932],[-98.05133,30.34172],[-98.0522,30.34159],[-98.0544,30.34],[-98.05507,30.34007],[-98.05521,30.34065],[-98.05873,30.34197],[-98.05975,30.3447],[-98.06141,30.3471],[-98.06251,30.34779],[-98.06935,30.34422],[-98.07411,30.34639],[-98.07676,30.3452],[-98.07697,30.34252],[-98.07655,30.34076],[-98.07711,30.33856],[-98.07658,30.33724],[-98.07772,30.33554],[-98.07869,30.33351],[-98.07911,30.33155],[-98.08188,30.32818],[-98.08199,30.32697],[-98.08255,30.32581],[-98.08314,30.32307],[-98.08346,30.32041],[-98.08489,30.31943],[-98.08508,30.31821],[-98.08585,30.31646],[-98.08709,30.31577],[-98.0875,30.31467],[-98.08897,30.31429],[-98.0896,30.31295],[-98.09055,30.31214],[-98.10342,30.32071],[-98.10761,30.32417],[-98.1089,30.32599],[-98.11205,30.32775],[-98.09972,30.33432],[-98.10773,30.34652],[-98.09583,30.35251],[-98.09501,30.35355],[-98.10206,30.35705],[-98.10131,30.35829],[-98.11141,30.36321],[-98.1141,30.35923],[-98.11442,30.35908],[-98.11637,30.35997],[-98.11859,30.37203],[-98.11898,30.37476],[-98.11902,30.37741],[-98.12593,30.375],[-98.12896,30.37259],[-98.12937,30.37262],[-98.13012,30.37204],[-98.13168,30.37048],[-98.13229,30.36948],[-98.1321,30.3678],[-98.13163,30.36684],[-98.13076,30.36567],[-98.12904,30.3645],[-98.12901,30.36384],[-98.12769,30.36338],[-98.12711,30.3628],[-98.12703,30.36166],[-98.12769,30.36058],[-98.12909,30.35925],[-98.13213,30.35767],[-98.13525,30.35511],[-98.13771,30.35086],[-98.13855,30.34715],[-98.13829,30.34426],[-98.13879,30.34151],[-98.13931,30.34062],[-98.13946,30.33709],[-98.13929,30.33518],[-98.13967,30.33429],[-98.14016,30.33396],[-98.14327,30.33395],[-98.15182,30.33483],[-98.15538,30.33451],[-98.16323,30.33226],[-98.17262,30.32877],[-98.17506,30.32757],[-98.17592,30.32753],[-98.17709,30.32821],[-98.17919,30.33035],[-98.18078,30.333],[-98.18288,30.33485],[-98.18484,30.34067],[-98.18502,30.34434],[-98.18534,30.34611],[-98.18642,30.34802],[-98.19277,30.35033],[-98.19507,30.35008],[-98.19661,30.34941],[-98.1985,30.34597],[-98.19828,30.34481],[-98.19734,30.34387],[-98.19654,30.34],[-98.19631,30.338],[-98.19676,30.33636],[-98.19752,30.33552],[-98.19866,30.3348],[-98.20118,30.33395],[-98.20115,30.33375],[-98.20307,30.33335],[-98.20661,30.33103],[-98.20781,30.32987],[-98.21114,30.32556],[-98.21112,30.32257],[-98.20983,30.31995],[-98.20781,30.31857],[-98.20655,30.31815],[-98.20359,30.31567],[-98.20339,30.31467],[-98.20419,30.31246],[-98.20539,30.31128],[-98.20654,30.31065],[-98.20842,30.3106],[-98.21015,30.31149],[-98.21094,30.30986],[-98.21318,30.30922],[-98.21363,30.30843],[-98.21248,30.30409],[-98.2119,30.30318],[-98.21099,30.30238],[-98.20996,30.30192],[-98.20943,30.30125],[-98.21092,30.2999],[-98.21111,30.29884],[-98.21041,30.29429],[-98.20888,30.29245],[-98.20882,30.29205],[-98.20934,30.29078],[-98.20908,30.28989],[-98.20807,30.28864],[-98.20765,30.28719],[-98.20711,30.28635],[-98.20439,30.28548],[-98.20333,30.28484],[-98.2028,30.28396],[-98.20264,30.28239],[-98.20372,30.28058],[-98.20768,30.28135],[-98.20866,30.2813],[-98.20895,30.28101],[-98.20893,30.28048],[-98.20833,30.27939],[-98.20833,30.27866],[-98.20546,30.27803],[-98.20477,30.27741],[-98.20449,30.27678],[-98.20771,30.26808],[-98.21797,30.2426],[-98.22197,30.23134],[-98.24018,30.18472],[-98.27202,30.18436],[-98.27196,30.17327],[-98.27096,30.16334],[-98.26736,30.16353],[-98.26834,30.15814],[-98.26922,30.14963],[-98.27079,30.14896],[-98.27101,30.14976],[-98.27193,30.15013],[-98.27379,30.14947],[-98.27425,30.14897],[-98.27576,30.14896],[-98.2762,30.14915],[-98.27667,30.14807],[-98.27635,30.14798],[-98.27626,30.14606],[-98.278,30.14255]]]},"properties":{"zip_code":"78620","county":"Hays"}}]}