{"type":"FeatureCollection","features":[{"type":"Feature","geometry":{"type":"Polygon","coordinates":[[[-97.693,30.58297],[-97.69285,30.57122],[-97.69227,30.57251],[-97.69224,30.57077],[-97.69109,30.57105],[-97.69138,30.57171],[-97.69092,30.57186],[-97.69069,30.57147],[-97.68527,30.57283],[-97.68543,30.57347],[-97.68454,30.57144],[-97.6758,30.57404],[-97.67516,30.57439],[-97.67528,30.57502],[-97.6684,30.57669],[-97.66989,30.58047],[-97.66236,30.58161],[-97.65647,30.58343],[-97.6543,30.58235],[-97.65415,30.58193],[-97.65361,30.58199],[-97.65461,30.58438],[-97.64387,30.58766],[-97.6461,30.59147],[-97.63858,30.59393],[-97.63739,30.58961],[-97.63593,30.59013],[-97.63428,30.58619],[-97.63468,30.58379],[-97.63372,30.58161],[-97.63395,30.58161],[-97.63385,30.58065],[-97.63289,30.5792],[-97.63215,30.57731],[-97.63051,30.57802],[-97.6265,30.58037],[-97.59996,30.58867],[-97.60186,30.59308],[-97.60477,30.59216],[-97.60576,30.59455],[-97.60595,30.59742],[-97.60831,30.59673],[-97.61225,30.60572],[-97.62236,30.6025],[-97.62611,30.61126],[-97.62608,30.6116],[-97.6074,30.6175],[-97.60557,30.61633],[-97.60381,30.61467],[-97.60244,30.61286],[-97.60162,30.61117],[-97.59349,30.61371],[-97.58132,30.61755],[-97.58192,30.61898],[-97.57146,30.62188],[-97.57101,30.62112],[-97.56857,30.62207],[-97.56936,30.62392],[-97.56527,30.62545],[-97.56492,30.62472],[-97.56443,30.62493],[-97.56043,30.62716],[-97.56084,30.6282],[-97.55429,30.62995],[-97.55385,30.62891],[-97.55261,30.62908],[-97.55217,30.62884],[-97.55199,30.62931],[-97.55259,30.62971],[-97.55219,30.62984],[-97.5523,30.6303],[-97.55194,30.6313],[-97.54988,30.63288],[-97.54796,30.63336],[-97.54735,30.63629],[-97.54558,30.6362],[-97.54305,30.6355],[-97.54211,30.63569],[-97.54087,30.63538],[-97.53785,30.63377],[-97.53523,30.63309],[-97.53285,30.63177],[-97.532,30.63092],[-97.52908,30.63082],[-97.5271,30.62936],[-97.52581,30.62906],[-97.52469,30.62906],[-97.52062,30.62993],[-97.52001,30.63036],[-97.51945,30.63122],[-97.51793,30.63104],[-97.51529,30.63228],[-97.51302,30.63255],[-97.51117,30.63232],[-97.5097,30.6316],[-97.50833,30.63055],[-97.50576,30.62993],[-97.50329,30.62738],[-97.50104,30.62676],[-97.50011,30.62687],[-97.49828,30.62808],[-97.49679,30.628],[-97.49538,30.62838],[-97.48958,30.62679],[-97.48539,30.62688],[-97.48326,30.62804],[-97.47906,30.62749],[-97.47652,30.6288],[-97.4757,30.62888],[-97.47489,30.62863],[-97.47317,30.62933],[-97.47173,30.63028],[-97.47086,30.63143],[-97.47069,30.63215],[-97.46963,30.63297],[-97.468,30.63286],[-97.46633,30.63231],[-97.46564,30.63204],[-97.4649,30.63128],[-97.46272,30.63109],[-97.46174,30.63162],[-97.46097,30.63256],[-97.46177,30.63303],[-97.463,30.6345],[-97.46427,30.63443],[-97.46485,30.63512],[-97.46592,30.63551],[-97.46619,30.63665],[-97.46535,30.63768],[-97.46853,30.6367],[-97.47129,30.63622],[-97.4825,30.66272],[-97.48338,30.66315],[-97.49615,30.66697],[-97.4918,30.67798],[-97.49029,30.67994],[-97.49356,30.68787],[-97.50151,30.68476],[-97.50329,30.6846],[-97.52646,30.69147],[-97.53196,30.67797],[-97.54513,30.68201],[-97.54618,30.68428],[-97.5495,30.6831],[-97.54996,30.68346],[-97.55298,30.68435],[-97.55452,30.68821],[-97.55384,30.69135],[-97.55669,30.69047],[-97.55916,30.69622],[-97.55508,30.6976],[-97.55752,30.70443],[-97.55561,30.70504],[-97.55596,30.70619],[-97.55374,30.71172],[-97.55272,30.71312],[-97.55169,30.71578],[-97.55134,30.71602],[-97.54949,30.71613],[-97.54784,30.71877],[-97.54919,30.72055],[-97.54979,30.72391],[-97.55289,30.72486],[-97.55429,30.72492],[-97.55618,30.72449],[-97.55752,30.72385],[-97.55849,30.72409],[-97.56044,30.72672],[-97.5622,30.72734],[-97.5629,30.72819],[-97.56458,30.73256],[-97.56515,30.73348],[-97.56527,30.73464],[-97.56572,30.73554],[-97.56723,30.73661],[-97.56915,30.73756],[-97.57112,30.73944],[-97.57519,30.73959],[-97.57577,30.73994],[-97.57607,30.74045],[-97.57283,30.74161],[-97.56996,30.74396],[-97.55882,30.74739],[-97.55792,30.74784],[-97.55687,30.74881],[-97.56761,30.77494],[-97.58019,30.7709],[-97.57904,30.76822],[-97.58088,30.7675],[-97.57892,30.76296],[-97.58363,30.7614],[-97.58176,30.75634],[-97.58798,30.75436],[-97.58836,30.75467],[-97.58954,30.75473],[-97.59039,30.75569],[-97.59137,30.75599],[-97.59155,30.75834],[-97.59348,30.76006],[-97.59566,30.76081],[-97.59606,30.76143],[-97.59567,30.7624],[-97.59578,30.76291],[-97.6036,30.7603],[-97.61163,30.75793],[-97.61221,30.75802],[-97.61273,30.75862],[-97.61904,30.77353],[-97.62428,30.77192],[-97.62496,30.77338],[-97.62606,30.77372],[-97.62543,30.77621],[-97.62593,30.77605],[-97.62926,30.76525],[-97.63433,30.75291],[-97.63713,30.74368],[-97.644,30.72371],[-97.64349,30.72358],[-97.65017,30.70466],[-97.6505,30.70505],[-97.65175,30.70159],[-97.65226,30.70188],[-97.65733,30.68914],[-97.65768,30.68723],[-97.66043,30.68072],[-97.66441,30.67409],[-97.66685,30.67087],[-97.67601,30.65608],[-97.67876,30.65093],[-97.68095,30.64835],[-97.68729,30.6426],[-97.68894,30.64027],[-97.68988,30.63836],[-97.69175,30.63234],[-97.6919,30.62906],[-97.68684,30.6107],[-97.6865,30.60886],[-97.68645,30.60688],[-97.68711,30.60314],[-97.69045,30.59504],[-97.692,30.58983],[-97.69279,30.58594],[-97.693,30.58297]],[[-97.61018,30.67205],[-97.60986,30.67279],[-97.60641,30.67274],[-97.59191,30.67387],[-97.59257,30.6759],[-97.5924,30.67717],[-97.59343,30.68028],[-97.59188,30.68079],[-97.59169,30.68077],[-97.59051,30.67735],[-97.59077,30.67537],[-97.59135,30.67515],[-97.5911,30.67392],[-97.58993,30.67409],[-97.59015,30.67495],[-97.58644,30.67579],[-97.58595,30.67446],[-97.5867,30.67428],[-97.58647,30.67339],[-97.59169,30.67228],[-97.59388,30.67127],[-97.59452,30.67119],[-97.59369,30.66732],[-97.59586,30.66707],[-97.59552,30.66403],[-97.59581,30.66325],[-97.59622,30.66523],[-97.59725,30.66683],[-97.60176,30.66994],[-97.60426,30.67077],[-97.61009,30.67169],[-97.61018,30.67205]]]},"properties":{"zip_code":"78626","county":"Williamson"}}]}