{"type":"FeatureCollection","features":[{"type":"Feature","geometry":{"type":"Polygon","coordinates":[[[-98.29158,29.99157],[-98.29167,29.9863],[-98.28088,29.98081],[-98.27748,29.97855],[-98.27588,29.97775],[-98.25965,29.97396],[-98.25881,29.96851],[-98.25753,29.96499],[-98.25734,29.96304],[-98.25538,29.96314],[-98.25541,29.96047],[-98.25591,29.95706],[-98.2557,29.94836],[-98.25155,29.94844],[-98.24996,29.9449],[-98.23272,29.9449],[-98.23268,29.94803],[-98.21963,29.94794],[-98.2195,29.94456],[-98.2206,29.94454],[-98.21938,29.94287],[-98.2197,29.94275],[-98.21945,29.94241],[-98.21555,29.93942],[-98.21538,29.94068],[-98.20963,29.94062],[-98.20815,29.94119],[-98.20575,29.93936],[-98.20614,29.92869],[-98.2061,29.9284],[-98.20543,29.92819],[-98.20545,29.92726],[-98.2061,29.92693],[-98.20592,29.92269],[-98.20554,29.9227],[-98.20557,29.91916],[-98.20576,29.91892],[-98.20548,29.91857],[-98.20538,29.91418],[-98.20336,29.91415],[-98.20335,29.91328],[-98.20436,29.91329],[-98.2044,29.91136],[-98.18982,29.91135],[-98.18916,29.91223],[-98.18437,29.91036],[-98.18218,29.91032],[-98.18234,29.91473],[-98.17575,29.91488],[-98.17285,29.91472],[-98.17235,29.91531],[-98.17067,29.91514],[-98.1704,29.91473],[-98.16987,29.91468],[-98.16179,29.91457],[-98.16169,29.9335],[-98.16017,29.93386],[-98.15706,29.9335],[-98.15159,29.93432],[-98.17143,29.94845],[-98.1709,29.94872],[-98.1699,29.95047],[-98.16971,29.95156],[-98.17006,29.95243],[-98.16999,29.95371],[-98.16923,29.95497],[-98.16944,29.95533],[-98.16892,29.95591],[-98.17124,29.95727],[-98.17639,29.9623],[-98.17892,29.96368],[-98.18107,29.964],[-98.18347,29.96397],[-98.18476,29.96418],[-98.186,29.9648],[-98.19106,29.96861],[-98.19614,29.97099],[-98.1968,29.97152],[-98.19852,29.9739],[-98.20147,29.97603],[-98.20256,29.97585],[-98.20368,29.97444],[-98.2049,29.97446],[-98.2054,29.97478],[-98.206,29.97604],[-98.20611,29.97762],[-98.20617,29.9802],[-98.20567,29.98576],[-98.20603,29.98625],[-98.206,29.98978],[-98.21756,29.98957],[-98.22426,29.98605],[-98.21739,29.98115],[-98.23328,29.98103],[-98.23474,29.9848],[-98.23484,29.99361],[-98.2463,30.00177],[-98.25443,30.00178],[-98.25478,29.99973],[-98.27285,30.0005],[-98.27306,30.00619],[-98.28032,30.00591],[-98.28812,30.00596],[-98.28778,29.99133],[-98.29157,29.99201],[-98.29158,29.99157]]]},"properties":{"zip_code":"78623","county":"Hays"}}]}