{"type":"FeatureCollection","features":[{"type":"Feature","geometry":{"type":"Polygon","coordinates":[[[-97.74751,29.4989],[-97.74522,29.49833],[-97.73973,29.49928],[-97.73327,29.50401],[-97.72749,29.50532],[-97.71382,29.50442],[-97.70894,29.50191],[-97.70357,29.4978],[-97.69341,29.49669],[-97.68813,29.49187],[-97.68083,29.48756],[-97.67729,29.48303],[-97.67918,29.46616],[-97.6801,29.46574],[-97.68062,29.4592],[-97.6816,29.45886],[-97.68198,29.45468],[-97.68351,29.45054],[-97.68435,29.44234],[-97.66926,29.44138],[-97.66961,29.43417],[-97.66548,29.43494],[-97.66277,29.42989],[-97.65968,29.4279],[-97.65255,29.41706],[-97.65149,29.41693],[-97.63791,29.41637],[-97.64341,29.42646],[-97.63793,29.42926],[-97.63738,29.43764],[-97.63152,29.43757],[-97.63061,29.44955],[-97.62749,29.44971],[-97.62858,29.45279],[-97.62846,29.45535],[-97.61539,29.45484],[-97.61388,29.45961],[-97.61003,29.46392],[-97.6087,29.46875],[-97.59781,29.4666],[-97.59265,29.47981],[-97.58883,29.48242],[-97.58738,29.48599],[-97.58748,29.48763],[-97.58011,29.48613],[-97.57237,29.48234],[-97.57214,29.48138],[-97.57358,29.47943],[-97.57659,29.47966],[-97.57719,29.47796],[-97.57467,29.47617],[-97.57296,29.4714],[-97.57092,29.46881],[-97.56977,29.46904],[-97.56501,29.47495],[-97.56557,29.4765],[-97.56752,29.47752],[-97.56776,29.47845],[-97.56556,29.47966],[-97.56413,29.47883],[-97.56298,29.47924],[-97.56241,29.48149],[-97.56058,29.48304],[-97.55903,29.48264],[-97.55951,29.48109],[-97.55896,29.47784],[-97.55541,29.47671],[-97.55568,29.47587],[-97.56107,29.47353],[-97.56075,29.47209],[-97.55884,29.4708],[-97.553,29.47112],[-97.55017,29.47011],[-97.54829,29.47483],[-97.54226,29.47898],[-97.54177,29.4752],[-97.54339,29.47295],[-97.54093,29.47096],[-97.54027,29.46929],[-97.54143,29.46823],[-97.54334,29.46819],[-97.54329,29.46725],[-97.53941,29.4612],[-97.5369,29.45967],[-97.53405,29.4596],[-97.53362,29.45835],[-97.53424,29.4563],[-97.53306,29.4555],[-97.53197,29.45567],[-97.52836,29.45896],[-97.52676,29.4593],[-97.52533,29.45853],[-97.52629,29.45237],[-97.52978,29.45005],[-97.52962,29.44948],[-97.52828,29.44969],[-97.528,29.44788],[-97.52923,29.4485],[-97.53007,29.44744],[-97.5319,29.44719],[-97.53098,29.45005],[-97.53219,29.45006],[-97.53279,29.44845],[-97.53457,29.44911],[-97.53836,29.44631],[-97.53153,29.43802],[-97.52987,29.43702],[-97.52585,29.43856],[-97.51584,29.43863],[-97.49022,29.44595],[-97.49766,29.43403],[-97.50341,29.42877],[-97.50782,29.42192],[-97.51504,29.41579],[-97.53528,29.41602],[-97.53514,29.40682],[-97.53842,29.39665],[-97.54098,29.39542],[-97.54286,29.3908],[-97.5454,29.38729],[-97.56359,29.37555],[-97.56644,29.3712],[-97.56678,29.3686],[-97.56465,29.3668],[-97.56053,29.36592],[-97.56078,29.36349],[-97.55053,29.36029],[-97.5465,29.36004],[-97.54589,29.35606],[-97.54237,29.35449],[-97.52717,29.34181],[-97.54096,29.32862],[-97.53547,29.32841],[-97.53512,29.33081],[-97.53353,29.33141],[-97.53057,29.32971],[-97.52927,29.32731],[-97.52872,29.32332],[-97.53063,29.31958],[-97.52796,29.31814],[-97.52773,29.3163],[-97.52668,29.31589],[-97.52579,29.31351],[-97.5248,29.31351],[-97.52501,29.31578],[-97.52394,29.31578],[-97.52213,29.31415],[-97.52305,29.31213],[-97.52245,29.31073],[-97.51983,29.31254],[-97.51787,29.31156],[-97.51439,29.31302],[-97.51413,29.31366],[-97.51502,29.31442],[-97.51337,29.31557],[-97.51212,29.3155],[-97.51204,29.31346],[-97.51118,29.31314],[-97.50921,29.31556],[-97.50769,29.3149],[-97.50683,29.31309],[-97.50542,29.313],[-97.50629,29.311],[-97.50388,29.30951],[-97.50443,29.30711],[-97.502,29.30493],[-97.49893,29.30624],[-97.49723,29.30488],[-97.49553,29.30484],[-97.49435,29.30677],[-97.49255,29.30544],[-97.49378,29.30404],[-97.49312,29.30305],[-97.49161,29.30303],[-97.49009,29.3045],[-97.48959,29.30326],[-97.49127,29.30152],[-97.49106,29.29884],[-97.48943,29.29758],[-97.4876,29.29751],[-97.48679,29.29636],[-97.48721,29.29474],[-97.48543,29.29258],[-97.48559,29.29075],[-97.48689,29.28912],[-97.48645,29.28614],[-97.48047,29.29008],[-97.47934,29.28901],[-97.46922,29.29742],[-97.47326,29.3017],[-97.46697,29.30625],[-97.458,29.30347],[-97.44861,29.32681],[-97.43462,29.32237],[-97.43678,29.31417],[-97.43236,29.31271],[-97.43,29.31056],[-97.42158,29.30978],[-97.41684,29.31448],[-97.37905,29.28297],[-97.37028,29.28937],[-97.36501,29.28508],[-97.36289,29.28656],[-97.35481,29.27984],[-97.33943,29.27957],[-97.33561,29.28328],[-97.33513,29.28791],[-97.33827,29.28713],[-97.33887,29.28763],[-97.33775,29.29003],[-97.33623,29.29095],[-97.33503,29.29031],[-97.33391,29.28727],[-97.33127,29.286],[-97.32874,29.28742],[-97.32723,29.28407],[-97.32453,29.28345],[-97.32192,29.28143],[-97.32064,29.28217],[-97.32023,29.2848],[-97.31591,29.28804],[-97.31566,29.28936],[-97.31763,29.2912],[-97.31757,29.29212],[-97.31526,29.29359],[-97.31272,29.29356],[-97.31168,29.29489],[-97.31125,29.29665],[-97.3125,29.29984],[-97.30963,29.30253],[-97.30626,29.31076],[-97.30214,29.31625],[-97.30481,29.32094],[-97.30879,29.32267],[-97.31085,29.32483],[-97.31165,29.33053],[-97.30858,29.33134],[-97.3054,29.32911],[-97.30437,29.32763],[-97.30386,29.32409],[-97.30136,29.32456],[-97.29728,29.32681],[-97.29608,29.32855],[-97.29568,29.33126],[-97.29952,29.3312],[-97.30019,29.33215],[-97.29459,29.33555],[-97.29343,29.33888],[-97.2898,29.3403],[-97.28623,29.34596],[-97.28688,29.34751],[-97.29028,29.35014],[-97.29337,29.35019],[-97.29264,29.35247],[-97.29332,29.35314],[-97.29675,29.35275],[-97.29774,29.35657],[-97.30176,29.35713],[-97.30404,29.35906],[-97.30538,29.36156],[-97.30551,29.36449],[-97.30916,29.36868],[-97.31109,29.37229],[-97.3131,29.37218],[-97.31293,29.37005],[-97.31402,29.36919],[-97.31837,29.36884],[-97.32031,29.37045],[-97.31859,29.37356],[-97.32072,29.38092],[-97.31994,29.38303],[-97.31591,29.38431],[-97.31091,29.38869],[-97.30987,29.39105],[-97.30731,29.38994],[-97.30519,29.39265],[-97.30317,29.39103],[-97.30311,29.38862],[-97.29874,29.38738],[-97.29887,29.38929],[-97.29751,29.39018],[-97.29866,29.39126],[-97.29851,29.3922],[-97.29691,29.39231],[-97.29631,29.39337],[-97.29375,29.39197],[-97.29372,29.39346],[-97.29194,29.39476],[-97.2906,29.39408],[-97.28893,29.39513],[-97.28775,29.39467],[-97.28697,29.39545],[-97.28744,29.39765],[-97.28657,29.39866],[-97.28757,29.39891],[-97.28642,29.40052],[-97.28926,29.40564],[-97.28874,29.40729],[-97.28976,29.40892],[-97.30554,29.4243],[-97.30745,29.4249],[-97.3112,29.42343],[-97.31129,29.42571],[-97.31379,29.42575],[-97.31266,29.42836],[-97.31269,29.43038],[-97.31371,29.43166],[-97.31353,29.43583],[-97.31429,29.43702],[-97.31319,29.44053],[-97.31481,29.44458],[-97.31316,29.44495],[-97.31303,29.44564],[-97.31504,29.4469],[-97.31481,29.44809],[-97.31651,29.45029],[-97.31659,29.45235],[-97.31803,29.45309],[-97.31719,29.45565],[-97.31829,29.45776],[-97.31685,29.4602],[-97.31597,29.45998],[-97.31479,29.46108],[-97.29579,29.45754],[-97.29459,29.46131],[-97.28426,29.45333],[-97.30976,29.47276],[-97.3065,29.47687],[-97.28703,29.48043],[-97.28468,29.47927],[-97.28291,29.48749],[-97.28745,29.49947],[-97.28493,29.50232],[-97.2763,29.49608],[-97.27903,29.49336],[-97.2645,29.4829],[-97.25649,29.48533],[-97.25084,29.48558],[-97.22189,29.51903],[-97.22041,29.51902],[-97.2213,29.52093],[-97.22243,29.5215],[-97.22556,29.52083],[-97.23178,29.52364],[-97.23778,29.52343],[-97.23623,29.52764],[-97.2309,29.52781],[-97.22938,29.52967],[-97.2295,29.53677],[-97.22609,29.53733],[-97.22564,29.54328],[-97.21982,29.54797],[-97.21907,29.55593],[-97.21396,29.55908],[-97.2159,29.55932],[-97.21604,29.56895],[-97.21709,29.57094],[-97.22716,29.57122],[-97.22831,29.58789],[-97.22519,29.58803],[-97.21802,29.5864],[-97.21803,29.59071],[-97.22814,29.59061],[-97.22816,29.59407],[-97.22902,29.59607],[-97.24194,29.59598],[-97.24234,29.6003],[-97.25377,29.60032],[-97.25403,29.60329],[-97.25517,29.60339],[-97.25593,29.60192],[-97.25796,29.60092],[-97.25715,29.5989],[-97.25956,29.5974],[-97.26116,29.59773],[-97.26169,29.59654],[-97.26463,29.59528],[-97.26746,29.59279],[-97.26764,29.59175],[-97.26599,29.59042],[-97.26691,29.58873],[-97.28419,29.5743],[-97.2848,29.57343],[-97.28461,29.57017],[-97.28598,29.56909],[-97.28506,29.56843],[-97.28495,29.5671],[-97.28666,29.56744],[-97.28682,29.5663],[-97.28891,29.56722],[-97.28826,29.56974],[-97.29075,29.57217],[-97.28923,29.57301],[-97.28792,29.57207],[-97.28715,29.57395],[-97.29001,29.57409],[-97.29056,29.57744],[-97.29292,29.57769],[-97.29499,29.57682],[-97.29426,29.58019],[-97.29224,29.58149],[-97.29397,29.58656],[-97.29418,29.58851],[-97.2932,29.58981],[-97.29364,29.59236],[-97.29492,29.59365],[-97.29496,29.59554],[-97.29679,29.59562],[-97.2998,29.59849],[-97.30335,29.59622],[-97.3045,29.59629],[-97.30476,29.59719],[-97.30314,29.59921],[-97.30332,29.60123],[-97.3071,29.60089],[-97.314,29.60441],[-97.31155,29.60615],[-97.31113,29.6086],[-97.3081,29.61059],[-97.30832,29.61238],[-97.30996,29.61372],[-97.30785,29.61698],[-97.31103,29.61708],[-97.30873,29.62102],[-97.30846,29.6232],[-97.30951,29.6241],[-97.31503,29.62391],[-97.31716,29.62223],[-97.32081,29.62488],[-97.3218,29.62161],[-97.32661,29.6142],[-97.33357,29.60564],[-97.33913,29.60123],[-97.3391,29.59595],[-97.33714,29.5958],[-97.33711,29.59054],[-97.33872,29.58989],[-97.33954,29.58056],[-97.34644,29.58042],[-97.34719,29.57551],[-97.35135,29.57527],[-97.3517,29.57712],[-97.35235,29.57728],[-97.35147,29.58035],[-97.3522,29.58257],[-97.35167,29.58364],[-97.35335,29.58705],[-97.35397,29.59194],[-97.35806,29.58786],[-97.36602,29.58375],[-97.37171,29.57636],[-97.37233,29.57686],[-97.37174,29.57858],[-97.3734,29.57902],[-97.3739,29.58059],[-97.37309,29.58226],[-97.37376,29.58599],[-97.37712,29.58757],[-97.37702,29.58842],[-97.38015,29.58935],[-97.38173,29.5931],[-97.38105,29.64118],[-97.39495,29.64113],[-97.40517,29.61796],[-97.42021,29.61778],[-97.42012,29.61506],[-97.42279,29.61326],[-97.42219,29.61035],[-97.42466,29.60964],[-97.42515,29.60703],[-97.42801,29.60625],[-97.43105,29.60684],[-97.43206,29.60785],[-97.43601,29.60797],[-97.43602,29.61324],[-97.46095,29.60823],[-97.46391,29.60562],[-97.4588,29.59451],[-97.47477,29.5891],[-97.47754,29.59641],[-97.47574,29.60575],[-97.47583,29.60898],[-97.473,29.60738],[-97.46393,29.61728],[-97.46734,29.62117],[-97.46927,29.62664],[-97.47222,29.63049],[-97.47409,29.63496],[-97.47998,29.64185],[-97.4841,29.64967],[-97.48822,29.64924],[-97.50449,29.65021],[-97.50395,29.64687],[-97.50164,29.6444],[-97.50638,29.64083],[-97.50019,29.63463],[-97.50452,29.63105],[-97.49775,29.62377],[-97.49528,29.62565],[-97.49151,29.61174],[-97.50385,29.60755],[-97.50746,29.60516],[-97.50499,29.59933],[-97.51794,29.58645],[-97.52204,29.58938],[-97.52313,29.58809],[-97.5577,29.61473],[-97.56115,29.6097],[-97.56985,29.61694],[-97.57131,29.62021],[-97.57068,29.62072],[-97.56973,29.63119],[-97.56803,29.63283],[-97.5685,29.63429],[-97.56627,29.63627],[-97.56605,29.6396],[-97.56684,29.64043],[-97.56719,29.6432],[-97.56662,29.64731],[-97.5657,29.64854],[-97.59757,29.63082],[-97.59142,29.62638],[-97.59141,29.625],[-97.58931,29.62306],[-97.58767,29.62398],[-97.58839,29.6187],[-97.58962,29.61865],[-97.5868,29.61635],[-97.5866,29.61375],[-97.59368,29.61093],[-97.59058,29.60998],[-97.58674,29.60732],[-97.5861,29.60542],[-97.58669,29.60299],[-97.58602,29.6019],[-97.58729,29.60015],[-97.59048,29.59985],[-97.59379,29.59754],[-97.59328,29.59476],[-97.59122,29.59547],[-97.58952,29.59302],[-97.58788,29.59255],[-97.58881,29.59122],[-97.59092,29.59293],[-97.5958,29.59019],[-97.60182,29.58964],[-97.60298,29.59035],[-97.60348,29.58978],[-97.60415,29.59101],[-97.60917,29.58667],[-97.60652,29.58025],[-97.60824,29.57883],[-97.60497,29.57624],[-97.6053,29.5744],[-97.60118,29.56995],[-97.60944,29.56369],[-97.61358,29.56771],[-97.61865,29.5686],[-97.61986,29.57175],[-97.62225,29.57127],[-97.6253,29.57313],[-97.62973,29.57088],[-97.6311,29.56939],[-97.63242,29.56578],[-97.63862,29.56513],[-97.64135,29.56307],[-97.64816,29.56738],[-97.64572,29.56895],[-97.64765,29.57692],[-97.6509,29.58312],[-97.65487,29.58653],[-97.66499,29.60772],[-97.72253,29.53178],[-97.71832,29.53068],[-97.70621,29.5303],[-97.6929,29.52435],[-97.685,29.52374],[-97.68421,29.52323],[-97.68638,29.51847],[-97.68983,29.51618],[-97.68976,29.5184],[-97.69113,29.51966],[-97.69202,29.51951],[-97.69159,29.51724],[-97.69418,29.51536],[-97.69785,29.5176],[-97.69855,29.5159],[-97.69708,29.51498],[-97.69952,29.51404],[-97.70117,29.51466],[-97.70072,29.51576],[-97.69931,29.51608],[-97.69936,29.51722],[-97.70295,29.5155],[-97.70413,29.51737],[-97.70619,29.51763],[-97.70709,29.51688],[-97.70594,29.51496],[-97.70958,29.51438],[-97.71002,29.51486],[-97.70806,29.51603],[-97.70726,29.51866],[-97.71112,29.5193],[-97.7124,29.52095],[-97.71259,29.51733],[-97.7152,29.51884],[-97.71731,29.51869],[-97.72043,29.51677],[-97.72042,29.51566],[-97.71744,29.51522],[-97.72111,29.5125],[-97.72329,29.51462],[-97.72655,29.52075],[-97.72765,29.52502],[-97.74751,29.4989]]]},"properties":{"zip_code":"78629","county":"Gonzales"}}]}