{"type":"FeatureCollection","features":[{"type":"Feature","geometry":{"type":"Polygon","coordinates":[[[-97.80562,29.76777],[-97.8049,29.76724],[-97.80294,29.76669],[-97.80195,29.76658],[-97.80121,29.76703],[-97.80028,29.76621],[-97.80007,29.76552],[-97.80026,29.76466],[-97.79974,29.76322],[-97.80049,29.75996],[-97.80115,29.75899],[-97.80298,29.75865],[-97.80382,29.75743],[-97.80378,29.75706],[-97.80303,29.75672],[-97.80303,29.75635],[-97.80396,29.75527],[-97.8036,29.75373],[-97.80317,29.75363],[-97.80203,29.75417],[-97.80136,29.75419],[-97.80104,29.75388],[-97.80124,29.75346],[-97.80112,29.75318],[-97.7994,29.75226],[-97.79593,29.75233],[-97.79422,29.75277],[-97.79292,29.75419],[-97.79293,29.7564],[-97.79327,29.75786],[-97.79307,29.75881],[-97.79268,29.75939],[-97.79092,29.75959],[-97.78896,29.76042],[-97.78667,29.76099],[-97.78162,29.75972],[-97.78077,29.75912],[-97.78046,29.75848],[-97.78068,29.75809],[-97.78153,29.75827],[-97.78172,29.75783],[-97.78038,29.75679],[-97.78014,29.75627],[-97.78016,29.75606],[-97.78079,29.75572],[-97.78023,29.75476],[-97.78044,29.75385],[-97.78124,29.75271],[-97.78106,29.7516],[-97.78085,29.75094],[-97.78003,29.7502],[-97.77997,29.74938],[-97.77944,29.74842],[-97.7798,29.74777],[-97.78027,29.7477],[-97.78113,29.74862],[-97.78149,29.74865],[-97.78211,29.74834],[-97.78219,29.74786],[-97.78066,29.7473],[-97.77802,29.74721],[-97.77711,29.74669],[-97.77512,29.7444],[-97.774,29.74394],[-97.77385,29.74321],[-97.77437,29.74194],[-97.77406,29.74158],[-97.77355,29.74164],[-97.773,29.74234],[-97.77073,29.74243],[-97.77046,29.74267],[-97.77147,29.74303],[-97.77178,29.74348],[-97.77171,29.74396],[-97.76502,29.7473],[-97.77769,29.76154],[-97.77849,29.76288],[-97.78183,29.7705],[-97.7609,29.78612],[-97.77694,29.80228],[-97.79068,29.77908],[-97.79256,29.77706],[-97.79372,29.77617],[-97.80562,29.76777]]]},"properties":{"zip_code":"78622","county":"Caldwell"}}]}