{"type":"FeatureCollection","features":[{"type":"Feature","geometry":{"type":"Polygon","coordinates":[[[-97.84755,30.63601],[-97.84491,30.6298],[-97.84437,30.62994],[-97.84417,30.6294],[-97.84354,30.62957],[-97.84391,30.63107],[-97.84356,30.63142],[-97.83869,30.63098],[-97.83875,30.62663],[-97.84081,30.62663],[-97.8408,30.62687],[-97.84201,30.62687],[-97.84243,30.62654],[-97.84349,30.62646],[-97.84285,30.62502],[-97.8442,30.62456],[-97.84491,30.62492],[-97.84602,30.62382],[-97.84431,30.62249],[-97.84491,30.62188],[-97.8458,30.62227],[-97.8461,30.62195],[-97.84637,30.61899],[-97.8458,30.61697],[-97.84637,30.61671],[-97.8454,30.61625],[-97.84152,30.61565],[-97.83751,30.61438],[-97.83595,30.61339],[-97.83377,30.61081],[-97.83102,30.6096],[-97.8296,30.60928],[-97.82797,30.6093],[-97.82744,30.60956],[-97.82695,30.61033],[-97.8256,30.61069],[-97.82691,30.61393],[-97.82486,30.61457],[-97.82417,30.61564],[-97.82388,30.6157],[-97.8246,30.61706],[-97.83006,30.63143],[-97.82742,30.63162],[-97.82387,30.62214],[-97.8236,30.6222],[-97.82199,30.61816],[-97.81906,30.6119],[-97.81651,30.61182],[-97.81339,30.61207],[-97.81217,30.61174],[-97.8116,30.61128],[-97.80954,30.60832],[-97.80819,30.60743],[-97.80711,30.60717],[-97.80635,30.60735],[-97.80602,30.60656],[-97.80054,30.60822],[-97.79703,30.59981],[-97.79978,30.59637],[-97.79937,30.59554],[-97.80109,30.5946],[-97.80432,30.59058],[-97.79635,30.58963],[-97.79747,30.58827],[-97.79522,30.58581],[-97.79391,30.58745],[-97.79395,30.58791],[-97.79345,30.58731],[-97.79492,30.58547],[-97.7948,30.58534],[-97.79428,30.58556],[-97.79429,30.58597],[-97.79292,30.58774],[-97.79346,30.58857],[-97.7937,30.58855],[-97.79324,30.5896],[-97.79339,30.59009],[-97.79319,30.5901],[-97.79239,30.58834],[-97.78869,30.58839],[-97.78894,30.58897],[-97.78655,30.58971],[-97.78611,30.58866],[-97.78323,30.58956],[-97.78365,30.59058],[-97.78017,30.59168],[-97.77847,30.58776],[-97.78705,30.58489],[-97.78651,30.58332],[-97.79189,30.58512],[-97.7923,30.58339],[-97.79263,30.58293],[-97.78958,30.58018],[-97.78718,30.57934],[-97.78629,30.57764],[-97.78489,30.57646],[-97.78452,30.57629],[-97.78134,30.57716],[-97.78077,30.577],[-97.78115,30.57385],[-97.78022,30.57182],[-97.77804,30.56943],[-97.77058,30.57178],[-97.76833,30.56624],[-97.77382,30.56447],[-97.77284,30.56281],[-97.77296,30.56269],[-97.77182,30.56134],[-97.76862,30.55595],[-97.76498,30.55274],[-97.75958,30.55582],[-97.75871,30.55368],[-97.75815,30.55464],[-97.75773,30.55679],[-97.75723,30.55786],[-97.75619,30.55895],[-97.75466,30.55964],[-97.75448,30.56097],[-97.75499,30.56219],[-97.75127,30.5634],[-97.75616,30.57625],[-97.74586,30.57936],[-97.74789,30.58448],[-97.74663,30.58535],[-97.74563,30.58489],[-97.74415,30.58568],[-97.74313,30.58586],[-97.74272,30.58632],[-97.74185,30.5864],[-97.74049,30.58784],[-97.73934,30.58861],[-97.73858,30.58854],[-97.73644,30.58749],[-97.73294,30.58864],[-97.73229,30.58865],[-97.73072,30.58713],[-97.72794,30.58678],[-97.72762,30.58654],[-97.72733,30.58487],[-97.72713,30.58476],[-97.72686,30.58477],[-97.72655,30.58524],[-97.72605,30.58646],[-97.72501,30.58672],[-97.72454,30.58639],[-97.72403,30.58641],[-97.72199,30.58524],[-97.72152,30.58471],[-97.72107,30.58358],[-97.72101,30.58265],[-97.72047,30.58172],[-97.72051,30.58106],[-97.72013,30.58066],[-97.71911,30.58021],[-97.71766,30.58035],[-97.71691,30.58014],[-97.71594,30.57947],[-97.71422,30.57766],[-97.7134,30.57744],[-97.71148,30.57746],[-97.71053,30.57692],[-97.70843,30.57492],[-97.70649,30.57428],[-97.70575,30.57377],[-97.70468,30.57417],[-97.70387,30.57166],[-97.69807,30.57331],[-97.69796,30.57399],[-97.69346,30.57515],[-97.6944,30.57653],[-97.69459,30.57742],[-97.69339,30.57995],[-97.69334,30.58401],[-97.69279,30.5882],[-97.691,30.59464],[-97.68744,30.60343],[-97.68742,30.60653],[-97.68646,30.60765],[-97.6865,30.60886],[-97.68717,30.61198],[-97.6919,30.62906],[-97.69175,30.63234],[-97.68988,30.63836],[-97.68894,30.64027],[-97.68729,30.6426],[-97.68095,30.64835],[-97.67876,30.65093],[-97.67601,30.65608],[-97.67379,30.65968],[-97.66685,30.67087],[-97.66441,30.67409],[-97.66082,30.67993],[-97.65768,30.68723],[-97.65733,30.68914],[-97.65226,30.70188],[-97.65303,30.70237],[-97.65433,30.70411],[-97.65495,30.70395],[-97.65661,30.70704],[-97.6659,30.71974],[-97.66813,30.72171],[-97.67422,30.72547],[-97.69285,30.71963],[-97.69213,30.7186],[-97.69174,30.71718],[-97.6919,30.71474],[-97.69225,30.71399],[-97.69206,30.71332],[-97.69044,30.71307],[-97.68885,30.71368],[-97.68736,30.71388],[-97.68588,30.71452],[-97.68451,30.71385],[-97.68718,30.71087],[-97.69024,30.70865],[-97.70482,30.70259],[-97.70636,30.70148],[-97.70721,30.7001],[-97.70857,30.69528],[-97.70971,30.69288],[-97.71138,30.69117],[-97.71537,30.68867],[-97.71624,30.68765],[-97.71698,30.68411],[-97.71972,30.67943],[-97.72114,30.671],[-97.72152,30.67006],[-97.72256,30.66902],[-97.72672,30.66655],[-97.72769,30.66772],[-97.72875,30.67232],[-97.73064,30.67498],[-97.73268,30.67597],[-97.73633,30.67726],[-97.74241,30.67709],[-97.74433,30.67768],[-97.74935,30.6768],[-97.75072,30.67577],[-97.75117,30.67423],[-97.75137,30.67092],[-97.75181,30.66939],[-97.75242,30.66908],[-97.75354,30.66897],[-97.75792,30.66914],[-97.76119,30.66996],[-97.76618,30.67282],[-97.77085,30.67697],[-97.77521,30.67921],[-97.7806,30.68095],[-97.7823,30.68006],[-97.78431,30.68022],[-97.78558,30.68076],[-97.79268,30.68451],[-97.79384,30.68524],[-97.79572,30.6875],[-97.80019,30.68952],[-97.80149,30.69047],[-97.80214,30.6907],[-97.8037,30.69073],[-97.80554,30.69004],[-97.8069,30.68989],[-97.80919,30.68829],[-97.81698,30.69339],[-97.81937,30.69659],[-97.82029,30.69737],[-97.82347,30.69805],[-97.82681,30.69732],[-97.82882,30.69625],[-97.82824,30.69592],[-97.82864,30.69474],[-97.83137,30.69278],[-97.83225,30.68939],[-97.83267,30.68868],[-97.83522,30.68674],[-97.83416,30.68448],[-97.83356,30.68376],[-97.8326,30.68319],[-97.82801,30.68173],[-97.82755,30.68134],[-97.82499,30.68065],[-97.82459,30.68021],[-97.82462,30.6792],[-97.82379,30.67907],[-97.82305,30.67845],[-97.82186,30.67822],[-97.82106,30.67758],[-97.81984,30.67735],[-97.81862,30.67796],[-97.81791,30.67776],[-97.81735,30.6768],[-97.81656,30.67611],[-97.81653,30.67579],[-97.81799,30.67453],[-97.81799,30.67425],[-97.81754,30.67416],[-97.81764,30.67331],[-97.81693,30.67244],[-97.81605,30.67196],[-97.81597,30.67118],[-97.81518,30.66994],[-97.81388,30.67004],[-97.81242,30.67063],[-97.81189,30.67038],[-97.81165,30.66871],[-97.81067,30.66754],[-97.81008,30.66737],[-97.80714,30.66077],[-97.81125,30.65942],[-97.81188,30.65877],[-97.81718,30.65722],[-97.81745,30.65728],[-97.81791,30.65829],[-97.81819,30.65836],[-97.82414,30.65654],[-97.82459,30.65681],[-97.83672,30.65314],[-97.83003,30.64508],[-97.8289,30.6424],[-97.8278,30.63769],[-97.83045,30.63781],[-97.83218,30.63817],[-97.83777,30.641],[-97.83958,30.63856],[-97.83847,30.63793],[-97.83918,30.63714],[-97.83964,30.63837],[-97.84755,30.63601]]]},"properties":{"zip_code":"78628","county":"Williamson"}}]}