{"type":"FeatureCollection","features":[{"type":"Feature","geometry":{"type":"Polygon","coordinates":[[[-97.50169,30.21502],[-97.50047,30.21421],[-97.49873,30.21708],[-97.49669,30.21593],[-97.49635,30.21611],[-97.49561,30.21739],[-97.49531,30.21728],[-97.49963,30.2105],[-97.50143,30.20845],[-97.49729,30.20882],[-97.49595,30.20923],[-97.49508,30.21052],[-97.49224,30.21265],[-97.49125,30.21211],[-97.4905,30.21114],[-97.48701,30.20848],[-97.48569,30.20826],[-97.48477,30.20697],[-97.48361,30.20612],[-97.48364,30.20421],[-97.48424,30.20275],[-97.4853,30.20181],[-97.48844,30.20136],[-97.48895,30.20041],[-97.48894,30.19983],[-97.48829,30.19851],[-97.4866,30.19684],[-97.48547,30.1953],[-97.48541,30.19011],[-97.48458,30.18881],[-97.48401,30.1884],[-97.47532,30.18548],[-97.47396,30.18484],[-97.47311,30.18361],[-97.47143,30.183],[-97.46974,30.18285],[-97.46846,30.1832],[-97.46658,30.18414],[-97.46501,30.18445],[-97.463,30.18358],[-97.46145,30.18207],[-97.45942,30.18196],[-97.45514,30.183],[-97.44944,30.18524],[-97.43558,30.18911],[-97.43396,30.19034],[-97.43283,30.1907],[-97.42977,30.19076],[-97.42707,30.19578],[-97.4223,30.20312],[-97.41823,30.20416],[-97.41234,30.20473],[-97.41176,30.2046],[-97.40179,30.22032],[-97.38182,30.21094],[-97.37803,30.21713],[-97.37738,30.21687],[-97.36645,30.23358],[-97.36698,30.23385],[-97.36449,30.23747],[-97.35934,30.23338],[-97.35658,30.23795],[-97.35288,30.24332],[-97.3504,30.24655],[-97.34982,30.24717],[-97.34907,30.24747],[-97.348,30.2476],[-97.34768,30.24638],[-97.34643,30.24381],[-97.34516,30.24314],[-97.33953,30.23838],[-97.33953,30.2381],[-97.34067,30.23706],[-97.34077,30.23633],[-97.34058,30.23581],[-97.33684,30.23269],[-97.3352,30.23409],[-97.33475,30.23418],[-97.33069,30.2308],[-97.32992,30.2329],[-97.32953,30.2332],[-97.32989,30.23373],[-97.33236,30.2349],[-97.33276,30.23581],[-97.33411,30.23614],[-97.33571,30.23619],[-97.33881,30.23825],[-97.33839,30.23891],[-97.33641,30.24044],[-97.33661,30.24123],[-97.33612,30.24198],[-97.33536,30.24223],[-97.33257,30.24122],[-97.33154,30.24107],[-97.33111,30.24115],[-97.33065,30.24169],[-97.32876,30.24627],[-97.32862,30.24726],[-97.32812,30.24757],[-97.3288,30.24867],[-97.32876,30.24905],[-97.32694,30.25237],[-97.32671,30.25329],[-97.3271,30.25391],[-97.32653,30.2543],[-97.32672,30.25492],[-97.32804,30.25567],[-97.32878,30.25585],[-97.33005,30.25569],[-97.3316,30.25617],[-97.33225,30.25579],[-97.33324,30.25647],[-97.33314,30.25698],[-97.3322,30.25752],[-97.33258,30.26078],[-97.33225,30.26185],[-97.33139,30.26286],[-97.32896,30.26431],[-97.32797,30.26551],[-97.3308,30.27038],[-97.33592,30.2804],[-97.3334,30.28143],[-97.32333,30.29035],[-97.31887,30.28658],[-97.30927,30.29496],[-97.30892,30.29646],[-97.30889,30.29915],[-97.30924,30.30292],[-97.30545,30.30656],[-97.30539,30.30725],[-97.30628,30.3086],[-97.30514,30.31076],[-97.29957,30.30637],[-97.28956,30.30015],[-97.28778,30.29868],[-97.28776,30.29836],[-97.27419,30.28687],[-97.27132,30.28473],[-97.27123,30.28437],[-97.26924,30.28272],[-97.26746,30.2818],[-97.26728,30.28196],[-97.26735,30.2835],[-97.26665,30.28369],[-97.2661,30.28432],[-97.26632,30.28528],[-97.26568,30.28606],[-97.26561,30.28727],[-97.26482,30.28863],[-97.26505,30.28982],[-97.26448,30.29049],[-97.26353,30.29089],[-97.2626,30.29266],[-97.262,30.29313],[-97.26141,30.29424],[-97.26147,30.29507],[-97.26711,30.2963],[-97.27009,30.29665],[-97.26994,30.29697],[-97.26939,30.29702],[-97.26377,30.30243],[-97.26422,30.30362],[-97.26762,30.30679],[-97.26836,30.30722],[-97.26838,30.30745],[-97.27082,30.30923],[-97.27208,30.31057],[-97.27234,30.31198],[-97.27231,30.31303],[-97.27166,30.31441],[-97.26591,30.32266],[-97.26601,30.32338],[-97.26566,30.32617],[-97.26786,30.32767],[-97.26788,30.32823],[-97.25873,30.32409],[-97.25457,30.32385],[-97.25358,30.32543],[-97.25681,30.32848],[-97.25583,30.32913],[-97.25535,30.3303],[-97.25465,30.33119],[-97.25359,30.33151],[-97.25342,30.33236],[-97.25294,30.33289],[-97.25149,30.33275],[-97.25002,30.33354],[-97.24872,30.33379],[-97.24491,30.3367],[-97.2439,30.33657],[-97.24169,30.34012],[-97.2418,30.34039],[-97.24871,30.3438],[-97.24203,30.35418],[-97.23864,30.35652],[-97.26306,30.36827],[-97.25967,30.37355],[-97.25821,30.37494],[-97.25707,30.37565],[-97.24105,30.38095],[-97.23784,30.38088],[-97.23587,30.38028],[-97.22593,30.37512],[-97.22597,30.37574],[-97.22689,30.37684],[-97.22777,30.37871],[-97.2277,30.37955],[-97.22674,30.38149],[-97.22685,30.38239],[-97.22758,30.38393],[-97.22816,30.38447],[-97.22916,30.38477],[-97.23027,30.38458],[-97.23486,30.39504],[-97.23537,30.39672],[-97.23527,30.3978],[-97.23552,30.3984],[-97.23548,30.39928],[-97.23503,30.4],[-97.23671,30.40394],[-97.23696,30.40529],[-97.23067,30.40734],[-97.23043,30.40771],[-97.23123,30.40954],[-97.23088,30.41013],[-97.23668,30.42374],[-97.23618,30.42412],[-97.2357,30.42626],[-97.2343,30.42644],[-97.23377,30.42582],[-97.23322,30.42566],[-97.23176,30.42571],[-97.23099,30.425],[-97.22988,30.42324],[-97.23237,30.42211],[-97.23387,30.42213],[-97.23416,30.4219],[-97.23419,30.42145],[-97.23339,30.42016],[-97.23125,30.41989],[-97.23083,30.41939],[-97.23003,30.41744],[-97.22974,30.41728],[-97.22937,30.41744],[-97.22882,30.41865],[-97.22811,30.41948],[-97.22647,30.41982],[-97.22388,30.41893],[-97.22213,30.41788],[-97.22191,30.41725],[-97.22109,30.41751],[-97.22369,30.42356],[-97.21823,30.42538],[-97.21946,30.42835],[-97.2196,30.42936],[-97.22035,30.43036],[-97.22302,30.43657],[-97.23599,30.43254],[-97.23713,30.43265],[-97.24031,30.43198],[-97.24245,30.43421],[-97.24364,30.43589],[-97.24459,30.4412],[-97.24472,30.44353],[-97.24517,30.44427],[-97.24605,30.44477],[-97.24564,30.44581],[-97.24597,30.44752],[-97.2485,30.45346],[-97.24833,30.45374],[-97.24595,30.45451],[-97.2458,30.45481],[-97.24862,30.46166],[-97.23621,30.46543],[-97.23539,30.46736],[-97.23376,30.46939],[-97.23293,30.47139],[-97.2331,30.47176],[-97.23888,30.47581],[-97.23934,30.47655],[-97.2396,30.47781],[-97.24152,30.48037],[-97.2482,30.48236],[-97.25062,30.48103],[-97.2515,30.47931],[-97.27475,30.47168],[-97.28147,30.48764],[-97.28285,30.48943],[-97.28341,30.48917],[-97.28365,30.48985],[-97.28458,30.49044],[-97.28469,30.49079],[-97.2844,30.49097],[-97.28448,30.49115],[-97.28565,30.49129],[-97.28661,30.49086],[-97.28659,30.49034],[-97.28516,30.48959],[-97.28514,30.48934],[-97.28543,30.48908],[-97.28637,30.48933],[-97.28648,30.48868],[-97.2869,30.48851],[-97.28578,30.48757],[-97.28605,30.48701],[-97.28679,30.48681],[-97.28716,30.48644],[-97.28702,30.48613],[-97.28738,30.4854],[-97.28733,30.485],[-97.28871,30.48505],[-97.28889,30.48525],[-97.28904,30.48609],[-97.28894,30.48654],[-97.28845,30.48674],[-97.28857,30.48722],[-97.28924,30.48737],[-97.28982,30.4869],[-97.29056,30.48685],[-97.29077,30.48766],[-97.2911,30.48793],[-97.29173,30.48759],[-97.29211,30.48691],[-97.29194,30.48625],[-97.29261,30.48607],[-97.29307,30.48626],[-97.29352,30.48708],[-97.2944,30.48689],[-97.2959,30.4872],[-97.29663,30.48633],[-97.29668,30.48518],[-97.29721,30.48446],[-97.29726,30.48372],[-97.29829,30.48311],[-97.29871,30.48337],[-97.29982,30.48234],[-97.29869,30.48133],[-97.29934,30.48007],[-97.29903,30.4794],[-97.30004,30.47903],[-97.30065,30.478],[-97.30155,30.47777],[-97.30096,30.47645],[-97.30411,30.47392],[-97.30667,30.47408],[-97.30689,30.47392],[-97.30687,30.4733],[-97.30731,30.47305],[-97.30846,30.47349],[-97.30854,30.47264],[-97.30932,30.47193],[-97.30911,30.47142],[-97.30955,30.47126],[-97.31101,30.47149],[-97.31123,30.47132],[-97.31106,30.47035],[-97.30998,30.46982],[-97.31033,30.46945],[-97.31152,30.46907],[-97.30736,30.45925],[-97.30012,30.46143],[-97.29585,30.4514],[-97.3009,30.44956],[-97.32166,30.44304],[-97.32328,30.44792],[-97.32591,30.45353],[-97.32773,30.45476],[-97.32897,30.45671],[-97.33966,30.4533],[-97.33968,30.45281],[-97.3384,30.44966],[-97.34667,30.44697],[-97.34511,30.45039],[-97.34697,30.45503],[-97.34732,30.45542],[-97.34715,30.45557],[-97.35103,30.46531],[-97.36149,30.4621],[-97.35619,30.44913],[-97.35623,30.44693],[-97.35307,30.43928],[-97.35457,30.43882],[-97.35768,30.43833],[-97.35923,30.43924],[-97.35974,30.43883],[-97.36246,30.43767],[-97.36671,30.43633],[-97.36449,30.42823],[-97.36359,30.42608],[-97.3735,30.42297],[-97.37359,30.4227],[-97.37273,30.4208],[-97.36995,30.41944],[-97.37354,30.41772],[-97.37677,30.4192],[-97.37773,30.42237],[-97.37943,30.4239],[-97.38225,30.42408],[-97.38208,30.42219],[-97.38148,30.41981],[-97.38037,30.41727],[-97.37945,30.41591],[-97.39124,30.41563],[-97.38845,30.42],[-97.40323,30.42693],[-97.41076,30.41518],[-97.41936,30.41484],[-97.43782,30.38519],[-97.45478,30.39349],[-97.46064,30.38431],[-97.46089,30.38247],[-97.46071,30.38177],[-97.45948,30.38141],[-97.4485,30.37631],[-97.44678,30.37624],[-97.44245,30.37724],[-97.44036,30.37707],[-97.42855,30.37165],[-97.43737,30.35839],[-97.43221,30.35544],[-97.43139,30.35668],[-97.42321,30.35292],[-97.42332,30.35277],[-97.42475,30.35346],[-97.42562,30.35241],[-97.4442,30.35161],[-97.46603,30.35161],[-97.46416,30.35461],[-97.46537,30.35518],[-97.46746,30.3516],[-97.47688,30.3514],[-97.47547,30.35074],[-97.47914,30.34491],[-97.47805,30.34435],[-97.48138,30.33908],[-97.48177,30.33927],[-97.48203,30.33762],[-97.48111,30.33503],[-97.48008,30.33093],[-97.47729,30.33022],[-97.47552,30.32813],[-97.47456,30.32441],[-97.47183,30.32424],[-97.47143,30.32381],[-97.47006,30.32368],[-97.46581,30.3241],[-97.45819,30.3222],[-97.45241,30.31996],[-97.44932,30.32001],[-97.44926,30.32097],[-97.44834,30.32095],[-97.44833,30.32],[-97.44785,30.31992],[-97.44769,30.31941],[-97.44397,30.31926],[-97.44974,30.31053],[-97.45027,30.31038],[-97.45152,30.31066],[-97.45257,30.30964],[-97.4643,30.29128],[-97.45997,30.28929],[-97.45941,30.28876],[-97.46637,30.2779],[-97.46865,30.27891],[-97.46977,30.27819],[-97.47078,30.27898],[-97.47125,30.2805],[-97.46894,30.28375],[-97.47074,30.28403],[-97.47453,30.28566],[-97.47695,30.28183],[-97.48228,30.28418],[-97.48521,30.27968],[-97.48331,30.27883],[-97.48229,30.27809],[-97.48327,30.2772],[-97.4833,30.27673],[-97.47404,30.27246],[-97.47695,30.26784],[-97.47654,30.2674],[-97.47493,30.26672],[-97.47283,30.26541],[-97.47126,30.26419],[-97.46976,30.26437],[-97.4692,30.26526],[-97.46883,30.26523],[-97.46762,30.26487],[-97.46189,30.26212],[-97.4616,30.26314],[-97.46045,30.26518],[-97.45374,30.26181],[-97.45292,30.26321],[-97.44975,30.26196],[-97.4476,30.265],[-97.44542,30.26316],[-97.4476,30.25992],[-97.44709,30.2597],[-97.44994,30.25653],[-97.44954,30.25594],[-97.45112,30.25333],[-97.45177,30.25352],[-97.45287,30.25135],[-97.45593,30.25293],[-97.46454,30.23981],[-97.47288,30.24371],[-97.46995,30.2489],[-97.47076,30.24826],[-97.47129,30.24744],[-97.47277,30.24677],[-97.4735,30.24566],[-97.47379,30.24558],[-97.47317,30.24519],[-97.47383,30.24426],[-97.48348,30.24916],[-97.48422,30.24855],[-97.48426,30.24787],[-97.48468,30.24768],[-97.4857,30.24618],[-97.48638,30.24564],[-97.48629,30.24527],[-97.48649,30.24502],[-97.48766,30.24548],[-97.48843,30.24649],[-97.48985,30.24451],[-97.49196,30.23218],[-97.49257,30.23265],[-97.49201,30.23179],[-97.49168,30.23055],[-97.49338,30.22119],[-97.49652,30.21614],[-97.49967,30.21795],[-97.50169,30.21502]]]},"properties":{"zip_code":"78621","county":"Bastrop"}}]}