{"type":"FeatureCollection","features":[{"type":"Feature","geometry":{"type":"Polygon","coordinates":[[[-98.55202,30.73485],[-98.54535,30.73044],[-98.53599,30.72217],[-98.53391,30.71872],[-98.5283,30.7149],[-98.52216,30.71338],[-98.52144,30.71235],[-98.5146,30.71],[-98.50798,30.70516],[-98.50237,30.70241],[-98.48389,30.70251],[-98.47888,30.70061],[-98.47487,30.69708],[-98.4753,30.69216],[-98.48083,30.68826],[-98.48548,30.68032],[-98.48615,30.67766],[-98.48498,30.6767],[-98.4846,30.67489],[-98.48736,30.66953],[-98.48862,30.66196],[-98.49223,30.66345],[-98.49331,30.66015],[-98.49487,30.65875],[-98.49909,30.65913],[-98.50113,30.65856],[-98.50681,30.65508],[-98.51137,30.656],[-98.51447,30.65571],[-98.51866,30.65323],[-98.51851,30.6481],[-98.52047,30.64372],[-98.52074,30.64084],[-98.52268,30.64079],[-98.52416,30.63972],[-98.52722,30.63027],[-98.52865,30.62933],[-98.52251,30.61822],[-98.51598,30.61098],[-98.50544,30.60893],[-98.49408,30.6105],[-98.48617,30.60959],[-98.48095,30.61134],[-98.47821,30.61352],[-98.47023,30.62736],[-98.4604,30.63431],[-98.46075,30.62758],[-98.46268,30.62609],[-98.46396,30.61627],[-98.46345,30.61533],[-98.45818,30.61483],[-98.45651,30.6159],[-98.45804,30.62035],[-98.45779,30.62453],[-98.45566,30.6258],[-98.45563,30.6271],[-98.45315,30.62639],[-98.45053,30.62439],[-98.4493,30.62483],[-98.44855,30.62603],[-98.45016,30.62814],[-98.45015,30.62939],[-98.44704,30.63155],[-98.44664,30.63297],[-98.44439,30.63196],[-98.44464,30.63039],[-98.44881,30.62237],[-98.44957,30.61759],[-98.45325,30.6132],[-98.45382,30.61138],[-98.45294,30.59287],[-98.45188,30.59034],[-98.44904,30.587],[-98.44114,30.59218],[-98.43362,30.59514],[-98.43124,30.59536],[-98.42657,30.59418],[-98.42403,30.59476],[-98.42203,30.59873],[-98.41789,30.6039],[-98.41464,30.60371],[-98.41365,30.60451],[-98.41382,30.60684],[-98.41841,30.61102],[-98.41982,30.6136],[-98.41193,30.61642],[-98.40059,30.59948],[-98.40141,30.60375],[-98.40051,30.60542],[-98.40131,30.60533],[-98.40164,30.6068],[-98.40243,30.60597],[-98.40698,30.61315],[-98.40815,30.61387],[-98.40601,30.61446],[-98.40686,30.61527],[-98.40849,30.61477],[-98.40916,30.61547],[-98.40806,30.61627],[-98.40866,30.6177],[-98.40775,30.61803],[-98.40832,30.6186],[-98.40953,30.61819],[-98.41015,30.61696],[-98.41042,30.62006],[-98.41176,30.62282],[-98.41074,30.62421],[-98.40681,30.62385],[-98.40449,30.62592],[-98.40843,30.62849],[-98.40966,30.63031],[-98.40854,30.63753],[-98.38077,30.63978],[-98.38189,30.64058],[-98.37892,30.6431],[-98.37894,30.64556],[-98.37643,30.6463],[-98.37406,30.64519],[-98.37015,30.64606],[-98.36905,30.64745],[-98.36771,30.65299],[-98.37117,30.65407],[-98.36778,30.65826],[-98.3689,30.66037],[-98.37148,30.66103],[-98.37367,30.65924],[-98.37747,30.65906],[-98.38017,30.66163],[-98.38633,30.66409],[-98.38643,30.66987],[-98.38174,30.67547],[-98.3834,30.67606],[-98.38461,30.6757],[-98.38485,30.67378],[-98.38643,30.67468],[-98.39168,30.67238],[-98.394,30.67315],[-98.40517,30.66949],[-98.40602,30.671],[-98.40519,30.67283],[-98.40308,30.67405],[-98.40377,30.67549],[-98.4019,30.67787],[-98.39968,30.67861],[-98.39903,30.6768],[-98.39799,30.67802],[-98.39913,30.67719],[-98.39998,30.67896],[-98.40102,30.67902],[-98.40111,30.67792],[-98.4018,30.67827],[-98.40183,30.68222],[-98.40367,30.6867],[-98.40267,30.68826],[-98.4035,30.68868],[-98.40274,30.6881],[-98.40376,30.68727],[-98.40652,30.69362],[-98.41346,30.70249],[-98.4132,30.70449],[-98.40969,30.70764],[-98.40719,30.7128],[-98.40781,30.7144],[-98.4072,30.71619],[-98.40413,30.72084],[-98.4019,30.72158],[-98.39762,30.72071],[-98.39203,30.72104],[-98.3854,30.72947],[-98.39265,30.72123],[-98.40211,30.72184],[-98.40415,30.72108],[-98.40825,30.71567],[-98.4086,30.71309],[-98.42425,30.71302],[-98.42539,30.70961],[-98.42877,30.7078],[-98.4312,30.70542],[-98.43507,30.70392],[-98.43655,30.70232],[-98.44629,30.70144],[-98.45802,30.69463],[-98.4611,30.69668],[-98.46642,30.70608],[-98.46866,30.70843],[-98.49188,30.71618],[-98.50939,30.72746],[-98.51135,30.73005],[-98.51301,30.7352],[-98.55202,30.73485]]]},"properties":{"zip_code":"78639","county":"Burnet"}}]}