{"type":"FeatureCollection","features":[{"type":"Feature","geometry":{"type":"Polygon","coordinates":[[[-97.87706,30.77489],[-97.87685,30.77309],[-97.87652,30.74647],[-97.87545,30.74388],[-97.87148,30.74517],[-97.86406,30.72762],[-97.85961,30.72878],[-97.85718,30.72259],[-97.85651,30.72023],[-97.85646,30.71995],[-97.86006,30.71864],[-97.85975,30.71193],[-97.861,30.71125],[-97.86085,30.70789],[-97.85956,30.70784],[-97.85854,30.7075],[-97.85654,30.7058],[-97.85519,30.70523],[-97.84091,30.70266],[-97.83624,30.69092],[-97.83574,30.69069],[-97.83465,30.69066],[-97.83336,30.69183],[-97.83215,30.69366],[-97.82931,30.69616],[-97.82681,30.69732],[-97.82439,30.6979],[-97.82347,30.69805],[-97.82148,30.69774],[-97.81974,30.69701],[-97.81698,30.69339],[-97.81104,30.68965],[-97.80943,30.68838],[-97.80861,30.68854],[-97.8069,30.68989],[-97.80554,30.69004],[-97.8037,30.69073],[-97.80214,30.6907],[-97.80149,30.69047],[-97.80019,30.68952],[-97.79572,30.6875],[-97.79384,30.68524],[-97.79268,30.68451],[-97.78558,30.68076],[-97.78431,30.68022],[-97.7823,30.68006],[-97.7806,30.68095],[-97.77638,30.67965],[-97.77292,30.67804],[-97.77085,30.67697],[-97.76618,30.67282],[-97.76119,30.66996],[-97.75792,30.66914],[-97.75242,30.66908],[-97.75181,30.66939],[-97.75137,30.67092],[-97.75117,30.67423],[-97.75072,30.67577],[-97.74935,30.6768],[-97.74433,30.67768],[-97.74241,30.67709],[-97.73633,30.67726],[-97.73268,30.67597],[-97.73064,30.67498],[-97.72875,30.67232],[-97.72769,30.66772],[-97.72672,30.66655],[-97.72256,30.66902],[-97.72152,30.67006],[-97.72114,30.671],[-97.71972,30.67943],[-97.71698,30.68411],[-97.71624,30.68765],[-97.71537,30.68867],[-97.71138,30.69117],[-97.70971,30.69288],[-97.70857,30.69528],[-97.70721,30.7001],[-97.70636,30.70148],[-97.70482,30.70259],[-97.69024,30.70865],[-97.68718,30.71087],[-97.68451,30.71385],[-97.68588,30.71452],[-97.68736,30.71388],[-97.68885,30.71368],[-97.69044,30.71307],[-97.69206,30.71332],[-97.69225,30.71399],[-97.6919,30.71474],[-97.69174,30.71718],[-97.69213,30.7186],[-97.69285,30.71963],[-97.67422,30.72547],[-97.66813,30.72171],[-97.6659,30.71974],[-97.65661,30.70704],[-97.65495,30.70395],[-97.65433,30.70411],[-97.65303,30.70237],[-97.65175,30.70159],[-97.6505,30.70505],[-97.65017,30.70466],[-97.64349,30.72358],[-97.644,30.72371],[-97.63713,30.74368],[-97.63433,30.75291],[-97.62926,30.76525],[-97.62593,30.77605],[-97.6267,30.7758],[-97.6273,30.774],[-97.62848,30.77418],[-97.63358,30.77262],[-97.64334,30.79578],[-97.6537,30.79248],[-97.6522,30.78881],[-97.6523,30.78858],[-97.66543,30.7844],[-97.67014,30.79572],[-97.68038,30.79146],[-97.68384,30.7897],[-97.69106,30.80709],[-97.70207,30.8035],[-97.70372,30.80821],[-97.71707,30.8037],[-97.70414,30.77255],[-97.70205,30.76655],[-97.70665,30.76485],[-97.71041,30.76112],[-97.71184,30.76041],[-97.71759,30.7586],[-97.72025,30.75675],[-97.71244,30.74976],[-97.72068,30.75441],[-97.73199,30.75093],[-97.73432,30.75668],[-97.73587,30.75622],[-97.73609,30.75683],[-97.73584,30.75794],[-97.73414,30.75913],[-97.74461,30.76293],[-97.74585,30.7636],[-97.7533,30.77286],[-97.75797,30.76997],[-97.75587,30.76481],[-97.7558,30.76454],[-97.75621,30.76435],[-97.75731,30.76451],[-97.75954,30.76536],[-97.76063,30.76612],[-97.76092,30.76697],[-97.76068,30.76769],[-97.76088,30.76801],[-97.76143,30.7684],[-97.76157,30.76902],[-97.76273,30.76965],[-97.76274,30.77024],[-97.76364,30.7706],[-97.76421,30.77057],[-97.76525,30.76966],[-97.76664,30.76922],[-97.7676,30.76927],[-97.76808,30.76955],[-97.76901,30.76941],[-97.76948,30.76898],[-97.77062,30.76872],[-97.77151,30.76756],[-97.77275,30.76744],[-97.77434,30.76762],[-97.77486,30.76877],[-97.77593,30.76895],[-97.77769,30.7688],[-97.77896,30.76949],[-97.7799,30.7695],[-97.78105,30.76997],[-97.78341,30.7681],[-97.78373,30.76743],[-97.78357,30.76699],[-97.78419,30.76625],[-97.78475,30.76615],[-97.78476,30.76592],[-97.78644,30.76511],[-97.7847,30.76107],[-97.79836,30.75666],[-97.79702,30.75371],[-97.79711,30.75345],[-97.80612,30.75059],[-97.81467,30.77064],[-97.81547,30.77147],[-97.81677,30.77208],[-97.81822,30.77223],[-97.81957,30.77192],[-97.82371,30.77914],[-97.81369,30.78178],[-97.81922,30.79484],[-97.82407,30.79335],[-97.82799,30.79996],[-97.83804,30.79732],[-97.84185,30.80665],[-97.84818,30.80486],[-97.84926,30.80402],[-97.84996,30.80255],[-97.84978,30.80105],[-97.84415,30.78755],[-97.8442,30.78614],[-97.84499,30.78502],[-97.846,30.78445],[-97.84821,30.78374],[-97.85528,30.78159],[-97.85772,30.78124],[-97.85996,30.7801],[-97.87706,30.77489]]]},"properties":{"zip_code":"78633","county":"Williamson"}}]}