{"type":"FeatureCollection","features":[{"type":"Feature","geometry":{"type":"Polygon","coordinates":[[[-97.96212,29.716],[-97.96287,29.71437],[-97.95481,29.71427],[-97.95477,29.71038],[-97.94357,29.7108],[-97.9435,29.71379],[-97.92722,29.7138],[-97.92725,29.71197],[-97.91864,29.71228],[-97.91859,29.70839],[-97.91383,29.70848],[-97.91386,29.70962],[-97.91022,29.70599],[-97.9075,29.70785],[-97.90707,29.70735],[-97.90784,29.70652],[-97.90651,29.70534],[-97.90562,29.70598],[-97.90663,29.70741],[-97.90576,29.708],[-97.90712,29.70937],[-97.89692,29.71696],[-97.89787,29.71416],[-97.89559,29.71143],[-97.89596,29.71],[-97.89492,29.70858],[-97.8965,29.70682],[-97.89378,29.70413],[-97.89492,29.70326],[-97.87874,29.68843],[-97.88908,29.68055],[-97.88646,29.67548],[-97.8865,29.67214],[-97.88526,29.6699],[-97.88479,29.66671],[-97.88223,29.66504],[-97.88497,29.66187],[-97.88683,29.65791],[-97.88734,29.64786],[-97.88561,29.64857],[-97.88547,29.65583],[-97.88356,29.66039],[-97.87979,29.66478],[-97.87486,29.66876],[-97.87312,29.66779],[-97.87003,29.66872],[-97.858,29.65638],[-97.84329,29.65948],[-97.83398,29.64932],[-97.83157,29.6477],[-97.82804,29.6482],[-97.8277,29.64639],[-97.829,29.64597],[-97.82871,29.64463],[-97.82741,29.64479],[-97.8311,29.64193],[-97.82833,29.63899],[-97.82829,29.63391],[-97.82929,29.63022],[-97.82937,29.61853],[-97.83207,29.61497],[-97.81132,29.61515],[-97.81122,29.61216],[-97.80897,29.61213],[-97.80814,29.61043],[-97.80494,29.61037],[-97.80472,29.5966],[-97.80574,29.59326],[-97.80572,29.5849],[-97.80398,29.58309],[-97.79982,29.58292],[-97.80052,29.57552],[-97.78266,29.58564],[-97.77921,29.5854],[-97.78467,29.57381],[-97.77851,29.57276],[-97.76845,29.57297],[-97.77059,29.56972],[-97.77247,29.55483],[-97.77654,29.55005],[-97.77767,29.5502],[-97.77671,29.54848],[-97.77749,29.54765],[-97.77569,29.54669],[-97.77532,29.54516],[-97.77388,29.54476],[-97.77421,29.54329],[-97.77531,29.54326],[-97.77428,29.54131],[-97.77551,29.54118],[-97.77579,29.54211],[-97.77657,29.54172],[-97.77463,29.53948],[-97.77575,29.54012],[-97.78323,29.53988],[-97.77324,29.53916],[-97.77426,29.53601],[-97.77728,29.53317],[-97.77806,29.53054],[-97.77344,29.52883],[-97.76752,29.5305],[-97.76419,29.53027],[-97.76015,29.53215],[-97.75598,29.53022],[-97.75259,29.52997],[-97.75293,29.52815],[-97.75222,29.52737],[-97.7474,29.52795],[-97.74651,29.52569],[-97.74807,29.52398],[-97.7483,29.52248],[-97.74682,29.52228],[-97.74517,29.52084],[-97.74335,29.52161],[-97.74197,29.52086],[-97.74413,29.51586],[-97.74155,29.51457],[-97.74053,29.51031],[-97.73964,29.50938],[-97.72765,29.52502],[-97.72655,29.52075],[-97.72329,29.51462],[-97.72111,29.5125],[-97.71744,29.51522],[-97.72042,29.51566],[-97.72043,29.51677],[-97.71731,29.51869],[-97.7152,29.51884],[-97.71259,29.51733],[-97.7124,29.52095],[-97.71112,29.5193],[-97.70726,29.51866],[-97.70806,29.51603],[-97.71002,29.51486],[-97.70958,29.51438],[-97.70594,29.51496],[-97.70709,29.51688],[-97.70619,29.51763],[-97.70413,29.51737],[-97.70295,29.5155],[-97.69936,29.51722],[-97.69931,29.51608],[-97.70072,29.51576],[-97.70117,29.51466],[-97.69952,29.51404],[-97.69708,29.51498],[-97.69855,29.5159],[-97.69785,29.5176],[-97.69418,29.51536],[-97.69159,29.51724],[-97.69202,29.51951],[-97.69113,29.51966],[-97.68976,29.5184],[-97.68983,29.51618],[-97.68638,29.51847],[-97.68421,29.52323],[-97.685,29.52374],[-97.6929,29.52435],[-97.70621,29.5303],[-97.71832,29.53068],[-97.72253,29.53178],[-97.68392,29.58274],[-97.68982,29.58899],[-97.6913,29.58891],[-97.70192,29.59984],[-97.70116,29.60042],[-97.70284,29.60211],[-97.71112,29.60137],[-97.71965,29.60947],[-97.7265,29.61089],[-97.72865,29.6105],[-97.72668,29.6142],[-97.71155,29.62583],[-97.70993,29.62813],[-97.70956,29.63114],[-97.71907,29.64069],[-97.72166,29.63889],[-97.73469,29.63538],[-97.74081,29.64149],[-97.74035,29.64406],[-97.72021,29.65921],[-97.70931,29.66219],[-97.70054,29.66841],[-97.70223,29.66859],[-97.7022,29.6701],[-97.70342,29.67048],[-97.70385,29.67425],[-97.70607,29.67455],[-97.70518,29.67558],[-97.70656,29.67735],[-97.70533,29.67749],[-97.70478,29.67911],[-97.70564,29.68022],[-97.7038,29.68184],[-97.70845,29.68373],[-97.7117,29.6815],[-97.71721,29.6818],[-97.71779,29.68248],[-97.71695,29.68307],[-97.7172,29.68415],[-97.72274,29.68215],[-97.72138,29.68445],[-97.7221,29.68552],[-97.72563,29.68567],[-97.72758,29.68789],[-97.73601,29.69134],[-97.73541,29.69362],[-97.73851,29.69655],[-97.74329,29.69697],[-97.74335,29.69884],[-97.7368,29.70222],[-97.73594,29.70563],[-97.73658,29.71073],[-97.73843,29.71296],[-97.74394,29.71186],[-97.74493,29.71269],[-97.74609,29.7113],[-97.74899,29.7111],[-97.74975,29.71194],[-97.74665,29.71256],[-97.74709,29.71402],[-97.74998,29.71463],[-97.75294,29.71663],[-97.75655,29.71782],[-97.75904,29.71459],[-97.76279,29.71285],[-97.76374,29.71342],[-97.76566,29.71713],[-97.76832,29.71888],[-97.76847,29.72005],[-97.76647,29.72176],[-97.76354,29.72177],[-97.75922,29.72384],[-97.7587,29.72552],[-97.76098,29.72549],[-97.76059,29.72708],[-97.76128,29.7283],[-97.76374,29.7279],[-97.76528,29.72848],[-97.77229,29.7338],[-97.77193,29.73419],[-97.77127,29.73284],[-97.7705,29.73347],[-97.7707,29.73782],[-97.76823,29.74108],[-97.76856,29.74163],[-97.77286,29.74224],[-97.77406,29.74158],[-97.774,29.74394],[-97.77711,29.74669],[-97.78219,29.74786],[-97.78149,29.74865],[-97.78027,29.7477],[-97.77944,29.74842],[-97.78124,29.75271],[-97.78014,29.75627],[-97.78172,29.75783],[-97.7805,29.75825],[-97.78116,29.75949],[-97.78667,29.76099],[-97.79254,29.75946],[-97.79327,29.75786],[-97.79292,29.75419],[-97.79364,29.75325],[-97.79593,29.75233],[-97.79968,29.7523],[-97.80136,29.75419],[-97.8036,29.75373],[-97.80398,29.75491],[-97.80302,29.75637],[-97.80386,29.75726],[-97.80323,29.75833],[-97.80115,29.75899],[-97.80049,29.75996],[-97.79974,29.76322],[-97.80028,29.76621],[-97.80121,29.76703],[-97.80294,29.76669],[-97.80562,29.76777],[-97.84004,29.7444],[-97.85252,29.74051],[-97.8602,29.74842],[-97.85943,29.74968],[-97.87357,29.76387],[-97.87098,29.76646],[-97.87338,29.76911],[-97.87854,29.76537],[-97.87523,29.76201],[-97.87641,29.76111],[-97.88613,29.75381],[-97.89806,29.75003],[-97.90548,29.74463],[-97.91063,29.75117],[-97.92554,29.74527],[-97.92834,29.7425],[-97.93019,29.74431],[-97.93542,29.74354],[-97.9363,29.74455],[-97.94136,29.7427],[-97.94195,29.74328],[-97.94133,29.74527],[-97.94358,29.74711],[-97.9444,29.74922],[-97.94607,29.74959],[-97.94785,29.74892],[-97.94731,29.74862],[-97.94889,29.74805],[-97.95033,29.74136],[-97.9492,29.73492],[-97.94576,29.73489],[-97.94554,29.72426],[-97.95473,29.72423],[-97.95504,29.71851],[-97.9607,29.71904],[-97.96212,29.716]]]},"properties":{"zip_code":"78638","county":"Guadalupe"}}]}