{"type":"FeatureCollection","features":[{"type":"Feature","geometry":{"type":"Polygon","coordinates":[[[-97.55772,29.65293],[-97.55407,29.65251],[-97.5523,29.65031],[-97.53332,29.64111],[-97.54231,29.63411],[-97.5448,29.63505],[-97.5577,29.61473],[-97.52313,29.58809],[-97.52204,29.58938],[-97.51794,29.58645],[-97.5169,29.58684],[-97.50499,29.59933],[-97.50703,29.60317],[-97.50746,29.60516],[-97.50501,29.60656],[-97.50385,29.60755],[-97.49151,29.61174],[-97.49528,29.62565],[-97.49775,29.62377],[-97.50452,29.63105],[-97.50019,29.63463],[-97.5005,29.6352],[-97.50638,29.64083],[-97.50164,29.6444],[-97.50395,29.64687],[-97.50449,29.65021],[-97.48822,29.64924],[-97.4841,29.64967],[-97.47998,29.64185],[-97.47409,29.63496],[-97.47222,29.63049],[-97.46927,29.62664],[-97.46734,29.62117],[-97.46393,29.61728],[-97.473,29.60738],[-97.47335,29.60733],[-97.47583,29.60898],[-97.47574,29.60575],[-97.47677,29.6016],[-97.47754,29.59641],[-97.47726,29.59512],[-97.47477,29.5891],[-97.4588,29.59451],[-97.46341,29.60415],[-97.46391,29.60562],[-97.46095,29.60823],[-97.43602,29.61324],[-97.43601,29.60797],[-97.43206,29.60785],[-97.43133,29.60758],[-97.43105,29.60684],[-97.42995,29.60689],[-97.42977,29.60641],[-97.42946,29.60627],[-97.42801,29.60625],[-97.4271,29.60666],[-97.42515,29.60703],[-97.42479,29.60769],[-97.42466,29.60964],[-97.424,29.61],[-97.42253,29.61005],[-97.42219,29.61035],[-97.42245,29.61246],[-97.42279,29.6128],[-97.42279,29.61326],[-97.42222,29.61356],[-97.4218,29.61443],[-97.42057,29.61469],[-97.42012,29.61506],[-97.42021,29.61778],[-97.40517,29.61796],[-97.3983,29.63281],[-97.3976,29.63517],[-97.39419,29.64307],[-97.39285,29.64719],[-97.39275,29.65051],[-97.39012,29.6561],[-97.3888,29.66182],[-97.40029,29.66013],[-97.40015,29.68734],[-97.39205,29.69002],[-97.3914,29.69107],[-97.39198,29.69213],[-97.37811,29.69598],[-97.38118,29.70142],[-97.38184,29.70316],[-97.38277,29.70326],[-97.38501,29.7041],[-97.38663,29.70431],[-97.38781,29.70481],[-97.38838,29.70533],[-97.38909,29.70737],[-97.39005,29.70921],[-97.3927,29.71119],[-97.3987,29.71436],[-97.40064,29.71487],[-97.40665,29.71727],[-97.40898,29.71938],[-97.40994,29.71983],[-97.40946,29.75929],[-97.41933,29.76773],[-97.41654,29.77309],[-97.41732,29.77393],[-97.41831,29.7741],[-97.42146,29.77551],[-97.42574,29.77813],[-97.42935,29.78002],[-97.42984,29.78052],[-97.43099,29.78281],[-97.43257,29.78499],[-97.43838,29.79086],[-97.43843,29.79156],[-97.43722,29.79365],[-97.43717,29.7942],[-97.44694,29.79753],[-97.44711,29.79798],[-97.44958,29.79375],[-97.45114,29.79372],[-97.45423,29.79378],[-97.45432,29.79464],[-97.45486,29.79493],[-97.46103,29.79504],[-97.46562,29.79753],[-97.4658,29.7982],[-97.48248,29.79841],[-97.48291,29.78866],[-97.48308,29.77514],[-97.48223,29.77471],[-97.48144,29.77468],[-97.4817,29.77448],[-97.47674,29.77211],[-97.47966,29.76736],[-97.4798,29.75511],[-97.4799,29.7553],[-97.48513,29.75546],[-97.49613,29.7555],[-97.49629,29.76095],[-97.5179,29.76056],[-97.51765,29.7589],[-97.51799,29.75843],[-97.51799,29.74532],[-97.51853,29.74512],[-97.52489,29.7452],[-97.52508,29.74307],[-97.52547,29.74281],[-97.52684,29.74261],[-97.52666,29.73492],[-97.52677,29.7195],[-97.52531,29.71426],[-97.52438,29.71223],[-97.52045,29.70791],[-97.51941,29.70646],[-97.51808,29.70355],[-97.5175,29.70132],[-97.52134,29.70157],[-97.5292,29.70391],[-97.53446,29.70426],[-97.53459,29.69954],[-97.54944,29.68825],[-97.5452,29.68383],[-97.55729,29.67484],[-97.53045,29.66792],[-97.55772,29.65293]]]},"properties":{"zip_code":"78632","county":"Gonzales"}}]}