{"type":"FeatureCollection","features":[{"type":"Feature","geometry":{"type":"Polygon","coordinates":[[[-97.62615,30.61149],[-97.62236,30.6025],[-97.61225,30.60572],[-97.60831,30.59673],[-97.60595,30.59742],[-97.60576,30.59455],[-97.60477,30.59216],[-97.60186,30.59308],[-97.59985,30.58842],[-97.59553,30.58978],[-97.59406,30.58863],[-97.59356,30.588],[-97.58789,30.57488],[-97.58818,30.57388],[-97.5877,30.57267],[-97.58874,30.57204],[-97.5892,30.57096],[-97.589,30.56875],[-97.5874,30.56427],[-97.58648,30.56292],[-97.5863,30.56213],[-97.59385,30.56206],[-97.59377,30.55564],[-97.59158,30.5556],[-97.59136,30.54478],[-97.59571,30.54466],[-97.59565,30.53995],[-97.60118,30.53969],[-97.60135,30.53986],[-97.60125,30.53353],[-97.59408,30.53493],[-97.59245,30.53518],[-97.59242,30.5348],[-97.58872,30.53545],[-97.58856,30.53147],[-97.58907,30.53106],[-97.58987,30.53093],[-97.58854,30.53073],[-97.58682,30.52945],[-97.58596,30.5273],[-97.58446,30.52583],[-97.58524,30.52574],[-97.58671,30.52642],[-97.58685,30.52576],[-97.58728,30.52564],[-97.58784,30.52623],[-97.58872,30.52655],[-97.58964,30.52555],[-97.59116,30.52492],[-97.59167,30.52412],[-97.59151,30.52377],[-97.59193,30.52255],[-97.59109,30.52079],[-97.59036,30.51988],[-97.59049,30.51928],[-97.5902,30.5184],[-97.59053,30.51699],[-97.59022,30.51672],[-97.59036,30.51642],[-97.58967,30.51578],[-97.58968,30.51526],[-97.58947,30.5153],[-97.58952,30.51468],[-97.59015,30.51428],[-97.58984,30.49879],[-97.58884,30.49881],[-97.58877,30.49831],[-97.58879,30.49792],[-97.59031,30.49718],[-97.59089,30.49729],[-97.59111,30.49848],[-97.59293,30.4975],[-97.59251,30.49386],[-97.58439,30.49386],[-97.58393,30.49404],[-97.58252,30.49921],[-97.5819,30.50046],[-97.5809,30.50086],[-97.58005,30.50039],[-97.57208,30.50026],[-97.56826,30.49972],[-97.56889,30.49616],[-97.56377,30.49556],[-97.56346,30.49183],[-97.55296,30.49029],[-97.55198,30.48745],[-97.55233,30.4875],[-97.55362,30.48077],[-97.54949,30.48025],[-97.55007,30.47648],[-97.54608,30.47542],[-97.54314,30.47916],[-97.54431,30.47939],[-97.54412,30.4796],[-97.52815,30.47543],[-97.52712,30.47465],[-97.52621,30.48023],[-97.52317,30.48012],[-97.52035,30.49496],[-97.52182,30.49479],[-97.52013,30.50392],[-97.52119,30.50452],[-97.52122,30.50516],[-97.52414,30.50556],[-97.5233,30.51037],[-97.5221,30.50921],[-97.52133,30.50662],[-97.52053,30.50565],[-97.51703,30.50304],[-97.51321,30.5008],[-97.51194,30.50037],[-97.50692,30.49952],[-97.50006,30.49574],[-97.49385,30.49374],[-97.48305,30.55372],[-97.48317,30.55405],[-97.49548,30.55191],[-97.49645,30.55614],[-97.48581,30.55707],[-97.48833,30.56288],[-97.49312,30.56128],[-97.49334,30.56163],[-97.49587,30.56084],[-97.50025,30.57097],[-97.5028,30.57051],[-97.50333,30.57489],[-97.50477,30.58092],[-97.5164,30.57751],[-97.51942,30.5846],[-97.51167,30.58726],[-97.51233,30.5885],[-97.50598,30.59064],[-97.50803,30.59535],[-97.50314,30.59694],[-97.50379,30.59841],[-97.51048,30.59646],[-97.50374,30.59856],[-97.50566,30.60275],[-97.50331,30.60353],[-97.50013,30.60513],[-97.49111,30.60796],[-97.48697,30.60847],[-97.48449,30.60831],[-97.48248,30.6079],[-97.49034,30.62695],[-97.49538,30.62838],[-97.49679,30.628],[-97.49828,30.62808],[-97.50011,30.62687],[-97.50158,30.62679],[-97.50329,30.62738],[-97.50576,30.62993],[-97.50833,30.63055],[-97.5097,30.6316],[-97.51117,30.63232],[-97.51302,30.63255],[-97.51529,30.63228],[-97.51793,30.63104],[-97.51945,30.63122],[-97.52036,30.63006],[-97.52225,30.62949],[-97.52469,30.62906],[-97.52673,30.6292],[-97.52908,30.63082],[-97.532,30.63092],[-97.53285,30.63177],[-97.53523,30.63309],[-97.53785,30.63377],[-97.54087,30.63538],[-97.54211,30.63569],[-97.54305,30.6355],[-97.54558,30.6362],[-97.54735,30.63629],[-97.54796,30.63336],[-97.54988,30.63288],[-97.55194,30.6313],[-97.5523,30.6303],[-97.55219,30.62984],[-97.55259,30.62971],[-97.55199,30.62931],[-97.55217,30.62884],[-97.55261,30.62908],[-97.55385,30.62891],[-97.55429,30.62995],[-97.56084,30.6282],[-97.56043,30.62716],[-97.56443,30.62493],[-97.56492,30.62472],[-97.56527,30.62545],[-97.56936,30.62392],[-97.56857,30.62207],[-97.57101,30.62112],[-97.57146,30.62188],[-97.58192,30.61898],[-97.58132,30.61755],[-97.59349,30.61371],[-97.60162,30.61117],[-97.60244,30.61286],[-97.60381,30.61467],[-97.60557,30.61633],[-97.6074,30.6175],[-97.62324,30.61258],[-97.62615,30.61149]]]},"properties":{"zip_code":"78634","county":"Williamson"}}]}