{"type":"FeatureCollection","features":[{"type":"Feature","geometry":{"type":"MultiPolygon","coordinates":[[[[-97.77431,29.75772],[-97.76074,29.74245],[-97.75164,29.72959],[-97.75013,29.72838],[-97.74487,29.72596],[-97.72589,29.74026],[-97.72539,29.74026],[-97.72454,29.73945],[-97.72331,29.73966],[-97.71732,29.74421],[-97.7168,29.74379],[-97.7166,29.74392],[-97.71565,29.74594],[-97.71089,29.75235],[-97.70563,29.74688],[-97.70607,29.74593],[-97.71021,29.74291],[-97.71129,29.74181],[-97.7118,29.74043],[-97.71169,29.73764],[-97.71191,29.73694],[-97.7157,29.73356],[-97.71649,29.7319],[-97.71699,29.72977],[-97.7175,29.72909],[-97.72229,29.7257],[-97.72575,29.7292],[-97.7252,29.72448],[-97.72593,29.72387],[-97.72659,29.72207],[-97.72735,29.72257],[-97.72811,29.7226],[-97.72984,29.72383],[-97.73076,29.72358],[-97.73142,29.7237],[-97.73231,29.72347],[-97.73297,29.72278],[-97.73382,29.72092],[-97.74054,29.72399],[-97.73779,29.72095],[-97.73574,29.71908],[-97.73416,29.71863],[-97.73008,29.71801],[-97.72852,29.71744],[-97.7348,29.71276],[-97.73606,29.71239],[-97.73685,29.71312],[-97.73742,29.71327],[-97.73831,29.71274],[-97.73795,29.7119],[-97.73719,29.71148],[-97.73658,29.71073],[-97.73659,29.7092],[-97.73594,29.70563],[-97.7368,29.70222],[-97.73982,29.70037],[-97.74199,29.69975],[-97.74335,29.69884],[-97.74365,29.69764],[-97.74329,29.69697],[-97.7427,29.69667],[-97.74034,29.69678],[-97.73947,29.6965],[-97.7387,29.69659],[-97.73766,29.69599],[-97.73623,29.6948],[-97.73541,29.69362],[-97.73543,29.69266],[-97.73601,29.69134],[-97.73459,29.69108],[-97.73198,29.69013],[-97.72758,29.68789],[-97.72715,29.68755],[-97.7267,29.68638],[-97.72563,29.68567],[-97.72335,29.68577],[-97.7221,29.68552],[-97.72138,29.68445],[-97.72285,29.68256],[-97.72274,29.68215],[-97.72185,29.68209],[-97.72075,29.68248],[-97.71967,29.68289],[-97.71939,29.68333],[-97.71812,29.68397],[-97.7172,29.68415],[-97.71676,29.68374],[-97.71695,29.68307],[-97.71779,29.68248],[-97.71769,29.68213],[-97.71721,29.6818],[-97.71463,29.68209],[-97.7117,29.6815],[-97.71072,29.68247],[-97.709,29.68326],[-97.70869,29.68373],[-97.7076,29.68345],[-97.70638,29.68271],[-97.70456,29.68261],[-97.70426,29.68242],[-97.7038,29.68184],[-97.70385,29.68127],[-97.70564,29.68022],[-97.70576,29.67986],[-97.70549,29.67943],[-97.70478,29.67911],[-97.70537,29.67829],[-97.70533,29.67749],[-97.70586,29.67715],[-97.70656,29.67735],[-97.70518,29.67558],[-97.70607,29.67455],[-97.70552,29.674],[-97.70385,29.67425],[-97.7033,29.67307],[-97.70342,29.67048],[-97.7022,29.6701],[-97.70252,29.66918],[-97.70223,29.66859],[-97.70098,29.66867],[-97.70054,29.66841],[-97.70616,29.664],[-97.70931,29.66219],[-97.71263,29.66093],[-97.71716,29.65974],[-97.72021,29.65921],[-97.72041,29.65881],[-97.74035,29.64406],[-97.74081,29.64149],[-97.73975,29.6402],[-97.73469,29.63538],[-97.72166,29.63889],[-97.71907,29.64069],[-97.70956,29.63114],[-97.70993,29.62813],[-97.71155,29.62583],[-97.71267,29.62477],[-97.72668,29.6142],[-97.72865,29.6105],[-97.72765,29.61084],[-97.7265,29.61089],[-97.72091,29.6099],[-97.71965,29.60947],[-97.71849,29.60862],[-97.71232,29.60205],[-97.71112,29.60137],[-97.70971,29.60125],[-97.70284,29.60211],[-97.70116,29.60042],[-97.70192,29.59984],[-97.6913,29.58891],[-97.69039,29.58916],[-97.68982,29.58899],[-97.68392,29.58274],[-97.66184,29.61186],[-97.66125,29.6123],[-97.66051,29.6126],[-97.65619,29.6125],[-97.6551,29.61217],[-97.65406,29.61147],[-97.65291,29.61145],[-97.64951,29.61296],[-97.64619,29.60963],[-97.64583,29.60951],[-97.64124,29.61303],[-97.63829,29.61775],[-97.63467,29.61811],[-97.63034,29.62153],[-97.62786,29.62237],[-97.62614,29.62361],[-97.62515,29.62163],[-97.62269,29.61929],[-97.62135,29.61857],[-97.61951,29.61559],[-97.61523,29.61385],[-97.61067,29.61107],[-97.60817,29.60872],[-97.60589,29.60615],[-97.60214,29.60384],[-97.60161,29.60178],[-97.60146,29.59767],[-97.59449,29.59641],[-97.59383,29.59488],[-97.5929,29.59396],[-97.59062,29.59276],[-97.58881,29.59122],[-97.58788,29.59255],[-97.58952,29.59302],[-97.59017,29.59362],[-97.59084,29.59526],[-97.59122,29.59547],[-97.59216,29.59537],[-97.59292,29.59465],[-97.59328,29.59476],[-97.5938,29.5966],[-97.59379,29.59754],[-97.59299,29.59834],[-97.59048,29.59985],[-97.58751,29.6001],[-97.58695,29.60041],[-97.58602,29.6019],[-97.58608,29.60232],[-97.5867,29.60307],[-97.58611,29.60583],[-97.58658,29.60712],[-97.58763,29.60826],[-97.58968,29.60927],[-97.59069,29.61003],[-97.59343,29.61069],[-97.59368,29.61098],[-97.593,29.61162],[-97.59134,29.61169],[-97.58999,29.61265],[-97.5866,29.61375],[-97.58655,29.6152],[-97.5868,29.61635],[-97.58891,29.61755],[-97.58962,29.61865],[-97.58891,29.61838],[-97.58839,29.6187],[-97.58852,29.6214],[-97.58785,29.62259],[-97.58764,29.62391],[-97.58827,29.62414],[-97.58877,29.62296],[-97.58931,29.62306],[-97.59018,29.6242],[-97.59141,29.625],[-97.5912,29.62588],[-97.59142,29.62638],[-97.59485,29.62921],[-97.59635,29.62991],[-97.59757,29.63082],[-97.5657,29.64854],[-97.56662,29.64731],[-97.56651,29.64658],[-97.56685,29.64589],[-97.56719,29.6432],[-97.56697,29.64284],[-97.56712,29.64217],[-97.56681,29.64142],[-97.56684,29.64043],[-97.56605,29.6396],[-97.56627,29.63627],[-97.56806,29.63445],[-97.5685,29.63429],[-97.56847,29.63372],[-97.56803,29.63283],[-97.56936,29.63186],[-97.56973,29.63119],[-97.56991,29.62953],[-97.56972,29.62791],[-97.57063,29.62428],[-97.57068,29.62072],[-97.57131,29.62021],[-97.5705,29.61801],[-97.56943,29.61643],[-97.56695,29.61411],[-97.56115,29.6097],[-97.5575,29.61499],[-97.55663,29.61665],[-97.5448,29.63505],[-97.54231,29.63411],[-97.53332,29.64111],[-97.5523,29.65031],[-97.55407,29.65251],[-97.55772,29.65293],[-97.53045,29.66792],[-97.55729,29.67484],[-97.5452,29.68383],[-97.54944,29.68825],[-97.53459,29.69954],[-97.53446,29.70426],[-97.5292,29.70391],[-97.52134,29.70157],[-97.5175,29.70132],[-97.51808,29.70355],[-97.51941,29.70646],[-97.52045,29.70791],[-97.52438,29.71223],[-97.52531,29.71426],[-97.52596,29.71709],[-97.52675,29.71925],[-97.52666,29.73556],[-97.5269,29.74086],[-97.52679,29.74271],[-97.52547,29.74281],[-97.52501,29.74316],[-97.52489,29.7452],[-97.51853,29.74512],[-97.51799,29.74532],[-97.51799,29.75843],[-97.51765,29.7589],[-97.51792,29.76243],[-97.51771,29.76266],[-97.51641,29.76279],[-97.51654,29.76999],[-97.52681,29.77001],[-97.52678,29.77092],[-97.53959,29.77079],[-97.5395,29.76194],[-97.55051,29.76177],[-97.55395,29.76443],[-97.557,29.76446],[-97.55707,29.76856],[-97.57076,29.7685],[-97.57065,29.77002],[-97.57107,29.77059],[-97.57125,29.77142],[-97.57091,29.77213],[-97.57121,29.77312],[-97.57127,29.77585],[-97.57624,29.77579],[-97.57252,29.77958],[-97.57308,29.78008],[-97.57361,29.78128],[-97.57265,29.78244],[-97.57257,29.78289],[-97.57527,29.78569],[-97.57538,29.78679],[-97.57605,29.78703],[-97.57594,29.7888],[-97.57537,29.78912],[-97.57536,29.78945],[-97.57607,29.78986],[-97.57623,29.79083],[-97.57803,29.79177],[-97.59303,29.77457],[-97.59503,29.77292],[-97.60504,29.76598],[-97.60589,29.76743],[-97.60601,29.76847],[-97.60677,29.76831],[-97.60718,29.7688],[-97.60794,29.76902],[-97.60856,29.76982],[-97.60876,29.77039],[-97.60857,29.77077],[-97.60877,29.771],[-97.60999,29.77122],[-97.61098,29.7718],[-97.61082,29.77376],[-97.61123,29.77461],[-97.61205,29.77538],[-97.61118,29.7763],[-97.61196,29.77709],[-97.61208,29.77777],[-97.61163,29.77808],[-97.61184,29.77852],[-97.61327,29.77869],[-97.61457,29.78065],[-97.61659,29.7825],[-97.63135,29.76458],[-97.63821,29.77106],[-97.64309,29.7672],[-97.64419,29.76867],[-97.64671,29.77052],[-97.64927,29.7687],[-97.64926,29.76582],[-97.64901,29.76499],[-97.65003,29.76457],[-97.65089,29.76302],[-97.65176,29.7625],[-97.65194,29.76208],[-97.65235,29.76179],[-97.65357,29.7616],[-97.65407,29.76172],[-97.65593,29.76521],[-97.65636,29.76789],[-97.66098,29.76451],[-97.66186,29.76604],[-97.66202,29.76595],[-97.66267,29.7668],[-97.66529,29.76768],[-97.66679,29.77042],[-97.66685,29.77204],[-97.66717,29.77277],[-97.66772,29.77293],[-97.66827,29.77227],[-97.66905,29.77283],[-97.6696,29.77443],[-97.6709,29.77528],[-97.67118,29.77596],[-97.67208,29.77565],[-97.67746,29.77689],[-97.68055,29.77614],[-97.68238,29.77525],[-97.68504,29.77489],[-97.68691,29.77661],[-97.68825,29.7768],[-97.68904,29.77771],[-97.68952,29.77907],[-97.69205,29.78181],[-97.69823,29.77055],[-97.69747,29.76972],[-97.6992,29.76844],[-97.70004,29.76911],[-97.70233,29.76745],[-97.7089,29.77378],[-97.71671,29.76762],[-97.71672,29.76738],[-97.71572,29.76637],[-97.71571,29.76608],[-97.71978,29.76302],[-97.72558,29.76908],[-97.72352,29.77081],[-97.72514,29.77261],[-97.72137,29.77544],[-97.72123,29.77578],[-97.73109,29.78568],[-97.74416,29.77593],[-97.74664,29.77847],[-97.74807,29.77767],[-97.77431,29.75772]]],[[[-97.66395,29.6069],[-97.66463,29.60698],[-97.65487,29.58653],[-97.65355,29.58596],[-97.6509,29.58312],[-97.64922,29.57894],[-97.64765,29.57692],[-97.64712,29.57295],[-97.64106,29.57724],[-97.64013,29.57781],[-97.63948,29.57787],[-97.63967,29.58095],[-97.64202,29.58334],[-97.63817,29.58603],[-97.6393,29.58746],[-97.64562,29.59398],[-97.64625,29.59422],[-97.64869,29.5944],[-97.64911,29.59712],[-97.65105,29.59948],[-97.65385,29.60145],[-97.65583,29.60245],[-97.65765,29.60454],[-97.66127,29.60616],[-97.66395,29.6069]]]]},"properties":{"zip_code":"78648","county":"Caldwell"}}]}