{"type":"FeatureCollection","features":[{"type":"Feature","geometry":{"type":"Polygon","coordinates":[[[-98.06656,30.5931],[-98.0667,30.59284],[-98.06592,30.59153],[-98.06474,30.59102],[-98.06441,30.59039],[-98.06308,30.58972],[-98.06245,30.58813],[-98.06268,30.58637],[-98.06401,30.58256],[-98.06198,30.58087],[-98.05967,30.57749],[-98.05753,30.57579],[-98.05584,30.57557],[-98.05425,30.57436],[-98.05335,30.57302],[-98.0537,30.57214],[-98.01184,30.55178],[-98.01948,30.54008],[-97.9821,30.52236],[-97.9931,30.50571],[-97.99168,30.50525],[-97.99065,30.50402],[-97.98921,30.50301],[-97.98875,30.5022],[-97.98862,30.50037],[-97.98638,30.49772],[-97.98585,30.49736],[-97.98454,30.49711],[-97.98366,30.49725],[-97.9825,30.49798],[-97.98111,30.498],[-97.97942,30.49689],[-97.97902,30.49589],[-97.97741,30.497],[-97.97737,30.49866],[-97.97853,30.50024],[-97.97954,30.50607],[-97.97848,30.50612],[-97.97724,30.50575],[-97.97605,30.50641],[-97.97365,30.50595],[-97.97328,30.50563],[-97.97323,30.50502],[-97.97291,30.50463],[-97.97212,30.50408],[-97.97106,30.50422],[-97.97058,30.50353],[-97.96746,30.50459],[-97.96725,30.50443],[-97.96727,30.50379],[-97.96848,30.50152],[-97.96811,30.5012],[-97.96546,30.50179],[-97.9641,30.50243],[-97.95285,30.50308],[-97.95104,30.50264],[-97.94611,30.5097],[-97.94185,30.50771],[-97.93769,30.5143],[-97.92946,30.51065],[-97.92645,30.50965],[-97.92532,30.50901],[-97.92449,30.50901],[-97.92022,30.51547],[-97.92008,30.51336],[-97.91829,30.51286],[-97.91616,30.51101],[-97.91755,30.50983],[-97.91589,30.50907],[-97.91546,30.5063],[-97.91482,30.50534],[-97.91363,30.50678],[-97.91232,30.51142],[-97.91168,30.51115],[-97.91058,30.51346],[-97.91184,30.51012],[-97.9127,30.50638],[-97.91064,30.50563],[-97.91069,30.50527],[-97.91257,30.50231],[-97.91174,30.50153],[-97.91065,30.50108],[-97.90589,30.50206],[-97.90565,30.50192],[-97.90557,30.50135],[-97.90501,30.50132],[-97.90516,30.50058],[-97.90608,30.49913],[-97.90846,30.49748],[-97.90855,30.49865],[-97.90953,30.49812],[-97.91289,30.49784],[-97.91466,30.49726],[-97.91783,30.48747],[-97.91777,30.48712],[-97.91886,30.48694],[-97.91961,30.48595],[-97.91905,30.48551],[-97.91931,30.48485],[-97.91934,30.48361],[-97.91844,30.48222],[-97.9175,30.47956],[-97.9167,30.47594],[-97.91478,30.47326],[-97.91183,30.47016],[-97.91142,30.46915],[-97.91001,30.4692],[-97.90968,30.46726],[-97.90851,30.46636],[-97.90921,30.46513],[-97.9101,30.46451],[-97.91167,30.46412],[-97.91339,30.46425],[-97.91371,30.46457],[-97.92226,30.4602],[-97.92394,30.45865],[-97.92476,30.45743],[-97.92528,30.45624],[-97.92577,30.45327],[-97.92551,30.44975],[-97.92467,30.4468],[-97.92335,30.44382],[-97.91994,30.43764],[-97.91998,30.43297],[-97.91546,30.42951],[-97.91302,30.42631],[-97.91109,30.42221],[-97.89516,30.4248],[-97.88487,30.42682],[-97.88232,30.42835],[-97.88007,30.4307],[-97.88001,30.43113],[-97.87916,30.43112],[-97.87918,30.43136],[-97.876,30.43202],[-97.87552,30.43263],[-97.87483,30.43451],[-97.8749,30.43714],[-97.87447,30.43774],[-97.87315,30.43826],[-97.87371,30.43986],[-97.87134,30.44124],[-97.86881,30.44111],[-97.86566,30.44247],[-97.86319,30.44413],[-97.86184,30.44537],[-97.85891,30.44679],[-97.85804,30.4483],[-97.85936,30.45017],[-97.86112,30.45119],[-97.86164,30.45259],[-97.8615,30.45353],[-97.86204,30.45402],[-97.8614,30.45512],[-97.86157,30.45624],[-97.86243,30.45674],[-97.86255,30.45719],[-97.86215,30.45869],[-97.8609,30.46095],[-97.85832,30.46252],[-97.8583,30.46366],[-97.85777,30.46425],[-97.85783,30.46456],[-97.85734,30.46511],[-97.85574,30.46578],[-97.85588,30.46653],[-97.85569,30.46738],[-97.85485,30.46811],[-97.8548,30.46921],[-97.85503,30.46961],[-97.85604,30.47002],[-97.8565,30.47057],[-97.8568,30.47185],[-97.85732,30.47269],[-97.85741,30.47339],[-97.85693,30.47496],[-97.85775,30.47569],[-97.85742,30.47665],[-97.85754,30.47742],[-97.8569,30.47837],[-97.85695,30.47984],[-97.85966,30.47895],[-97.85964,30.4834],[-97.86146,30.48338],[-97.86194,30.48448],[-97.86411,30.48557],[-97.86316,30.4871],[-97.86353,30.48859],[-97.86126,30.48989],[-97.86022,30.49022],[-97.86026,30.49165],[-97.85922,30.49331],[-97.86225,30.49731],[-97.85839,30.50083],[-97.86264,30.51158],[-97.865,30.51349],[-97.86573,30.51299],[-97.8665,30.51375],[-97.86801,30.51238],[-97.86879,30.51377],[-97.87173,30.51111],[-97.87086,30.50993],[-97.87202,30.5088],[-97.87194,30.5081],[-97.87373,30.50783],[-97.87421,30.50957],[-97.87824,30.50722],[-97.87943,30.50812],[-97.88038,30.50801],[-97.8806,30.50981],[-97.87898,30.50989],[-97.87905,30.51118],[-97.87799,30.5115],[-97.87809,30.51214],[-97.87629,30.51295],[-97.87676,30.51366],[-97.88144,30.51212],[-97.88244,30.5149],[-97.88293,30.51554],[-97.88255,30.51597],[-97.88185,30.51616],[-97.88167,30.51835],[-97.88031,30.51915],[-97.88123,30.51992],[-97.87785,30.52292],[-97.8777,30.52354],[-97.87738,30.52337],[-97.87425,30.52619],[-97.87169,30.524],[-97.87114,30.52456],[-97.87086,30.52642],[-97.87053,30.52637],[-97.86994,30.52952],[-97.86766,30.53141],[-97.86655,30.531],[-97.86504,30.53339],[-97.86284,30.53233],[-97.86112,30.53277],[-97.86085,30.53201],[-97.8477,30.53599],[-97.84779,30.53622],[-97.84539,30.53795],[-97.84553,30.53905],[-97.84678,30.54215],[-97.84016,30.54416],[-97.83811,30.5395],[-97.83637,30.54006],[-97.83501,30.53979],[-97.83458,30.53891],[-97.81774,30.54419],[-97.81933,30.5505],[-97.81907,30.55054],[-97.81647,30.54008],[-97.81639,30.53837],[-97.8167,30.53705],[-97.81411,30.53608],[-97.81319,30.53595],[-97.80733,30.53676],[-97.80237,30.53777],[-97.80258,30.539],[-97.79893,30.5398],[-97.79874,30.53995],[-97.79899,30.54057],[-97.78596,30.5442],[-97.78169,30.54562],[-97.78209,30.54562],[-97.7823,30.54615],[-97.78213,30.54673],[-97.7813,30.54621],[-97.77955,30.5442],[-97.77927,30.54276],[-97.77954,30.54128],[-97.77912,30.53965],[-97.7788,30.53951],[-97.77866,30.54211],[-97.77814,30.54223],[-97.77863,30.54339],[-97.77761,30.5437],[-97.77784,30.54419],[-97.7767,30.54456],[-97.77768,30.54694],[-97.77166,30.54874],[-97.77104,30.54722],[-97.76276,30.54972],[-97.76378,30.55167],[-97.76862,30.55595],[-97.77182,30.56134],[-97.77296,30.56269],[-97.77284,30.56281],[-97.77382,30.56447],[-97.76833,30.56624],[-97.77058,30.57178],[-97.77804,30.56943],[-97.78022,30.57182],[-97.78115,30.57385],[-97.78077,30.577],[-97.78134,30.57716],[-97.78452,30.57629],[-97.78489,30.57646],[-97.78629,30.57764],[-97.78718,30.57934],[-97.78958,30.58018],[-97.79263,30.58293],[-97.7923,30.58339],[-97.79189,30.58512],[-97.78651,30.58332],[-97.78705,30.58489],[-97.77847,30.58776],[-97.78017,30.59168],[-97.78365,30.59058],[-97.78323,30.58956],[-97.78611,30.58866],[-97.78655,30.58971],[-97.78894,30.58897],[-97.78869,30.58839],[-97.79239,30.58834],[-97.79319,30.5901],[-97.79339,30.59009],[-97.79324,30.5896],[-97.7937,30.58855],[-97.79346,30.58857],[-97.79292,30.58774],[-97.79429,30.58597],[-97.79428,30.58556],[-97.7948,30.58534],[-97.79492,30.58547],[-97.79345,30.58731],[-97.79395,30.58791],[-97.79391,30.58745],[-97.79522,30.58581],[-97.79747,30.58827],[-97.79635,30.58963],[-97.80432,30.59058],[-97.80109,30.5946],[-97.79937,30.59554],[-97.79978,30.59637],[-97.79703,30.59981],[-97.80054,30.60822],[-97.80602,30.60656],[-97.80635,30.60735],[-97.80711,30.60717],[-97.80819,30.60743],[-97.80954,30.60832],[-97.8116,30.61128],[-97.81217,30.61174],[-97.81339,30.61207],[-97.81651,30.61182],[-97.81906,30.6119],[-97.82199,30.61816],[-97.8236,30.6222],[-97.82387,30.62214],[-97.82742,30.63162],[-97.83006,30.63143],[-97.8246,30.61706],[-97.82388,30.6157],[-97.82417,30.61564],[-97.82486,30.61457],[-97.82691,30.61393],[-97.8256,30.61069],[-97.82695,30.61033],[-97.82744,30.60956],[-97.82797,30.6093],[-97.8296,30.60928],[-97.83102,30.6096],[-97.83377,30.61081],[-97.83595,30.61339],[-97.83751,30.61438],[-97.84152,30.61565],[-97.8454,30.61625],[-97.84637,30.61671],[-97.8458,30.61697],[-97.84637,30.61899],[-97.8461,30.62195],[-97.8458,30.62227],[-97.84491,30.62188],[-97.84431,30.62249],[-97.84602,30.62382],[-97.84491,30.62492],[-97.8442,30.62456],[-97.84285,30.62502],[-97.84349,30.62646],[-97.84243,30.62654],[-97.84201,30.62687],[-97.8408,30.62687],[-97.84081,30.62663],[-97.83875,30.62663],[-97.83869,30.63098],[-97.84356,30.63142],[-97.84391,30.63107],[-97.84354,30.62957],[-97.84417,30.6294],[-97.84437,30.62994],[-97.84491,30.6298],[-97.84755,30.63601],[-97.85635,30.63315],[-97.85726,30.63818],[-97.85809,30.64011],[-97.86189,30.63885],[-97.86369,30.64343],[-97.86439,30.64323],[-97.8648,30.64433],[-97.86419,30.6445],[-97.86478,30.64607],[-97.8635,30.64658],[-97.86611,30.64575],[-97.86613,30.64606],[-97.86994,30.64484],[-97.87161,30.64403],[-97.87134,30.64338],[-97.88154,30.64009],[-97.88021,30.63803],[-97.87682,30.62745],[-97.8765,30.62405],[-97.87825,30.6248],[-97.88169,30.62523],[-97.88342,30.62591],[-97.88437,30.62687],[-97.88523,30.62704],[-97.88733,30.62851],[-97.89085,30.62997],[-97.89112,30.63071],[-97.89157,30.63103],[-97.89215,30.63095],[-97.89212,30.63054],[-97.89393,30.62901],[-97.89498,30.62851],[-97.89562,30.62849],[-97.89589,30.6288],[-97.89626,30.63124],[-97.89813,30.63124],[-97.898,30.63299],[-97.90015,30.63748],[-97.90566,30.63576],[-97.90574,30.63726],[-97.91983,30.63273],[-97.91847,30.62964],[-97.92161,30.62857],[-97.92289,30.63195],[-97.92563,30.63121],[-97.92778,30.63617],[-97.92908,30.63596],[-97.92979,30.63513],[-97.92992,30.63369],[-97.93048,30.63309],[-97.93135,30.63302],[-97.9326,30.63394],[-97.93329,30.63371],[-97.93366,30.63295],[-97.93506,30.63268],[-97.93663,30.63348],[-97.93838,30.63295],[-97.93907,30.63213],[-97.94023,30.63215],[-97.94034,30.63149],[-97.94013,30.63057],[-97.93928,30.62968],[-97.93824,30.62931],[-97.93745,30.62828],[-97.93639,30.62789],[-97.93628,30.62752],[-97.93679,30.62716],[-97.93709,30.62606],[-97.94367,30.62731],[-97.94504,30.63085],[-97.94502,30.63127],[-97.9425,30.63284],[-97.93926,30.6369],[-97.93936,30.63764],[-97.94146,30.64263],[-97.95261,30.63914],[-97.95092,30.63524],[-97.95417,30.63336],[-97.95529,30.63197],[-97.95563,30.63056],[-97.95514,30.62846],[-97.95469,30.62788],[-97.9547,30.62717],[-97.95673,30.62825],[-97.96259,30.62519],[-97.96631,30.62368],[-97.97787,30.62211],[-97.99101,30.60985],[-97.9924,30.60949],[-97.99799,30.61302],[-98.00195,30.62142],[-98.00366,30.62381],[-98.0043,30.62519],[-98.00628,30.62752],[-98.01274,30.61677],[-98.01773,30.61645],[-98.0297,30.61472],[-98.0365,30.61173],[-98.03959,30.61855],[-98.04029,30.6182],[-98.04989,30.62416],[-98.06656,30.5931]]]},"properties":{"zip_code":"78641","county":"Travis"}}]}