{"type":"FeatureCollection","features":[{"type":"Feature","geometry":{"type":"Polygon","coordinates":[[[-97.98915,30.05247],[-97.98874,30.04853],[-97.98806,30.04772],[-97.98717,30.04721],[-97.97615,30.04585],[-97.96298,30.04366],[-97.96287,30.03496],[-97.96278,30.03424],[-97.96223,30.03327],[-97.96226,30.03224],[-97.96294,30.03045],[-97.96297,30.0288],[-97.96199,30.02697],[-97.96125,30.02638],[-97.96044,30.02599],[-97.95972,30.02599],[-97.95875,30.02665],[-97.9582,30.02791],[-97.95807,30.02929],[-97.95635,30.03208],[-97.95472,30.03591],[-97.95409,30.03637],[-97.95251,30.03653],[-97.94993,30.03543],[-97.94911,30.03437],[-97.94866,30.03321],[-97.94861,30.03002],[-97.94806,30.02894],[-97.94729,30.02816],[-97.94563,30.02711],[-97.9411,30.02693],[-97.93976,30.02633],[-97.9396,30.0248],[-97.93994,30.02354],[-97.93926,30.02244],[-97.93931,30.02133],[-97.94002,30.02019],[-97.94002,30.01971],[-97.93813,30.01836],[-97.93813,30.01797],[-97.93826,30.01764],[-97.94139,30.01547],[-97.94163,30.0143],[-97.94131,30.01347],[-97.94068,30.01272],[-97.93826,30.01343],[-97.9371,30.01276],[-97.93565,30.00777],[-97.93294,30.00273],[-97.93078,29.99783],[-97.92965,29.99588],[-97.92804,29.99469],[-97.92656,29.99187],[-97.92514,29.99029],[-97.92412,29.98957],[-97.92096,29.98914],[-97.91893,29.98815],[-97.91851,29.98769],[-97.91777,29.98547],[-97.9178,29.98428],[-97.91851,29.98135],[-97.91862,29.97924],[-97.91959,29.97548],[-97.91907,29.97394],[-97.9181,29.97337],[-97.91663,29.97323],[-97.91569,29.97289],[-97.91488,29.97286],[-97.91425,29.97314],[-97.91253,29.97492],[-97.9123,29.97531],[-97.91228,29.9763],[-97.9097,29.97914],[-97.90933,29.98047],[-97.90759,29.98144],[-97.9069,29.98153],[-97.90603,29.98123],[-97.9055,29.97985],[-97.90432,29.97811],[-97.90397,29.97687],[-97.90413,29.97474],[-97.90396,29.97227],[-97.90338,29.9711],[-97.90332,29.96945],[-97.90375,29.96821],[-97.90591,29.96681],[-97.90754,29.96509],[-97.90812,29.96358],[-97.90801,29.96273],[-97.90751,29.96193],[-97.90762,29.96074],[-97.90528,29.95641],[-97.90478,29.95609],[-97.90393,29.95599],[-97.90282,29.95457],[-97.9024,29.95349],[-97.90229,29.95214],[-97.90355,29.94776],[-97.90581,29.94614],[-97.90678,29.9449],[-97.90691,29.94371],[-97.90656,29.94311],[-97.90379,29.94176],[-97.90132,29.94008],[-97.89952,29.93825],[-97.89569,29.93708],[-97.89509,29.93782],[-97.8965,29.93878],[-97.89707,29.94082],[-97.90184,29.94467],[-97.90242,29.94526],[-97.90255,29.94585],[-97.90309,29.94582],[-97.90121,29.94806],[-97.90022,29.95089],[-97.90032,29.95333],[-97.90188,29.95645],[-97.90201,29.95748],[-97.90158,29.95827],[-97.89988,29.95977],[-97.89976,29.96071],[-97.89289,29.95795],[-97.89411,29.9556],[-97.89296,29.95443],[-97.89119,29.95609],[-97.8875,29.95292],[-97.8863,29.95417],[-97.88369,29.95334],[-97.88305,29.95288],[-97.8845,29.95111],[-97.88357,29.95051],[-97.88134,29.94784],[-97.87553,29.94288],[-97.8781,29.94043],[-97.87816,29.94003],[-97.86314,29.92744],[-97.86066,29.92582],[-97.84918,29.916],[-97.83671,29.92222],[-97.82736,29.92909],[-97.82125,29.93257],[-97.81271,29.93687],[-97.81238,29.93627],[-97.81185,29.93651],[-97.81212,29.93697],[-97.80988,29.93791],[-97.80861,29.93618],[-97.8094,29.93576],[-97.80744,29.93257],[-97.80545,29.9334],[-97.80258,29.92872],[-97.79959,29.93114],[-97.80745,29.93934],[-97.80345,29.94124],[-97.80313,29.94108],[-97.79243,29.94518],[-97.79192,29.94465],[-97.78978,29.94661],[-97.78785,29.94593],[-97.78597,29.94463],[-97.784,29.94587],[-97.78749,29.94903],[-97.78488,29.94951],[-97.77828,29.95006],[-97.77979,29.95206],[-97.77092,29.95402],[-97.76952,29.9469],[-97.75769,29.94866],[-97.75884,29.95447],[-97.75274,29.95553],[-97.75235,29.95358],[-97.7472,29.9543],[-97.74777,29.95707],[-97.74739,29.95684],[-97.7466,29.95744],[-97.74633,29.95726],[-97.74562,29.95738],[-97.74505,29.95859],[-97.74564,29.95924],[-97.74771,29.95925],[-97.74814,29.95997],[-97.74821,29.96111],[-97.74004,29.96234],[-97.74223,29.973],[-97.72878,29.97504],[-97.72897,29.97751],[-97.72864,29.97764],[-97.71189,29.98035],[-97.71068,29.97434],[-97.7001,29.98276],[-97.68512,29.9952],[-97.68644,30.00187],[-97.68783,30.01475],[-97.70002,30.02503],[-97.70311,30.03067],[-97.70474,30.03266],[-97.7212,30.04649],[-97.72375,30.04416],[-97.72463,30.04456],[-97.72517,30.04534],[-97.72642,30.04554],[-97.72797,30.04456],[-97.73044,30.04417],[-97.73131,30.04355],[-97.73234,30.04329],[-97.73288,30.04281],[-97.73379,30.04282],[-97.7348,30.0424],[-97.75148,30.05435],[-97.75627,30.05005],[-97.75616,30.04971],[-97.7544,30.04884],[-97.75414,30.04847],[-97.76942,30.03464],[-97.76911,30.03329],[-97.77467,30.03279],[-97.77662,30.03297],[-97.77763,30.03333],[-97.78246,30.03614],[-97.78933,30.04176],[-97.79597,30.036],[-97.79849,30.03797],[-97.79962,30.03789],[-97.8025,30.0354],[-97.80397,30.03658],[-97.80432,30.03634],[-97.80485,30.03672],[-97.81113,30.03121],[-97.81239,30.0306],[-97.82464,30.0304],[-97.82562,30.03063],[-97.82774,30.03178],[-97.82906,30.03196],[-97.8281,30.03268],[-97.82812,30.03499],[-97.83148,30.03497],[-97.8315,30.03771],[-97.84164,30.0377],[-97.84286,30.03532],[-97.85053,30.03591],[-97.85056,30.04145],[-97.84741,30.04145],[-97.84456,30.04199],[-97.84462,30.04248],[-97.8518,30.04257],[-97.85177,30.04137],[-97.85276,30.04139],[-97.85272,30.0398],[-97.8563,30.03972],[-97.85632,30.04079],[-97.86337,30.04052],[-97.86686,30.0282],[-97.87247,30.02816],[-97.87212,30.03733],[-97.8747,30.04408],[-97.87471,30.04971],[-97.87528,30.05021],[-97.87843,30.05014],[-97.87991,30.04969],[-97.88337,30.04652],[-97.88719,30.03714],[-97.8879,30.03452],[-97.9017,30.03421],[-97.90239,30.03323],[-97.90329,30.02843],[-97.90646,30.02853],[-97.90646,30.0363],[-97.91439,30.03582],[-97.9146,30.04473],[-97.91263,30.04533],[-97.90985,30.04446],[-97.90871,30.04445],[-97.90819,30.04475],[-97.90694,30.04682],[-97.90649,30.04823],[-97.90444,30.05],[-97.90335,30.05198],[-97.92764,30.05171],[-97.92783,30.05989],[-97.92618,30.06023],[-97.92614,30.06084],[-97.92591,30.0608],[-97.9259,30.06228],[-97.92992,30.05984],[-97.93107,30.05879],[-97.93239,30.05681],[-97.93407,30.05512],[-97.9372,30.05254],[-97.93769,30.05156],[-97.93778,30.05027],[-97.93888,30.0498],[-97.94014,30.04977],[-97.94179,30.05032],[-97.94284,30.05096],[-97.94511,30.05324],[-97.9465,30.05378],[-97.95564,30.05157],[-97.96304,30.05205],[-97.96743,30.05282],[-97.96934,30.05373],[-97.97245,30.05661],[-97.97511,30.05794],[-97.97625,30.05894],[-97.97719,30.06042],[-97.97833,30.06069],[-97.979,30.06062],[-97.98094,30.05917],[-97.98134,30.0582],[-97.98128,30.05603],[-97.98175,30.05468],[-97.98301,30.05441],[-97.98403,30.05369],[-97.98457,30.05255],[-97.98685,30.05163],[-97.98915,30.05247]]]},"properties":{"zip_code":"78640","county":"Hays"}}]}