{"type":"FeatureCollection","features":[{"type":"Feature","geometry":{"type":"Polygon","coordinates":[[[-98.07514,30.66438],[-98.07501,30.66313],[-98.07114,30.65386],[-98.05973,30.65732],[-98.05538,30.65911],[-98.05007,30.66083],[-98.04283,30.66295],[-98.03442,30.66316],[-98.03328,30.6627],[-98.03034,30.66045],[-98.04989,30.62416],[-98.04029,30.6182],[-98.03959,30.61855],[-98.0365,30.61173],[-98.0297,30.61472],[-98.01773,30.61645],[-98.01274,30.61677],[-98.00628,30.62752],[-98.0043,30.62519],[-98.00366,30.62381],[-98.00195,30.62142],[-97.99799,30.61302],[-97.9924,30.60949],[-97.99101,30.60985],[-97.97787,30.62211],[-97.96631,30.62368],[-97.96259,30.62519],[-97.95673,30.62825],[-97.9547,30.62717],[-97.95469,30.62788],[-97.95514,30.62846],[-97.95563,30.63056],[-97.95529,30.63197],[-97.95417,30.63336],[-97.95092,30.63524],[-97.95261,30.63914],[-97.94146,30.64263],[-97.93936,30.63764],[-97.93926,30.6369],[-97.9425,30.63284],[-97.94502,30.63127],[-97.94504,30.63085],[-97.94367,30.62731],[-97.93709,30.62606],[-97.93679,30.62716],[-97.93628,30.62752],[-97.93639,30.62789],[-97.93745,30.62828],[-97.93824,30.62931],[-97.93928,30.62968],[-97.94013,30.63057],[-97.94034,30.63149],[-97.94023,30.63215],[-97.93907,30.63213],[-97.93838,30.63295],[-97.93663,30.63348],[-97.93506,30.63268],[-97.93366,30.63295],[-97.93329,30.63371],[-97.9326,30.63394],[-97.93135,30.63302],[-97.93048,30.63309],[-97.92992,30.63369],[-97.92979,30.63513],[-97.92908,30.63596],[-97.92778,30.63617],[-97.92563,30.63121],[-97.92289,30.63195],[-97.92161,30.62857],[-97.91847,30.62964],[-97.91983,30.63273],[-97.90574,30.63726],[-97.90566,30.63576],[-97.90015,30.63748],[-97.898,30.63299],[-97.89813,30.63124],[-97.89626,30.63124],[-97.89589,30.6288],[-97.89562,30.62849],[-97.89498,30.62851],[-97.89393,30.62901],[-97.89212,30.63054],[-97.89215,30.63095],[-97.89157,30.63103],[-97.89112,30.63071],[-97.89085,30.62997],[-97.88733,30.62851],[-97.88523,30.62704],[-97.88437,30.62687],[-97.88342,30.62591],[-97.88169,30.62523],[-97.87825,30.6248],[-97.8765,30.62405],[-97.87682,30.62745],[-97.88021,30.63803],[-97.88154,30.64009],[-97.87134,30.64338],[-97.87161,30.64403],[-97.86994,30.64484],[-97.86613,30.64606],[-97.86611,30.64575],[-97.8635,30.64658],[-97.86478,30.64607],[-97.86419,30.6445],[-97.8648,30.64433],[-97.86439,30.64323],[-97.86369,30.64343],[-97.86189,30.63885],[-97.85809,30.64011],[-97.85726,30.63818],[-97.85635,30.63315],[-97.83964,30.63837],[-97.83918,30.63714],[-97.83847,30.63793],[-97.83958,30.63856],[-97.83777,30.641],[-97.83218,30.63817],[-97.83045,30.63781],[-97.8278,30.63769],[-97.8289,30.6424],[-97.83003,30.64508],[-97.83672,30.65314],[-97.82459,30.65681],[-97.82414,30.65654],[-97.81819,30.65836],[-97.81791,30.65829],[-97.81745,30.65728],[-97.81718,30.65722],[-97.81188,30.65877],[-97.81125,30.65942],[-97.80714,30.66077],[-97.81008,30.66737],[-97.81067,30.66754],[-97.81165,30.66871],[-97.81189,30.67038],[-97.81242,30.67063],[-97.81388,30.67004],[-97.81518,30.66994],[-97.81597,30.67118],[-97.81605,30.67196],[-97.81693,30.67244],[-97.81764,30.67331],[-97.81754,30.67416],[-97.81799,30.67425],[-97.81799,30.67453],[-97.81653,30.67579],[-97.81656,30.67611],[-97.81735,30.6768],[-97.81791,30.67776],[-97.81862,30.67796],[-97.81984,30.67735],[-97.82106,30.67758],[-97.82186,30.67822],[-97.82305,30.67845],[-97.82379,30.67907],[-97.82462,30.6792],[-97.82459,30.68021],[-97.82499,30.68065],[-97.82755,30.68134],[-97.82801,30.68173],[-97.8326,30.68319],[-97.83356,30.68376],[-97.83416,30.68448],[-97.83522,30.68674],[-97.83267,30.68868],[-97.83225,30.68939],[-97.83137,30.69278],[-97.82864,30.69474],[-97.82827,30.69596],[-97.82891,30.69635],[-97.82947,30.69607],[-97.83215,30.69366],[-97.83336,30.69183],[-97.83465,30.69066],[-97.83574,30.69069],[-97.83624,30.69092],[-97.84091,30.70266],[-97.85519,30.70523],[-97.85654,30.7058],[-97.85854,30.7075],[-97.85956,30.70784],[-97.86085,30.70789],[-97.861,30.71125],[-97.85975,30.71193],[-97.86006,30.71864],[-97.85646,30.71995],[-97.85651,30.72023],[-97.85718,30.72259],[-97.85961,30.72878],[-97.86406,30.72762],[-97.87148,30.74517],[-97.87545,30.74388],[-97.87652,30.74647],[-97.87685,30.77309],[-97.87706,30.77489],[-97.88822,30.77148],[-97.88871,30.77169],[-97.89028,30.77435],[-97.89072,30.77889],[-97.89102,30.77976],[-97.89599,30.78299],[-97.8974,30.7845],[-97.89776,30.79027],[-97.8987,30.79253],[-97.9135,30.78785],[-97.91828,30.79943],[-97.92929,30.79606],[-97.92983,30.79644],[-97.93151,30.79657],[-97.93173,30.79715],[-97.93087,30.79781],[-97.93017,30.79876],[-97.92894,30.79911],[-97.92826,30.80052],[-97.9265,30.80161],[-97.92603,30.80341],[-97.9266,30.80368],[-97.92681,30.8045],[-97.92631,30.80525],[-97.9282,30.80685],[-97.93155,30.80648],[-97.9319,30.80586],[-97.93272,30.80536],[-97.93391,30.8055],[-97.93455,30.80467],[-97.93746,30.80359],[-97.93974,30.80556],[-97.93985,30.80605],[-97.93955,30.80654],[-97.96286,30.78564],[-97.98231,30.75018],[-98.00437,30.70837],[-98.01718,30.71329],[-98.02098,30.71336],[-98.02772,30.71179],[-98.03206,30.71135],[-98.03411,30.71143],[-98.03387,30.70874],[-98.03407,30.70753],[-98.03381,30.70578],[-98.03216,30.70309],[-98.03449,30.70405],[-98.03619,30.70337],[-98.03752,30.70042],[-98.03799,30.70005],[-98.04271,30.69919],[-98.04333,30.69932],[-98.04384,30.69981],[-98.04469,30.70149],[-98.04631,30.7023],[-98.04777,30.70193],[-98.04795,30.70127],[-98.04853,30.70071],[-98.05057,30.69936],[-98.05205,30.69957],[-98.05328,30.70034],[-98.05474,30.70075],[-98.05562,30.70038],[-98.05693,30.70046],[-98.05772,30.70063],[-98.05862,30.7014],[-98.05969,30.70124],[-98.06103,30.6996],[-98.06134,30.69764],[-98.06198,30.69777],[-98.05992,30.69257],[-98.05902,30.68687],[-98.059,30.68551],[-98.05927,30.6845],[-98.06683,30.67353],[-98.07443,30.66593],[-98.07503,30.665],[-98.07514,30.66438]]]},"properties":{"zip_code":"78642","county":"Williamson"}}]}