{"type":"FeatureCollection","features":[{"type":"Feature","geometry":{"type":"Polygon","coordinates":[[[-98.03709,30.42049],[-98.03667,30.41842],[-98.03318,30.41667],[-98.0305,30.41585],[-98.0195,30.41494],[-98.01105,30.41474],[-98.00429,30.41429],[-97.99689,30.41422],[-97.98881,30.41489],[-97.98677,30.41462],[-97.98469,30.41297],[-97.98425,30.4113],[-97.98411,30.40791],[-97.98451,30.40609],[-97.98548,30.40419],[-97.98703,30.40301],[-97.98832,30.40155],[-97.99293,30.39884],[-97.99941,30.39523],[-98.00171,30.39467],[-98.01479,30.38212],[-98.01581,30.37969],[-98.01608,30.37687],[-98.01443,30.37377],[-98.01335,30.37244],[-98.01248,30.37166],[-98.01066,30.37095],[-98.00911,30.37116],[-98.00739,30.37188],[-97.99863,30.37447],[-97.99864,30.37468],[-97.99259,30.37691],[-97.99059,30.37749],[-97.98959,30.37747],[-97.98248,30.38338],[-97.97805,30.38842],[-97.97619,30.3901],[-97.97268,30.39246],[-97.97166,30.39289],[-97.96894,30.39366],[-97.96629,30.39401],[-97.94747,30.3937],[-97.94515,30.39406],[-97.944,30.39466],[-97.94303,30.39575],[-97.94126,30.3987],[-97.94056,30.4009],[-97.94053,30.40255],[-97.94083,30.40417],[-97.94234,30.40804],[-97.94611,30.41306],[-97.94869,30.41605],[-97.95125,30.41978],[-97.95195,30.42164],[-97.95216,30.42396],[-97.95187,30.42671],[-97.95122,30.429],[-97.94994,30.43124],[-97.94888,30.43249],[-97.94677,30.43418],[-97.93866,30.43732],[-97.93459,30.43746],[-97.93139,30.43724],[-97.92923,30.43682],[-97.92669,30.43618],[-97.92336,30.43487],[-97.91998,30.43297],[-97.91994,30.43764],[-97.92335,30.44382],[-97.92467,30.4468],[-97.92551,30.44975],[-97.92577,30.45327],[-97.92528,30.45624],[-97.92476,30.45743],[-97.92394,30.45865],[-97.92226,30.4602],[-97.91371,30.46457],[-97.91339,30.46425],[-97.91167,30.46412],[-97.9101,30.46451],[-97.90921,30.46513],[-97.90851,30.46636],[-97.90968,30.46726],[-97.91001,30.4692],[-97.91142,30.46915],[-97.91183,30.47016],[-97.91478,30.47326],[-97.9167,30.47594],[-97.9175,30.47956],[-97.91844,30.48222],[-97.91934,30.48361],[-97.91931,30.48485],[-97.91905,30.48551],[-97.91961,30.48595],[-97.91886,30.48694],[-97.91777,30.48712],[-97.91783,30.48747],[-97.91466,30.49726],[-97.91289,30.49784],[-97.90953,30.49812],[-97.90855,30.49865],[-97.90846,30.49748],[-97.90608,30.49913],[-97.90516,30.50058],[-97.90501,30.50132],[-97.90557,30.50135],[-97.90565,30.50192],[-97.90589,30.50206],[-97.91065,30.50108],[-97.91174,30.50153],[-97.91257,30.50231],[-97.91069,30.50527],[-97.91064,30.50563],[-97.9127,30.50638],[-97.91184,30.51012],[-97.91058,30.51346],[-97.91168,30.51115],[-97.91232,30.51142],[-97.91363,30.50678],[-97.91482,30.50534],[-97.91546,30.5063],[-97.91589,30.50907],[-97.91755,30.50983],[-97.91616,30.51101],[-97.91829,30.51286],[-97.92008,30.51336],[-97.92022,30.51547],[-97.92449,30.50901],[-97.92532,30.50901],[-97.92645,30.50965],[-97.92946,30.51065],[-97.93769,30.5143],[-97.94185,30.50771],[-97.94611,30.5097],[-97.95104,30.50264],[-97.95285,30.50308],[-97.9641,30.50243],[-97.96546,30.50179],[-97.96811,30.5012],[-97.96848,30.50152],[-97.96727,30.50379],[-97.96725,30.50443],[-97.96746,30.50459],[-97.97058,30.50353],[-97.97106,30.50422],[-97.97212,30.50408],[-97.97291,30.50463],[-97.97323,30.50502],[-97.97328,30.50563],[-97.97365,30.50595],[-97.97605,30.50641],[-97.97724,30.50575],[-97.97848,30.50612],[-97.97954,30.50607],[-97.97853,30.50024],[-97.97735,30.49854],[-97.97741,30.497],[-97.97902,30.49589],[-97.97942,30.49689],[-97.98111,30.498],[-97.9825,30.49798],[-97.98366,30.49725],[-97.98454,30.49711],[-97.98585,30.49736],[-97.98638,30.49772],[-97.98862,30.50037],[-97.98875,30.5022],[-97.98921,30.50301],[-97.99065,30.50402],[-97.99168,30.50525],[-97.99361,30.50588],[-97.99611,30.50721],[-97.99727,30.50726],[-97.9986,30.50684],[-97.99978,30.50476],[-98.00052,30.50413],[-98.00154,30.50396],[-98.00247,30.50425],[-97.99957,30.49895],[-97.99953,30.49789],[-97.99988,30.49678],[-97.99952,30.49384],[-98.00284,30.48838],[-98.00552,30.4849],[-98.0064,30.48395],[-98.00723,30.4835],[-98.00743,30.48324],[-98.00732,30.48266],[-98.00826,30.48309],[-98.01019,30.48032],[-98.00784,30.47936],[-98.006,30.47812],[-98.00468,30.47663],[-98.00285,30.47364],[-98.00189,30.47045],[-97.99912,30.46423],[-97.99863,30.46103],[-97.99874,30.45879],[-97.9994,30.45706],[-98.00028,30.45589],[-98.00248,30.45399],[-98.00525,30.45203],[-98.00593,30.45037],[-98.00765,30.4503],[-98.01189,30.44918],[-98.02594,30.43764],[-98.03185,30.43224],[-98.03464,30.42865],[-98.03588,30.42601],[-98.03703,30.42183],[-98.03709,30.42049]]]},"properties":{"zip_code":"78645","county":"Travis"}}]}