{"type":"FeatureCollection","features":[{"type":"Feature","geometry":{"type":"Polygon","coordinates":[[[-97.8151,29.78073],[-97.81293,29.77832],[-97.81249,29.77813],[-97.81213,29.77816],[-97.8109,29.77925],[-97.81099,29.77951],[-97.81155,29.7795],[-97.81184,29.77975],[-97.8119,29.77994],[-97.81137,29.78029],[-97.81057,29.78022],[-97.80975,29.77978],[-97.80845,29.77977],[-97.80695,29.77829],[-97.80648,29.77809],[-97.80623,29.77738],[-97.80565,29.77706],[-97.80646,29.77534],[-97.80611,29.77429],[-97.80523,29.77376],[-97.80554,29.77316],[-97.8064,29.77325],[-97.80797,29.77464],[-97.80988,29.77431],[-97.81117,29.7745],[-97.81126,29.77424],[-97.81045,29.7729],[-97.80902,29.77212],[-97.80845,29.77122],[-97.80841,29.7707],[-97.80706,29.76899],[-97.80573,29.76818],[-97.80562,29.76777],[-97.79372,29.77617],[-97.79256,29.77706],[-97.79068,29.77908],[-97.77694,29.80228],[-97.7609,29.78612],[-97.78183,29.7705],[-97.77813,29.76219],[-97.77431,29.75772],[-97.74807,29.77767],[-97.74664,29.77847],[-97.74416,29.77593],[-97.73109,29.78568],[-97.72123,29.77578],[-97.72137,29.77544],[-97.72514,29.77261],[-97.72352,29.77081],[-97.72558,29.76908],[-97.71978,29.76302],[-97.71571,29.76608],[-97.71572,29.76637],[-97.71672,29.76738],[-97.71671,29.76762],[-97.7089,29.77378],[-97.70233,29.76745],[-97.70004,29.76911],[-97.6992,29.76844],[-97.69747,29.76972],[-97.69823,29.77055],[-97.69205,29.78181],[-97.68952,29.77907],[-97.68904,29.77771],[-97.68825,29.7768],[-97.68691,29.77661],[-97.68504,29.77489],[-97.68238,29.77525],[-97.68055,29.77614],[-97.67746,29.77689],[-97.67208,29.77565],[-97.67118,29.77596],[-97.6709,29.77528],[-97.6696,29.77443],[-97.66905,29.77283],[-97.66827,29.77227],[-97.66772,29.77293],[-97.66717,29.77277],[-97.66685,29.77204],[-97.66679,29.77042],[-97.66529,29.76768],[-97.66267,29.7668],[-97.66202,29.76595],[-97.66186,29.76604],[-97.66098,29.76451],[-97.65636,29.76789],[-97.65593,29.76521],[-97.65407,29.76172],[-97.65357,29.7616],[-97.65235,29.76179],[-97.65194,29.76208],[-97.65176,29.7625],[-97.65089,29.76302],[-97.65003,29.76457],[-97.64901,29.76499],[-97.64926,29.76582],[-97.64927,29.7687],[-97.64671,29.77052],[-97.64419,29.76867],[-97.64309,29.7672],[-97.63821,29.77106],[-97.63135,29.76458],[-97.61659,29.7825],[-97.61457,29.78065],[-97.61327,29.77869],[-97.61184,29.77852],[-97.61163,29.77808],[-97.61208,29.77777],[-97.61196,29.77709],[-97.61118,29.7763],[-97.61205,29.77538],[-97.61123,29.77461],[-97.61082,29.77376],[-97.61098,29.7718],[-97.60999,29.77122],[-97.60877,29.771],[-97.60857,29.77077],[-97.60876,29.77039],[-97.60856,29.76982],[-97.60794,29.76902],[-97.60718,29.7688],[-97.60677,29.76831],[-97.60601,29.76847],[-97.60589,29.76743],[-97.60504,29.76598],[-97.59503,29.77292],[-97.59266,29.77495],[-97.58592,29.78252],[-97.57628,29.79398],[-97.53767,29.83871],[-97.53433,29.84276],[-97.53344,29.85086],[-97.5321,29.85105],[-97.52872,29.85215],[-97.52618,29.85259],[-97.525,29.85392],[-97.52519,29.85846],[-97.53131,29.86395],[-97.52642,29.86807],[-97.53394,29.87487],[-97.53389,29.87605],[-97.53258,29.87804],[-97.529,29.87568],[-97.52855,29.87632],[-97.52877,29.87655],[-97.52714,29.87863],[-97.53351,29.88272],[-97.53517,29.88172],[-97.5356,29.88106],[-97.53667,29.88053],[-97.5368,29.88011],[-97.53832,29.87926],[-97.5389,29.87948],[-97.53903,29.87906],[-97.55156,29.88975],[-97.55112,29.89031],[-97.54968,29.88981],[-97.54811,29.89093],[-97.54757,29.89202],[-97.54737,29.89429],[-97.55111,29.89857],[-97.55414,29.90091],[-97.55345,29.90211],[-97.5554,29.90358],[-97.55707,29.90325],[-97.55991,29.90205],[-97.5631,29.90519],[-97.59197,29.89176],[-97.59439,29.89143],[-97.59516,29.89558],[-97.59611,29.89616],[-97.59698,29.89629],[-97.59845,29.90059],[-97.61175,29.89863],[-97.61284,29.90444],[-97.62282,29.90293],[-97.62383,29.9024],[-97.61912,29.90671],[-97.6111,29.91183],[-97.59809,29.92303],[-97.59559,29.92437],[-97.59251,29.9251],[-97.6116,29.94124],[-97.6026,29.94931],[-97.60586,29.95218],[-97.60965,29.94898],[-97.61872,29.95604],[-97.60759,29.96639],[-97.61363,29.97138],[-97.61235,29.97295],[-97.60921,29.97586],[-97.61472,29.97985],[-97.62339,29.98758],[-97.6215,29.9904],[-97.62544,29.99284],[-97.62603,29.9918],[-97.62662,29.98959],[-97.62976,29.98624],[-97.63158,29.98533],[-97.63375,29.98718],[-97.63856,29.98303],[-97.63898,29.98339],[-97.6432,29.97965],[-97.64307,29.98082],[-97.64385,29.98167],[-97.64307,29.9852],[-97.64453,29.98478],[-97.64508,29.98579],[-97.64442,29.98656],[-97.64503,29.98731],[-97.64443,29.98833],[-97.64695,29.99082],[-97.64585,29.99159],[-97.64568,29.99209],[-97.63797,29.99929],[-97.64475,30.00497],[-97.6452,30.00506],[-97.65147,29.99948],[-97.65878,30.00572],[-97.65932,30.00514],[-97.66199,30.00765],[-97.66343,30.00677],[-97.66577,30.00903],[-97.65906,30.01504],[-97.6702,30.02452],[-97.67437,30.02888],[-97.6743,30.03036],[-97.67446,30.03052],[-97.69425,30.02655],[-97.6946,30.02722],[-97.70051,30.02595],[-97.70007,30.02509],[-97.69931,30.02436],[-97.68783,30.01475],[-97.68644,30.00187],[-97.68512,29.9952],[-97.7001,29.98276],[-97.71068,29.97434],[-97.71189,29.98035],[-97.72864,29.97764],[-97.72897,29.97751],[-97.72878,29.97504],[-97.74223,29.973],[-97.74004,29.96234],[-97.74823,29.96103],[-97.74814,29.95997],[-97.74771,29.95925],[-97.74564,29.95924],[-97.74505,29.95864],[-97.74562,29.95738],[-97.74633,29.95726],[-97.7466,29.95744],[-97.74739,29.95684],[-97.74779,29.95703],[-97.7472,29.9543],[-97.74677,29.95436],[-97.74534,29.94693],[-97.75225,29.94137],[-97.7622,29.93229],[-97.78716,29.91382],[-97.78326,29.90926],[-97.78195,29.90712],[-97.78081,29.90434],[-97.77968,29.90347],[-97.77782,29.9029],[-97.77701,29.90206],[-97.77673,29.90125],[-97.77636,29.90107],[-97.77577,29.90123],[-97.77415,29.90216],[-97.77363,29.90192],[-97.77258,29.90199],[-97.77217,29.90248],[-97.77044,29.90293],[-97.76977,29.90268],[-97.76884,29.9014],[-97.76836,29.90141],[-97.76728,29.90216],[-97.76659,29.90202],[-97.76605,29.90141],[-97.76531,29.90132],[-97.76446,29.90048],[-97.76399,29.89882],[-97.76359,29.89837],[-97.76151,29.89778],[-97.7609,29.89796],[-97.75979,29.89762],[-97.75899,29.8961],[-97.75732,29.89475],[-97.75707,29.89422],[-97.75565,29.89312],[-97.75523,29.89246],[-97.75029,29.88956],[-97.74859,29.88913],[-97.74679,29.88597],[-97.74563,29.8858],[-97.74426,29.88424],[-97.74315,29.88417],[-97.74463,29.8835],[-97.74873,29.88269],[-97.74038,29.87057],[-97.76187,29.87172],[-97.76248,29.87214],[-97.76278,29.87185],[-97.76337,29.87205],[-97.78969,29.87287],[-97.80699,29.85987],[-97.81325,29.86616],[-97.81367,29.86587],[-97.81158,29.86297],[-97.80975,29.86167],[-97.80913,29.86152],[-97.80706,29.85945],[-97.80349,29.85834],[-97.80203,29.85866],[-97.80111,29.85933],[-97.79966,29.85921],[-97.79879,29.85791],[-97.79853,29.85727],[-97.79853,29.85635],[-97.79734,29.85472],[-97.79719,29.85401],[-97.79629,29.85339],[-97.79521,29.85211],[-97.79372,29.84957],[-97.79211,29.84469],[-97.7922,29.84432],[-97.78682,29.83878],[-97.78667,29.83838],[-97.78668,29.83818],[-97.78754,29.83832],[-97.78802,29.83746],[-97.78969,29.83684],[-97.79147,29.83518],[-97.79254,29.83501],[-97.79372,29.83445],[-97.79587,29.83408],[-97.79637,29.83384],[-97.79657,29.83343],[-97.79568,29.83065],[-97.79594,29.82996],[-97.7958,29.82915],[-97.79546,29.82874],[-97.79468,29.82871],[-97.79418,29.82827],[-97.79382,29.82712],[-97.79423,29.82654],[-97.79625,29.82549],[-97.79644,29.82445],[-97.79629,29.82283],[-97.79598,29.82221],[-97.79796,29.82027],[-97.79827,29.81881],[-97.79746,29.81735],[-97.79753,29.8159],[-97.79677,29.8148],[-97.79673,29.81412],[-97.79763,29.813],[-97.79863,29.81229],[-97.79877,29.81126],[-97.7986,29.81021],[-97.79984,29.80756],[-97.79939,29.80695],[-97.79945,29.80636],[-97.7956,29.79929],[-97.81452,29.7851],[-97.81373,29.78425],[-97.81283,29.78392],[-97.812,29.784],[-97.81184,29.78369],[-97.81387,29.78215],[-97.81449,29.78094],[-97.81476,29.78103],[-97.8151,29.78073]]]},"properties":{"zip_code":"78644","county":"Caldwell"}}]}