{"type":"FeatureCollection","features":[{"type":"Feature","geometry":{"type":"Polygon","coordinates":[[[-97.88606,29.82888],[-97.88394,29.82681],[-97.88504,29.82576],[-97.87948,29.82011],[-97.87902,29.82039],[-97.87636,29.81804],[-97.87944,29.81556],[-97.87607,29.81185],[-97.87746,29.81061],[-97.87666,29.80967],[-97.87847,29.80848],[-97.8779,29.80813],[-97.87689,29.80807],[-97.87704,29.80756],[-97.87746,29.80721],[-97.87697,29.80658],[-97.87669,29.80672],[-97.87518,29.80482],[-97.87542,29.80464],[-97.87444,29.8034],[-97.87768,29.80108],[-97.8752,29.7985],[-97.87194,29.80075],[-97.86903,29.79785],[-97.86797,29.79865],[-97.86547,29.79589],[-97.86848,29.79319],[-97.86203,29.78668],[-97.86044,29.78794],[-97.85831,29.78577],[-97.86023,29.78413],[-97.85827,29.78209],[-97.86643,29.77583],[-97.86305,29.77241],[-97.84486,29.78599],[-97.83843,29.78186],[-97.8389,29.78153],[-97.83811,29.78086],[-97.84624,29.77446],[-97.84537,29.77341],[-97.83567,29.78064],[-97.83687,29.78228],[-97.83833,29.7835],[-97.83739,29.78329],[-97.83615,29.78256],[-97.83547,29.78285],[-97.83375,29.7815],[-97.83265,29.782],[-97.8314,29.78301],[-97.8312,29.78248],[-97.83056,29.7821],[-97.83052,29.78134],[-97.83015,29.78087],[-97.83317,29.77893],[-97.8288,29.7721],[-97.82587,29.76881],[-97.8268,29.76813],[-97.82324,29.76449],[-97.82248,29.76342],[-97.82067,29.7573],[-97.80562,29.76777],[-97.80573,29.76818],[-97.80706,29.76899],[-97.80841,29.7707],[-97.80845,29.77122],[-97.80902,29.77212],[-97.81045,29.7729],[-97.81126,29.77424],[-97.81117,29.7745],[-97.80988,29.77431],[-97.80797,29.77464],[-97.8064,29.77325],[-97.80554,29.77316],[-97.80523,29.77376],[-97.80611,29.77429],[-97.80646,29.77534],[-97.80565,29.77706],[-97.80623,29.77738],[-97.80648,29.77809],[-97.80695,29.77829],[-97.80821,29.77964],[-97.80975,29.77978],[-97.81057,29.78022],[-97.81137,29.78029],[-97.8119,29.77994],[-97.81155,29.7795],[-97.81092,29.77942],[-97.81117,29.77885],[-97.81213,29.77816],[-97.81293,29.77832],[-97.8151,29.78073],[-97.81476,29.78103],[-97.81449,29.78094],[-97.81387,29.78215],[-97.81195,29.78347],[-97.81188,29.78391],[-97.81347,29.78413],[-97.81404,29.78442],[-97.81452,29.7851],[-97.7956,29.79929],[-97.79945,29.80636],[-97.79939,29.80695],[-97.79984,29.80756],[-97.7986,29.81021],[-97.79877,29.81126],[-97.79863,29.81229],[-97.79763,29.813],[-97.79673,29.81412],[-97.79677,29.8148],[-97.79753,29.8159],[-97.79746,29.81735],[-97.79827,29.81881],[-97.79796,29.82027],[-97.79598,29.82221],[-97.79629,29.82283],[-97.79644,29.82445],[-97.79625,29.82549],[-97.79423,29.82654],[-97.79382,29.82712],[-97.79418,29.82827],[-97.79468,29.82871],[-97.79546,29.82874],[-97.7958,29.82915],[-97.79594,29.82996],[-97.79568,29.83065],[-97.79657,29.83343],[-97.79637,29.83384],[-97.79587,29.83408],[-97.79372,29.83445],[-97.79254,29.83501],[-97.79147,29.83518],[-97.78969,29.83684],[-97.78802,29.83746],[-97.78754,29.83832],[-97.78668,29.83818],[-97.78682,29.83878],[-97.7922,29.84432],[-97.79211,29.84469],[-97.79372,29.84957],[-97.79521,29.85211],[-97.79629,29.85339],[-97.79719,29.85401],[-97.79734,29.85472],[-97.79853,29.85635],[-97.79853,29.85727],[-97.79879,29.85791],[-97.79966,29.85921],[-97.80111,29.85933],[-97.80203,29.85866],[-97.80349,29.85834],[-97.80706,29.85945],[-97.80913,29.86152],[-97.80975,29.86167],[-97.81158,29.86297],[-97.81367,29.86587],[-97.80267,29.87315],[-97.80283,29.87332],[-97.8144,29.87369],[-97.81555,29.87293],[-97.81662,29.87385],[-97.83613,29.87453],[-97.84276,29.86943],[-97.84213,29.86733],[-97.84695,29.86374],[-97.84808,29.86485],[-97.85355,29.85937],[-97.85592,29.86169],[-97.8552,29.8626],[-97.86001,29.86756],[-97.86536,29.86331],[-97.86735,29.86418],[-97.86884,29.8631],[-97.88052,29.86532],[-97.87965,29.8636],[-97.8798,29.86309],[-97.8791,29.86074],[-97.87601,29.86055],[-97.87463,29.8599],[-97.87456,29.8595],[-97.87541,29.85854],[-97.8749,29.85759],[-97.87344,29.85637],[-97.87429,29.85575],[-97.87321,29.85318],[-97.87432,29.85197],[-97.86823,29.84555],[-97.88606,29.82888]]]},"properties":{"zip_code":"78655","county":"Caldwell"}}]}