{"type":"FeatureCollection","features":[{"type":"Feature","geometry":{"type":"Polygon","coordinates":[[[-97.23348,30.1702],[-97.23349,30.16984],[-97.23186,30.16842],[-97.2319,30.1686],[-97.22515,30.1747],[-97.22468,30.17443],[-97.22522,30.17361],[-97.22494,30.17275],[-97.22437,30.17228],[-97.22374,30.17266],[-97.22157,30.17085],[-97.22815,30.16532],[-97.21775,30.15648],[-97.22574,30.15174],[-97.22269,30.14885],[-97.22134,30.1487],[-97.22038,30.14938],[-97.21916,30.14947],[-97.21519,30.14727],[-97.21332,30.14663],[-97.21265,30.14516],[-97.21268,30.14198],[-97.21371,30.13706],[-97.21315,30.13471],[-97.21455,30.13458],[-97.21484,30.13416],[-97.21654,30.13354],[-97.21682,30.13309],[-97.21686,30.13234],[-97.21746,30.13232],[-97.2196,30.13105],[-97.22067,30.12897],[-97.22147,30.1288],[-97.2215,30.12857],[-97.22113,30.12826],[-97.22119,30.1275],[-97.22201,30.1261],[-97.22336,30.12279],[-97.22321,30.1206],[-97.22433,30.11925],[-97.22516,30.11696],[-97.22503,30.11618],[-97.22453,30.11579],[-97.22442,30.11531],[-97.22393,30.11515],[-97.22437,30.11452],[-97.22392,30.11393],[-97.22347,30.11382],[-97.22336,30.11294],[-97.22273,30.11201],[-97.2037,30.10779],[-97.19926,30.1228],[-97.19476,30.12288],[-97.19473,30.12125],[-97.18448,30.12151],[-97.18441,30.11338],[-97.18318,30.11347],[-97.17929,30.11441],[-97.17707,30.11534],[-97.17364,30.11701],[-97.16997,30.11984],[-97.16261,30.12291],[-97.15742,30.12347],[-97.15623,30.12417],[-97.15098,30.12592],[-97.1454,30.12656],[-97.13093,30.13138],[-97.12523,30.1276],[-97.12398,30.12809],[-97.12298,30.12818],[-97.11665,30.12733],[-97.11534,30.12743],[-97.11473,30.12778],[-97.11449,30.12932],[-97.11422,30.12964],[-97.11353,30.12993],[-97.10838,30.13071],[-97.10608,30.13139],[-97.10338,30.1326],[-97.10084,30.13263],[-97.10085,30.13308],[-97.08577,30.13342],[-97.08557,30.13369],[-97.08562,30.13731],[-97.08527,30.13754],[-97.0746,30.13776],[-97.06369,30.1217],[-97.06265,30.12046],[-97.06321,30.13802],[-97.05904,30.1381],[-97.0549,30.13783],[-97.04821,30.13795],[-97.05419,30.1598],[-97.04768,30.16049],[-97.04884,30.16235],[-97.04959,30.16231],[-97.05162,30.17094],[-97.04402,30.17223],[-97.04443,30.17357],[-97.04416,30.17428],[-97.04478,30.17598],[-97.04471,30.17647],[-97.04197,30.17753],[-97.04095,30.17695],[-97.03932,30.17726],[-97.03881,30.17763],[-97.03864,30.17839],[-97.03819,30.17899],[-97.035,30.18195],[-97.03375,30.18268],[-97.03357,30.18318],[-97.03208,30.18289],[-97.03193,30.18354],[-97.02842,30.18288],[-97.0212,30.18296],[-97.01172,30.18397],[-97.00906,30.18481],[-97.00836,30.18516],[-97.0075,30.19204],[-97.01592,30.19331],[-97.01502,30.19871],[-97.01864,30.19935],[-97.01907,30.20289],[-97.01813,30.20871],[-97.02674,30.21004],[-97.02847,30.21079],[-97.02788,30.2127],[-97.02563,30.21548],[-97.02356,30.21549],[-97.01949,30.22518],[-97.02074,30.2259],[-97.02171,30.22681],[-97.02492,30.23176],[-97.02925,30.2308],[-97.03148,30.23056],[-97.0351,30.23869],[-97.04047,30.24086],[-97.04324,30.24716],[-97.04521,30.24882],[-97.04778,30.25031],[-97.05033,30.25238],[-97.05287,30.25788],[-97.05343,30.25803],[-97.05687,30.25699],[-97.05772,30.25737],[-97.05822,30.25796],[-97.05884,30.26051],[-97.05836,30.26172],[-97.05918,30.26259],[-97.05923,30.26433],[-97.05817,30.26575],[-97.05699,30.26587],[-97.05662,30.26674],[-97.05429,30.26777],[-97.05363,30.26935],[-97.05366,30.26992],[-97.05463,30.27088],[-97.05463,30.27118],[-97.05355,30.27205],[-97.05437,30.27299],[-97.05445,30.27352],[-97.05402,30.27382],[-97.05358,30.27379],[-97.05207,30.27313],[-97.05096,30.27313],[-97.0503,30.27366],[-97.0499,30.27492],[-97.05043,30.27542],[-97.05302,30.2759],[-97.05413,30.27638],[-97.05458,30.27684],[-97.05492,30.27799],[-97.05576,30.27856],[-97.05531,30.27923],[-97.05544,30.27959],[-97.05708,30.27989],[-97.05708,30.27948],[-97.0575,30.27948],[-97.05843,30.27996],[-97.05864,30.28033],[-97.05856,30.28143],[-97.05959,30.28218],[-97.05919,30.28257],[-97.05837,30.28271],[-97.05813,30.28347],[-97.05827,30.28408],[-97.05956,30.28459],[-97.05951,30.28484],[-97.05832,30.28528],[-97.05834,30.2866],[-97.05908,30.288],[-97.06767,30.28989],[-97.071,30.29126],[-97.07202,30.29218],[-97.07408,30.29554],[-97.07505,30.29624],[-97.07917,30.298],[-97.07974,30.29897],[-97.08176,30.30119],[-97.08258,30.30405],[-97.08331,30.30518],[-97.08479,30.30442],[-97.08666,30.30387],[-97.08659,30.30334],[-97.08601,30.30279],[-97.08759,30.30215],[-97.09313,30.30362],[-97.09406,30.30408],[-97.09688,30.30355],[-97.09778,30.30383],[-97.09807,30.30415],[-97.09841,30.30607],[-97.09915,30.30701],[-97.09992,30.30901],[-97.10071,30.30969],[-97.10541,30.30848],[-97.1084,30.30626],[-97.11022,30.30532],[-97.11165,30.30534],[-97.11531,30.30461],[-97.11568,30.30479],[-97.11613,30.30578],[-97.11759,30.30603],[-97.11822,30.30603],[-97.11893,30.30566],[-97.12171,30.30582],[-97.12469,30.30541],[-97.12466,30.30486],[-97.12551,30.30426],[-97.12566,30.30354],[-97.12541,30.30331],[-97.12571,30.30291],[-97.12527,30.30225],[-97.12604,30.30174],[-97.12696,30.30151],[-97.12739,30.30157],[-97.12844,30.30242],[-97.12872,30.30333],[-97.13138,30.30343],[-97.13229,30.30265],[-97.13215,30.30211],[-97.13284,30.30112],[-97.13395,30.30044],[-97.13493,30.30026],[-97.1355,30.2995],[-97.13532,30.29915],[-97.1359,30.29879],[-97.13584,30.29786],[-97.13648,30.29739],[-97.13626,30.29677],[-97.137,30.29667],[-97.13723,30.29629],[-97.17167,30.31928],[-97.16188,30.2965],[-97.17731,30.29148],[-97.17341,30.28197],[-97.1713,30.27741],[-97.16841,30.27825],[-97.16796,30.27737],[-97.16804,30.27701],[-97.17071,30.27443],[-97.17126,30.27425],[-97.17273,30.27426],[-97.17375,30.27664],[-97.17169,30.27737],[-97.17197,30.27816],[-97.17312,30.27905],[-97.1817,30.27643],[-97.18457,30.27504],[-97.18537,30.27539],[-97.18625,30.27673],[-97.18679,30.2769],[-97.19486,30.26942],[-97.19543,30.26922],[-97.17256,30.25008],[-97.16992,30.24811],[-97.1477,30.22936],[-97.14749,30.22882],[-97.15688,30.22581],[-97.15739,30.22587],[-97.16048,30.22493],[-97.1607,30.22479],[-97.16056,30.22463],[-97.15932,30.22368],[-97.1485,30.21785],[-97.14581,30.21741],[-97.14413,30.21768],[-97.14292,30.21816],[-97.14142,30.21456],[-97.14639,30.21656],[-97.14848,30.21531],[-97.16447,30.2223],[-97.16096,30.22462],[-97.16431,30.23056],[-97.16462,30.23246],[-97.16579,30.23493],[-97.16729,30.23632],[-97.16994,30.23777],[-97.17958,30.22891],[-97.18496,30.23125],[-97.20156,30.2372],[-97.20355,30.23528],[-97.20307,30.23342],[-97.20246,30.23223],[-97.20204,30.23188],[-97.20308,30.23008],[-97.20334,30.22826],[-97.20718,30.2245],[-97.21144,30.22826],[-97.21235,30.23076],[-97.21369,30.23341],[-97.21406,30.23644],[-97.216,30.23822],[-97.21743,30.23558],[-97.21946,30.23349],[-97.22039,30.23123],[-97.21965,30.22861],[-97.21984,30.22764],[-97.21881,30.22509],[-97.2172,30.22397],[-97.21707,30.22352],[-97.21571,30.22214],[-97.21515,30.21954],[-97.21465,30.2186],[-97.2131,30.21757],[-97.21339,30.21659],[-97.21296,30.21621],[-97.21295,30.21408],[-97.21242,30.21306],[-97.21329,30.2111],[-97.21368,30.20948],[-97.21288,30.20762],[-97.21481,30.20633],[-97.21617,30.20489],[-97.2195,30.20334],[-97.22373,30.20057],[-97.22506,30.19941],[-97.22592,30.19918],[-97.22879,30.19954],[-97.2309,30.19833],[-97.23117,30.19762],[-97.23084,30.19414],[-97.23251,30.19211],[-97.23251,30.18616],[-97.23198,30.17224],[-97.23225,30.17112],[-97.23348,30.1702]]]},"properties":{"zip_code":"78659","county":"Bastrop"}}]}