{"type":"FeatureCollection","features":[{"type":"Feature","geometry":{"type":"MultiPolygon","coordinates":[[[[-97.63717,30.39871],[-97.63708,30.39841],[-97.63376,30.39652],[-97.63268,30.39509],[-97.6317,30.39225],[-97.63056,30.39096],[-97.63007,30.39064],[-97.62826,30.39023],[-97.62828,30.38914],[-97.6275,30.38838],[-97.62723,30.38778],[-97.62667,30.38766],[-97.62676,30.38743],[-97.6259,30.38689],[-97.62646,30.38659],[-97.62688,30.38682],[-97.62686,30.38624],[-97.62649,30.38564],[-97.62615,30.38597],[-97.62545,30.38577],[-97.6254,30.38525],[-97.62567,30.38495],[-97.62552,30.38464],[-97.62482,30.38439],[-97.62479,30.38337],[-97.62394,30.38301],[-97.62309,30.38313],[-97.62171,30.38282],[-97.62227,30.38129],[-97.62158,30.38058],[-97.62115,30.38087],[-97.62086,30.38053],[-97.62098,30.38017],[-97.62049,30.37967],[-97.6219,30.3806],[-97.6261,30.37452],[-97.62432,30.3736],[-97.6272,30.36953],[-97.63078,30.36015],[-97.63556,30.35584],[-97.63379,30.35436],[-97.63354,30.35334],[-97.63278,30.35271],[-97.63326,30.35179],[-97.63298,30.35133],[-97.6338,30.35124],[-97.63089,30.35046],[-97.63012,30.34984],[-97.62358,30.3468],[-97.61911,30.35367],[-97.62287,30.35544],[-97.61866,30.36204],[-97.61882,30.3627],[-97.62119,30.36501],[-97.6199,30.36521],[-97.62009,30.3655],[-97.62048,30.36579],[-97.62086,30.36566],[-97.62111,30.36626],[-97.62193,30.36683],[-97.62266,30.36804],[-97.62372,30.36818],[-97.61778,30.37583],[-97.61445,30.37429],[-97.61416,30.37472],[-97.61442,30.3757],[-97.61356,30.37702],[-97.61092,30.3758],[-97.60927,30.37838],[-97.60848,30.37801],[-97.61205,30.37212],[-97.61304,30.36859],[-97.60785,30.36747],[-97.60647,30.3668],[-97.60498,30.36565],[-97.60313,30.36848],[-97.59778,30.36593],[-97.59327,30.37287],[-97.58849,30.37059],[-97.58365,30.36977],[-97.58479,30.36466],[-97.58538,30.36337],[-97.58806,30.3593],[-97.59042,30.36071],[-97.59158,30.36014],[-97.59224,30.36012],[-97.59478,30.3611],[-97.59523,30.36098],[-97.59626,30.3599],[-97.59667,30.35976],[-97.59897,30.36059],[-97.60115,30.36069],[-97.60225,30.36035],[-97.60158,30.35873],[-97.5999,30.35669],[-97.60037,30.35624],[-97.59802,30.35496],[-97.60226,30.34837],[-97.59777,30.34616],[-97.59343,30.35265],[-97.59476,30.34959],[-97.595,30.34781],[-97.5948,30.34594],[-97.59539,30.345],[-97.59383,30.34424],[-97.59174,30.34041],[-97.59939,30.3375],[-97.59939,30.33725],[-97.59129,30.34032],[-97.58613,30.33048],[-97.57449,30.31604],[-97.57208,30.31273],[-97.57046,30.30903],[-97.5699,30.30713],[-97.56951,30.30447],[-97.56903,30.30517],[-97.5687,30.30213],[-97.56948,30.29739],[-97.57048,30.29462],[-97.57015,30.29447],[-97.57113,30.29073],[-97.5717,30.28965],[-97.57278,30.28869],[-97.57481,30.28795],[-97.57793,30.28845],[-97.58358,30.28856],[-97.58008,30.28682],[-97.57864,30.28534],[-97.579,30.28469],[-97.57889,30.28421],[-97.58126,30.28183],[-97.58871,30.27581],[-97.58724,30.27517],[-97.58573,30.27548],[-97.5852,30.27494],[-97.58499,30.27399],[-97.58533,30.27332],[-97.58617,30.27265],[-97.58684,30.27072],[-97.58625,30.26979],[-97.58534,30.26943],[-97.5848,30.26954],[-97.58415,30.27028],[-97.5785,30.27043],[-97.57808,30.26998],[-97.57751,30.26987],[-97.57746,30.26918],[-97.57717,30.2692],[-97.57678,30.26879],[-97.57598,30.26873],[-97.57383,30.26654],[-97.57297,30.26518],[-97.57357,30.26455],[-97.57352,30.26419],[-97.57175,30.26383],[-97.57043,30.26296],[-97.57031,30.26151],[-97.5695,30.26079],[-97.56891,30.26103],[-97.56837,30.25961],[-97.56742,30.259],[-97.56691,30.25957],[-97.56517,30.25951],[-97.56445,30.25885],[-97.56398,30.25808],[-97.56427,30.25717],[-97.56368,30.25644],[-97.56495,30.25505],[-97.56397,30.25148],[-97.56304,30.25123],[-97.56228,30.25026],[-97.56238,30.24932],[-97.55989,30.24883],[-97.5588,30.24908],[-97.55877,30.24849],[-97.55831,30.24806],[-97.55806,30.24811],[-97.5582,30.24757],[-97.55783,30.24716],[-97.55789,30.24683],[-97.55891,30.24689],[-97.55887,30.24731],[-97.56024,30.24701],[-97.56083,30.24559],[-97.56038,30.24498],[-97.55982,30.24469],[-97.55917,30.24537],[-97.55878,30.24531],[-97.55855,30.24411],[-97.55883,30.24403],[-97.55896,30.24364],[-97.55844,30.24298],[-97.55811,30.24145],[-97.55732,30.24131],[-97.55642,30.24065],[-97.55604,30.24104],[-97.55608,30.24199],[-97.55572,30.24253],[-97.55436,30.24288],[-97.55334,30.24275],[-97.55263,30.24302],[-97.55056,30.24226],[-97.55126,30.24125],[-97.55116,30.24059],[-97.54988,30.24039],[-97.54922,30.2412],[-97.54865,30.24135],[-97.54695,30.24081],[-97.54491,30.24087],[-97.54417,30.24031],[-97.54365,30.23903],[-97.5442,30.23691],[-97.5446,30.23629],[-97.54562,30.23583],[-97.54655,30.23587],[-97.54761,30.23556],[-97.54792,30.23505],[-97.54743,30.23449],[-97.54638,30.23437],[-97.54595,30.23272],[-97.54506,30.23208],[-97.54386,30.22975],[-97.54331,30.22773],[-97.54268,30.22702],[-97.54207,30.22674],[-97.54164,30.22611],[-97.54167,30.22525],[-97.53992,30.22599],[-97.53907,30.22579],[-97.53839,30.22528],[-97.53791,30.22443],[-97.53762,30.22193],[-97.53691,30.22111],[-97.53604,30.22063],[-97.53397,30.22011],[-97.53129,30.21973],[-97.52915,30.2186],[-97.52835,30.21853],[-97.52714,30.21879],[-97.5258,30.22017],[-97.52387,30.22122],[-97.52343,30.22208],[-97.52306,30.22365],[-97.52332,30.22718],[-97.52315,30.22812],[-97.5222,30.22893],[-97.52063,30.22928],[-97.51833,30.22916],[-97.51756,30.22857],[-97.51687,30.22698],[-97.51651,30.22492],[-97.51647,30.22179],[-97.51611,30.21906],[-97.51558,30.21699],[-97.51357,30.21188],[-97.51324,30.2105],[-97.51416,30.21023],[-97.51499,30.2096],[-97.51531,30.20867],[-97.51499,30.20703],[-97.51674,30.20621],[-97.51888,30.20621],[-97.52046,30.20704],[-97.52327,30.20744],[-97.52668,30.2066],[-97.52878,30.20543],[-97.52935,30.20439],[-97.52913,30.20362],[-97.52678,30.2022],[-97.52558,30.20031],[-97.52413,30.19913],[-97.52372,30.19836],[-97.52253,30.19785],[-97.521,30.19779],[-97.51801,30.1984],[-97.51554,30.19857],[-97.51334,30.19923],[-97.5127,30.19962],[-97.50938,30.20355],[-97.50653,30.20599],[-97.5041,30.20777],[-97.50143,30.20845],[-97.49963,30.2105],[-97.49531,30.21728],[-97.49561,30.21739],[-97.49635,30.21611],[-97.49669,30.21593],[-97.49873,30.21708],[-97.50047,30.21421],[-97.50169,30.21502],[-97.49967,30.21795],[-97.49652,30.21614],[-97.49338,30.22119],[-97.49168,30.23055],[-97.49201,30.23179],[-97.49257,30.23265],[-97.49196,30.23218],[-97.48985,30.24451],[-97.48843,30.24649],[-97.48766,30.24548],[-97.48649,30.24502],[-97.48629,30.24527],[-97.48638,30.24564],[-97.4857,30.24618],[-97.48468,30.24768],[-97.48426,30.24787],[-97.48422,30.24855],[-97.48348,30.24916],[-97.47383,30.24426],[-97.47317,30.24519],[-97.47379,30.24558],[-97.4735,30.24566],[-97.47277,30.24677],[-97.47129,30.24744],[-97.47076,30.24826],[-97.46995,30.2489],[-97.47288,30.24371],[-97.46454,30.23981],[-97.45593,30.25293],[-97.45287,30.25135],[-97.45177,30.25352],[-97.45112,30.25333],[-97.44954,30.25594],[-97.44994,30.25653],[-97.44709,30.2597],[-97.4476,30.25992],[-97.44542,30.26316],[-97.4476,30.265],[-97.44975,30.26196],[-97.45292,30.26321],[-97.45374,30.26181],[-97.46045,30.26518],[-97.4616,30.26314],[-97.46189,30.26212],[-97.46762,30.26487],[-97.46883,30.26523],[-97.4692,30.26526],[-97.46976,30.26437],[-97.47126,30.26419],[-97.47283,30.26541],[-97.47493,30.26672],[-97.47654,30.2674],[-97.47695,30.26784],[-97.47404,30.27246],[-97.4833,30.27673],[-97.48327,30.2772],[-97.48229,30.27809],[-97.48331,30.27883],[-97.48521,30.27968],[-97.48228,30.28418],[-97.47695,30.28183],[-97.47453,30.28566],[-97.47074,30.28403],[-97.46894,30.28375],[-97.47125,30.2805],[-97.47078,30.27898],[-97.46977,30.27819],[-97.46865,30.27891],[-97.46637,30.2779],[-97.45941,30.28876],[-97.45997,30.28929],[-97.4643,30.29128],[-97.45257,30.30964],[-97.45152,30.31066],[-97.45027,30.31038],[-97.44974,30.31053],[-97.44397,30.31926],[-97.44769,30.31941],[-97.44785,30.31992],[-97.44833,30.32],[-97.44834,30.32095],[-97.44926,30.32097],[-97.44932,30.32001],[-97.45241,30.31996],[-97.45819,30.3222],[-97.46581,30.3241],[-97.47006,30.32368],[-97.47143,30.32381],[-97.47183,30.32424],[-97.47456,30.32441],[-97.47552,30.32813],[-97.47729,30.33022],[-97.48008,30.33093],[-97.48111,30.33503],[-97.48203,30.33762],[-97.48177,30.33927],[-97.48138,30.33908],[-97.47805,30.34435],[-97.47914,30.34491],[-97.47547,30.35074],[-97.47688,30.3514],[-97.46746,30.3516],[-97.46537,30.35518],[-97.46416,30.35461],[-97.46603,30.35161],[-97.44474,30.35159],[-97.42562,30.35241],[-97.42475,30.35346],[-97.42332,30.35277],[-97.42321,30.35292],[-97.43139,30.35668],[-97.43221,30.35544],[-97.43737,30.35839],[-97.42855,30.37165],[-97.44095,30.37724],[-97.44245,30.37724],[-97.44718,30.3762],[-97.44888,30.37644],[-97.45948,30.38141],[-97.46071,30.38177],[-97.46086,30.38311],[-97.46064,30.38431],[-97.45478,30.39349],[-97.43782,30.38519],[-97.41936,30.41484],[-97.46123,30.41391],[-97.46035,30.41518],[-97.47396,30.42166],[-97.4775,30.41614],[-97.48207,30.41815],[-97.48316,30.41662],[-97.48346,30.41652],[-97.50176,30.42538],[-97.50405,30.42184],[-97.50713,30.41804],[-97.50981,30.41397],[-97.5103,30.41433],[-97.51149,30.41619],[-97.51098,30.41738],[-97.51131,30.41816],[-97.51241,30.4192],[-97.51419,30.41995],[-97.51388,30.42054],[-97.51355,30.4206],[-97.51351,30.42101],[-97.51376,30.42136],[-97.5141,30.421],[-97.51439,30.42132],[-97.51377,30.42214],[-97.51386,30.42282],[-97.51436,30.42353],[-97.5151,30.42411],[-97.51555,30.42415],[-97.51605,30.42387],[-97.51793,30.42454],[-97.51742,30.42574],[-97.51762,30.42675],[-97.51738,30.42797],[-97.51646,30.42919],[-97.5168,30.42969],[-97.51707,30.42968],[-97.51757,30.43014],[-97.51827,30.4302],[-97.51932,30.43237],[-97.51982,30.4328],[-97.51951,30.43363],[-97.52017,30.43473],[-97.52021,30.43559],[-97.51934,30.43695],[-97.52042,30.43759],[-97.52036,30.43837],[-97.52067,30.43918],[-97.52103,30.43929],[-97.52102,30.43992],[-97.52149,30.44063],[-97.51995,30.44018],[-97.51757,30.44384],[-97.50904,30.43996],[-97.50719,30.44262],[-97.51063,30.44452],[-97.50417,30.45471],[-97.50173,30.45436],[-97.49823,30.46983],[-97.49963,30.47007],[-97.49877,30.47357],[-97.49833,30.47662],[-97.50135,30.47729],[-97.50137,30.47792],[-97.50255,30.48057],[-97.50479,30.4811],[-97.51086,30.48526],[-97.52236,30.47638],[-97.52397,30.47218],[-97.52712,30.47465],[-97.52828,30.46874],[-97.52437,30.46797],[-97.52543,30.46173],[-97.52646,30.45991],[-97.53297,30.44979],[-97.53575,30.45119],[-97.54352,30.43927],[-97.54651,30.44083],[-97.54676,30.44043],[-97.54607,30.43986],[-97.54674,30.43865],[-97.5466,30.4383],[-97.54699,30.43801],[-97.54706,30.43696],[-97.54736,30.43624],[-97.54822,30.43579],[-97.54825,30.43531],[-97.54888,30.43502],[-97.54954,30.43531],[-97.54955,30.43577],[-97.55032,30.43591],[-97.55071,30.43567],[-97.55089,30.4352],[-97.55151,30.43518],[-97.55228,30.43427],[-97.55274,30.43407],[-97.55284,30.43359],[-97.55227,30.4329],[-97.55087,30.43277],[-97.5505,30.43246],[-97.55069,30.43212],[-97.55041,30.43198],[-97.55055,30.43159],[-97.55097,30.43167],[-97.55068,30.43117],[-97.55087,30.43094],[-97.55153,30.43072],[-97.55192,30.43103],[-97.55233,30.4308],[-97.55247,30.43018],[-97.55224,30.4296],[-97.55059,30.42912],[-97.5418,30.42504],[-97.54079,30.42524],[-97.53917,30.42777],[-97.53865,30.42808],[-97.53804,30.42801],[-97.53286,30.42552],[-97.53196,30.42695],[-97.53179,30.42687],[-97.53204,30.42575],[-97.53171,30.42369],[-97.53108,30.42326],[-97.53125,30.423],[-97.53102,30.42227],[-97.53118,30.42212],[-97.53067,30.42144],[-97.53099,30.42121],[-97.53068,30.42084],[-97.53002,30.42079],[-97.53004,30.42055],[-97.53028,30.42051],[-97.53006,30.4202],[-97.52932,30.4199],[-97.52873,30.41899],[-97.52832,30.41909],[-97.52795,30.41873],[-97.52802,30.41837],[-97.52724,30.41833],[-97.52686,30.41804],[-97.52684,30.41766],[-97.5265,30.41739],[-97.52752,30.41681],[-97.52776,30.41626],[-97.52717,30.41624],[-97.52676,30.41566],[-97.52673,30.41468],[-97.52635,30.41439],[-97.5257,30.41466],[-97.52453,30.41419],[-97.52395,30.41428],[-97.52364,30.41379],[-97.52325,30.41403],[-97.52305,30.4139],[-97.5266,30.40873],[-97.53688,30.41357],[-97.53857,30.41083],[-97.53825,30.41065],[-97.5404,30.407],[-97.54141,30.40748],[-97.55104,30.39202],[-97.56843,30.40045],[-97.56921,30.399],[-97.57617,30.40222],[-97.57772,30.39976],[-97.57844,30.40005],[-97.58188,30.40183],[-97.58316,30.40629],[-97.58567,30.40236],[-97.59391,30.40626],[-97.58951,30.41309],[-97.59496,30.41575],[-97.59544,30.41724],[-97.59319,30.42065],[-97.59373,30.42092],[-97.59662,30.41655],[-97.6005,30.41829],[-97.6015,30.41672],[-97.60427,30.41805],[-97.60468,30.41783],[-97.60446,30.41619],[-97.60198,30.41638],[-97.60221,30.41408],[-97.6019,30.41302],[-97.60112,30.4128],[-97.59985,30.41293],[-97.59995,30.41204],[-97.60058,30.41081],[-97.60019,30.41001],[-97.60078,30.40963],[-97.60199,30.40986],[-97.60218,30.40955],[-97.60207,30.40886],[-97.60153,30.40834],[-97.60089,30.40833],[-97.59935,30.40758],[-97.59862,30.40765],[-97.59835,30.40746],[-97.59823,30.40627],[-97.59893,30.40549],[-97.59941,30.40528],[-97.60071,30.4059],[-97.60116,30.40562],[-97.60091,30.40548],[-97.60098,30.4038],[-97.60035,30.40382],[-97.59979,30.40309],[-97.59952,30.40352],[-97.59882,30.4032],[-97.59945,30.40197],[-97.59997,30.40209],[-97.60028,30.40135],[-97.6005,30.4015],[-97.60073,30.40134],[-97.60073,30.40076],[-97.59951,30.40037],[-97.59926,30.40055],[-97.598,30.39995],[-97.59885,30.39785],[-97.59799,30.39762],[-97.59737,30.39794],[-97.59647,30.39762],[-97.59644,30.39697],[-97.59713,30.39667],[-97.59724,30.39625],[-97.596,30.39581],[-97.59561,30.39596],[-97.59562,30.39636],[-97.59527,30.39646],[-97.5949,30.39619],[-97.59415,30.3969],[-97.59371,30.39688],[-97.5935,30.39657],[-97.59429,30.39599],[-97.60159,30.38419],[-97.60243,30.38334],[-97.60298,30.3842],[-97.60414,30.38414],[-97.60509,30.3846],[-97.60597,30.38571],[-97.60612,30.38637],[-97.60757,30.38783],[-97.60765,30.38821],[-97.60713,30.38904],[-97.60724,30.38965],[-97.6092,30.39132],[-97.60948,30.39191],[-97.61387,30.3944],[-97.61414,30.39397],[-97.61193,30.39295],[-97.61616,30.38633],[-97.62735,30.3918],[-97.62779,30.39234],[-97.62822,30.39362],[-97.62884,30.39434],[-97.63203,30.396],[-97.63291,30.3969],[-97.63328,30.39785],[-97.63356,30.4005],[-97.63401,30.4013],[-97.63464,30.40183],[-97.63506,30.40203],[-97.63717,30.39871]]],[[[-97.61061,30.34263],[-97.60714,30.34089],[-97.60231,30.34827],[-97.60586,30.35008],[-97.61061,30.34263]]]]},"properties":{"zip_code":"78653","county":"Travis"}}]}