{"type":"FeatureCollection","features":[{"type":"Feature","geometry":{"type":"Polygon","coordinates":[[[-97.27382,30.23212],[-97.274,30.23192],[-97.27078,30.22912],[-97.26325,30.22306],[-97.25554,30.21627],[-97.23103,30.19675],[-97.23117,30.19762],[-97.2309,30.19833],[-97.22879,30.19954],[-97.22592,30.19918],[-97.22506,30.19941],[-97.22373,30.20057],[-97.2195,30.20334],[-97.21617,30.20489],[-97.21481,30.20633],[-97.21288,30.20762],[-97.21368,30.20948],[-97.21329,30.2111],[-97.21242,30.21306],[-97.21295,30.21408],[-97.21296,30.21621],[-97.21339,30.21659],[-97.2131,30.21757],[-97.21465,30.2186],[-97.21515,30.21954],[-97.21571,30.22214],[-97.21707,30.22352],[-97.2172,30.22397],[-97.21881,30.22509],[-97.21984,30.22764],[-97.21965,30.22861],[-97.22039,30.23123],[-97.21946,30.23349],[-97.21743,30.23558],[-97.216,30.23822],[-97.21406,30.23644],[-97.21369,30.23341],[-97.21235,30.23076],[-97.21144,30.22826],[-97.20718,30.2245],[-97.20334,30.22826],[-97.20308,30.23008],[-97.20204,30.23188],[-97.20246,30.23223],[-97.20307,30.23342],[-97.20355,30.23528],[-97.20156,30.2372],[-97.18496,30.23125],[-97.17958,30.22891],[-97.16994,30.23777],[-97.16729,30.23632],[-97.16579,30.23493],[-97.16462,30.23246],[-97.16431,30.23056],[-97.16096,30.22462],[-97.16447,30.2223],[-97.14848,30.21531],[-97.14639,30.21656],[-97.14142,30.21456],[-97.14292,30.21816],[-97.14413,30.21768],[-97.14581,30.21741],[-97.1485,30.21785],[-97.15932,30.22368],[-97.16056,30.22463],[-97.1607,30.22479],[-97.16048,30.22493],[-97.15739,30.22587],[-97.15688,30.22581],[-97.14749,30.22882],[-97.1477,30.22936],[-97.16992,30.24811],[-97.17256,30.25008],[-97.19543,30.26922],[-97.19486,30.26942],[-97.18679,30.2769],[-97.18625,30.27673],[-97.18537,30.27539],[-97.18457,30.27504],[-97.1817,30.27643],[-97.17312,30.27905],[-97.17205,30.27824],[-97.17166,30.27755],[-97.17181,30.27726],[-97.17375,30.27664],[-97.17273,30.27426],[-97.17071,30.27443],[-97.16829,30.2766],[-97.16796,30.27737],[-97.16841,30.27825],[-97.1713,30.27741],[-97.17341,30.28197],[-97.17731,30.29148],[-97.16188,30.2965],[-97.17167,30.31928],[-97.19168,30.33262],[-97.19296,30.33787],[-97.1849,30.34063],[-97.18455,30.34027],[-97.17774,30.34236],[-97.17566,30.33878],[-97.16563,30.34173],[-97.16708,30.34562],[-97.16119,30.34753],[-97.16427,30.35421],[-97.1685,30.35295],[-97.16962,30.3561],[-97.16724,30.35677],[-97.16944,30.36168],[-97.16995,30.36205],[-97.15727,30.36605],[-97.16123,30.37534],[-97.15852,30.37672],[-97.1608,30.38226],[-97.1594,30.38337],[-97.15972,30.38408],[-97.15994,30.38725],[-97.16667,30.38527],[-97.17461,30.3839],[-97.17661,30.38424],[-97.17908,30.38609],[-97.18064,30.3867],[-97.18223,30.38665],[-97.18539,30.38567],[-97.1884,30.39265],[-97.18934,30.39813],[-97.19151,30.40318],[-97.19293,30.40209],[-97.19531,30.4014],[-97.19605,30.40094],[-97.19753,30.4011],[-97.19901,30.40268],[-97.20002,30.40458],[-97.20021,30.40738],[-97.20074,30.40822],[-97.20071,30.40955],[-97.20134,30.40994],[-97.2032,30.40985],[-97.20753,30.40691],[-97.2102,30.40616],[-97.21192,30.40638],[-97.21662,30.40844],[-97.21702,30.40881],[-97.21721,30.40982],[-97.21805,30.41064],[-97.21991,30.41227],[-97.22138,30.41284],[-97.2221,30.41369],[-97.23116,30.41081],[-97.23086,30.41007],[-97.23123,30.40954],[-97.23043,30.40774],[-97.23058,30.40741],[-97.23693,30.40535],[-97.23671,30.40394],[-97.23503,30.4],[-97.23549,30.39912],[-97.23529,30.39636],[-97.23229,30.38908],[-97.23027,30.38458],[-97.22916,30.38477],[-97.22816,30.38447],[-97.22758,30.38393],[-97.22674,30.38208],[-97.22674,30.38149],[-97.2277,30.37955],[-97.22777,30.37871],[-97.22689,30.37684],[-97.22597,30.37574],[-97.22593,30.37512],[-97.23587,30.38028],[-97.23784,30.38088],[-97.24105,30.38095],[-97.25707,30.37565],[-97.25821,30.37494],[-97.25967,30.37355],[-97.26306,30.36827],[-97.23864,30.35652],[-97.24203,30.35418],[-97.24871,30.3438],[-97.24172,30.34033],[-97.2439,30.33657],[-97.24491,30.3367],[-97.24872,30.33379],[-97.25002,30.33354],[-97.25149,30.33275],[-97.25294,30.33289],[-97.25342,30.33236],[-97.25359,30.33151],[-97.25465,30.33119],[-97.25535,30.3303],[-97.25583,30.32913],[-97.25681,30.32848],[-97.25358,30.32543],[-97.25457,30.32385],[-97.25873,30.32409],[-97.26788,30.32823],[-97.26786,30.32767],[-97.26566,30.32617],[-97.26601,30.32338],[-97.26591,30.32266],[-97.27018,30.31665],[-97.27231,30.31303],[-97.27208,30.31057],[-97.27082,30.30923],[-97.26838,30.30745],[-97.26836,30.30722],[-97.26762,30.30679],[-97.26422,30.30362],[-97.26379,30.3028],[-97.26395,30.30208],[-97.26939,30.29702],[-97.26994,30.29697],[-97.27009,30.29665],[-97.26711,30.2963],[-97.26147,30.29507],[-97.26145,30.29409],[-97.262,30.29313],[-97.2626,30.29266],[-97.26348,30.29094],[-97.26453,30.29046],[-97.26505,30.28982],[-97.26482,30.28863],[-97.26561,30.28727],[-97.26568,30.28606],[-97.26632,30.28528],[-97.2661,30.28432],[-97.26665,30.28369],[-97.26736,30.28347],[-97.26724,30.28293],[-97.26745,30.28242],[-97.26723,30.28208],[-97.26746,30.2818],[-97.26514,30.28061],[-97.26029,30.2764],[-97.2633,30.27375],[-97.26095,30.27153],[-97.25623,30.26807],[-97.24935,30.27422],[-97.24736,30.27262],[-97.24834,30.27142],[-97.24892,30.27021],[-97.25123,30.26062],[-97.25192,30.2612],[-97.26001,30.24957],[-97.2598,30.24942],[-97.26641,30.24101],[-97.27382,30.23212]]]},"properties":{"zip_code":"78650","county":"Bastrop"}}]}