{"type":"FeatureCollection","features":[{"type":"Feature","geometry":{"type":"Polygon","coordinates":[[[-97.91551,30.15487],[-97.91537,30.14254],[-97.91519,30.14179],[-97.91285,30.14185],[-97.91273,30.13259],[-97.90399,30.13253],[-97.9039,30.13394],[-97.89412,30.13416],[-97.89444,30.13352],[-97.90026,30.13142],[-97.90138,30.13048],[-97.90179,30.12982],[-97.90566,30.129],[-97.90668,30.12837],[-97.90698,30.12749],[-97.90716,30.12431],[-97.87942,30.12465],[-97.87988,30.12837],[-97.87502,30.12797],[-97.86851,30.12815],[-97.86847,30.13337],[-97.86745,30.13338],[-97.86736,30.13679],[-97.86656,30.13688],[-97.82095,30.10414],[-97.81931,30.10382],[-97.81869,30.10392],[-97.81768,30.10515],[-97.81763,30.10377],[-97.81828,30.10352],[-97.81775,30.1024],[-97.81616,30.10243],[-97.8146,30.10191],[-97.81345,30.10402],[-97.8114,30.10631],[-97.81174,30.12544],[-97.81249,30.12761],[-97.81187,30.13066],[-97.81093,30.13198],[-97.81041,30.13325],[-97.80772,30.13259],[-97.80708,30.13285],[-97.80659,30.13516],[-97.8038,30.13882],[-97.80356,30.13961],[-97.80156,30.14283],[-97.80966,30.14487],[-97.81042,30.1448],[-97.81118,30.14437],[-97.81334,30.14206],[-97.81889,30.14188],[-97.82364,30.14066],[-97.8303,30.14056],[-97.83063,30.13955],[-97.83161,30.13981],[-97.8314,30.14058],[-97.83779,30.14045],[-97.84067,30.14148],[-97.84265,30.1427],[-97.84378,30.1427],[-97.84367,30.14323],[-97.84391,30.14359],[-97.84542,30.14338],[-97.84627,30.14362],[-97.84699,30.14444],[-97.84694,30.14258],[-97.84749,30.14204],[-97.84661,30.14103],[-97.84725,30.14045],[-97.84814,30.14071],[-97.84931,30.14068],[-97.84962,30.14037],[-97.84969,30.13979],[-97.85072,30.13959],[-97.85337,30.14026],[-97.85544,30.14142],[-97.8574,30.14122],[-97.85859,30.14169],[-97.85973,30.14262],[-97.86095,30.14316],[-97.86172,30.144],[-97.86161,30.14473],[-97.86099,30.14566],[-97.86181,30.14613],[-97.86685,30.14347],[-97.86833,30.14623],[-97.87032,30.14878],[-97.87027,30.14935],[-97.87077,30.14926],[-97.87395,30.15234],[-97.87934,30.15205],[-97.87989,30.15226],[-97.88154,30.15394],[-97.88352,30.15147],[-97.88352,30.14907],[-97.90466,30.1643],[-97.9049,30.1643],[-97.90455,30.16409],[-97.91551,30.15487]]]},"properties":{"zip_code":"78652","county":"Travis"}}]}