{"type":"FeatureCollection","features":[{"type":"Feature","geometry":{"type":"Polygon","coordinates":[[[-98.41375,30.58553],[-98.41371,30.58378],[-98.41335,30.58224],[-98.41243,30.58007],[-98.41216,30.57784],[-98.41115,30.57464],[-98.4106,30.57359],[-98.40817,30.56967],[-98.40536,30.56616],[-98.40338,30.56426],[-98.40227,30.56377],[-98.39991,30.5636],[-98.39754,30.56408],[-98.3902,30.56779],[-98.3863,30.56883],[-98.38239,30.57049],[-98.37595,30.57389],[-98.3732,30.5745],[-98.37031,30.57444],[-98.36733,30.57355],[-98.36606,30.57292],[-98.36429,30.57159],[-98.35198,30.55839],[-98.35198,30.55808],[-98.34253,30.55573],[-98.33926,30.55554],[-98.3377,30.55589],[-98.33616,30.55719],[-98.33276,30.55944],[-98.32775,30.56457],[-98.32586,30.56609],[-98.32388,30.56691],[-98.32273,30.56695],[-98.32109,30.56665],[-98.31686,30.56477],[-98.31502,30.5629],[-98.30933,30.55893],[-98.3004,30.5547],[-98.29482,30.55326],[-98.2915,30.55293],[-98.28905,30.55306],[-98.28602,30.55561],[-98.28479,30.55713],[-98.28407,30.55605],[-98.28872,30.55085],[-98.29094,30.54956],[-98.29091,30.54526],[-98.30042,30.54517],[-98.30063,30.54563],[-98.30267,30.54515],[-98.30238,30.52656],[-98.30504,30.52656],[-98.30506,30.51896],[-98.30547,30.51765],[-98.3078,30.51533],[-98.31107,30.5152],[-98.31222,30.51339],[-98.3118,30.51328],[-98.31188,30.51312],[-98.31233,30.51324],[-98.31286,30.51242],[-98.31202,30.51204],[-98.31307,30.51041],[-98.31561,30.50936],[-98.31559,30.50733],[-98.31828,30.50596],[-98.31846,30.50526],[-98.31824,30.50472],[-98.32191,30.50461],[-98.32149,30.49747],[-98.32127,30.48531],[-98.32299,30.4852],[-98.32307,30.48239],[-98.32118,30.48211],[-98.32088,30.47801],[-98.26768,30.46375],[-98.2503,30.45945],[-98.24946,30.45889],[-98.22616,30.45275],[-98.22606,30.45657],[-98.23069,30.45816],[-98.23065,30.46772],[-98.24385,30.46776],[-98.24391,30.47418],[-98.24615,30.47452],[-98.24698,30.47427],[-98.24681,30.47559],[-98.24711,30.47682],[-98.24774,30.47807],[-98.24924,30.4793],[-98.25003,30.48029],[-98.25104,30.48264],[-98.25063,30.48346],[-98.25321,30.48765],[-98.25267,30.48859],[-98.25135,30.48983],[-98.25008,30.49047],[-98.24719,30.4915],[-98.24398,30.49169],[-98.24098,30.49232],[-98.24014,30.49311],[-98.25038,30.49424],[-98.26144,30.49752],[-98.26375,30.4984],[-98.26344,30.49867],[-98.26226,30.49892],[-98.26118,30.49839],[-98.2597,30.4981],[-98.25812,30.49699],[-98.25738,30.49675],[-98.25584,30.497],[-98.25439,30.4968],[-98.25207,30.4977],[-98.25083,30.49743],[-98.2496,30.49754],[-98.2485,30.49708],[-98.24562,30.49911],[-98.24509,30.49986],[-98.24371,30.49925],[-98.2431,30.49928],[-98.24272,30.49992],[-98.24264,30.5011],[-98.24227,30.50157],[-98.24153,30.50205],[-98.24016,30.50196],[-98.23978,30.50326],[-98.23621,30.50675],[-98.23516,30.50882],[-98.23479,30.51017],[-98.23481,30.51302],[-98.23538,30.51561],[-98.23539,30.51675],[-98.23714,30.51953],[-98.23713,30.52094],[-98.23662,30.52139],[-98.23455,30.5218],[-98.23378,30.52153],[-98.2327,30.52042],[-98.23179,30.5199],[-98.23091,30.51997],[-98.22995,30.52068],[-98.2293,30.52214],[-98.22939,30.52515],[-98.22844,30.52815],[-98.22835,30.52964],[-98.22894,30.53114],[-98.22874,30.53222],[-98.22827,30.53251],[-98.22632,30.5324],[-98.22383,30.53269],[-98.2224,30.53324],[-98.22236,30.53409],[-98.22381,30.537],[-98.22308,30.53891],[-98.22286,30.53893],[-98.22031,30.53641],[-98.2186,30.53518],[-98.2175,30.53472],[-98.21658,30.53482],[-98.21276,30.53335],[-98.21131,30.53364],[-98.21045,30.53492],[-98.20854,30.53483],[-98.20628,30.53538],[-98.20005,30.53494],[-98.19543,30.53493],[-98.19614,30.53438],[-98.19579,30.53279],[-98.19588,30.53249],[-98.19636,30.53265],[-98.19601,30.5323],[-98.19564,30.53239],[-98.19548,30.53286],[-98.19533,30.53374],[-98.19573,30.53416],[-98.19534,30.53462],[-98.19443,30.5342],[-98.19212,30.53743],[-98.19027,30.53863],[-98.18907,30.53901],[-98.18868,30.53885],[-98.18774,30.53669],[-98.18633,30.53526],[-98.18575,30.53553],[-98.18521,30.53492],[-98.18314,30.53381],[-98.18143,30.53327],[-98.18131,30.53301],[-98.17966,30.53277],[-98.17904,30.53241],[-98.17869,30.53247],[-98.17793,30.53332],[-98.17598,30.5359],[-98.17394,30.53662],[-98.17261,30.53646],[-98.17097,30.53555],[-98.17036,30.53452],[-98.17099,30.53342],[-98.17134,30.53222],[-98.17119,30.53027],[-98.17081,30.52945],[-98.17002,30.52933],[-98.16757,30.52629],[-98.16677,30.5257],[-98.16393,30.52455],[-98.16121,30.5241],[-98.15944,30.52322],[-98.16044,30.52247],[-98.15959,30.52267],[-98.15913,30.52193],[-98.15909,30.52284],[-98.15848,30.52268],[-98.15487,30.52303],[-98.15402,30.52274],[-98.15399,30.52246],[-98.15455,30.52189],[-98.15428,30.52168],[-98.15376,30.522],[-98.15423,30.52176],[-98.15434,30.52195],[-98.15377,30.52244],[-98.15413,30.52316],[-98.15397,30.52323],[-98.14939,30.52443],[-98.14636,30.52439],[-98.14497,30.52402],[-98.14481,30.52366],[-98.14429,30.5237],[-98.14376,30.52312],[-98.14311,30.52312],[-98.143,30.5227],[-98.14337,30.52203],[-98.14387,30.5217],[-98.14299,30.52185],[-98.14251,30.52155],[-98.1425,30.52116],[-98.14224,30.52192],[-98.14262,30.52231],[-98.14253,30.52275],[-98.1407,30.52284],[-98.13916,30.52486],[-98.13748,30.52622],[-98.13553,30.52868],[-98.13462,30.52937],[-98.13383,30.53077],[-98.13322,30.5306],[-98.13338,30.53173],[-98.13183,30.53365],[-98.13159,30.53372],[-98.13165,30.53345],[-98.13116,30.53306],[-98.13153,30.53347],[-98.13137,30.5344],[-98.13003,30.53586],[-98.12919,30.53638],[-98.12755,30.53674],[-98.12576,30.53642],[-98.12597,30.53603],[-98.1251,30.53434],[-98.12493,30.53272],[-98.12423,30.53141],[-98.12423,30.53034],[-98.1249,30.5299],[-98.12419,30.52991],[-98.12391,30.52947],[-98.12161,30.52331],[-98.12258,30.52156],[-98.12315,30.52113],[-98.12336,30.52113],[-98.12323,30.5223],[-98.12378,30.52219],[-98.12394,30.52275],[-98.12427,30.52257],[-98.12528,30.52126],[-98.12529,30.51922],[-98.131,30.5168],[-98.13223,30.51589],[-98.13321,30.51473],[-98.13373,30.51335],[-98.13348,30.51029],[-98.1312,30.50225],[-98.13089,30.49758],[-98.1304,30.49609],[-98.12951,30.49486],[-98.12764,30.49037],[-98.12588,30.48799],[-98.12541,30.48851],[-98.12313,30.48704],[-98.12342,30.48648],[-98.12311,30.48472],[-98.12089,30.48502],[-98.11817,30.48479],[-98.11372,30.48558],[-98.11056,30.49091],[-98.10828,30.49358],[-98.10592,30.49534],[-98.10318,30.49669],[-98.10086,30.49746],[-98.09778,30.49806],[-98.09779,30.49744],[-98.09253,30.49803],[-98.08815,30.49757],[-98.08325,30.49642],[-98.08242,30.49613],[-98.08081,30.49506],[-98.07991,30.49389],[-98.07943,30.49261],[-98.07965,30.48957],[-98.08034,30.48824],[-98.08258,30.48535],[-98.09108,30.47597],[-98.09149,30.47498],[-98.09109,30.47239],[-98.08967,30.46925],[-98.08812,30.4672],[-98.08564,30.46544],[-98.08242,30.46408],[-98.07537,30.46301],[-98.0656,30.46285],[-98.06252,30.46245],[-98.05999,30.46103],[-98.05717,30.45879],[-98.05528,30.45652],[-98.05425,30.45325],[-98.05399,30.45182],[-98.05419,30.45091],[-98.05605,30.44888],[-98.061,30.44533],[-98.06219,30.44403],[-98.06328,30.44199],[-98.06199,30.43741],[-98.06087,30.43527],[-98.05936,30.43392],[-98.05778,30.43317],[-98.05589,30.433],[-98.054,30.43332],[-98.05064,30.43511],[-98.04069,30.44292],[-98.03629,30.44768],[-98.03157,30.45504],[-98.02904,30.45965],[-98.02791,30.46314],[-98.02698,30.46735],[-98.02641,30.4684],[-98.02474,30.47399],[-98.02378,30.47626],[-98.02223,30.47808],[-98.02072,30.47941],[-98.0177,30.48061],[-98.01216,30.48058],[-98.00955,30.48001],[-98.01019,30.48032],[-98.00826,30.48309],[-98.00732,30.48266],[-98.00743,30.48324],[-98.00552,30.4849],[-98.00284,30.48838],[-97.99952,30.49384],[-97.99988,30.49678],[-97.99953,30.49789],[-97.99957,30.49895],[-98.00247,30.50425],[-98.00154,30.50396],[-98.00033,30.50422],[-97.99978,30.50476],[-97.99878,30.50669],[-97.99727,30.50726],[-97.99611,30.50721],[-97.9931,30.50571],[-97.9821,30.52236],[-98.01948,30.54008],[-98.01184,30.55178],[-98.0537,30.57214],[-98.05335,30.57302],[-98.05425,30.57436],[-98.05584,30.57557],[-98.05753,30.57579],[-98.05967,30.57749],[-98.06198,30.58087],[-98.06391,30.58242],[-98.06404,30.58282],[-98.06347,30.58379],[-98.06268,30.58637],[-98.06245,30.58813],[-98.06308,30.58972],[-98.06441,30.59039],[-98.06474,30.59102],[-98.06592,30.59153],[-98.0667,30.59284],[-98.05479,30.61502],[-98.05549,30.61473],[-98.05565,30.61401],[-98.05683,30.61212],[-98.06048,30.61263],[-98.06317,30.61398],[-98.06308,30.617],[-98.06356,30.61744],[-98.06485,30.61689],[-98.06668,30.6187],[-98.0675,30.61868],[-98.06922,30.61925],[-98.07282,30.61873],[-98.0732,30.61896],[-98.07338,30.61988],[-98.07404,30.62049],[-98.07687,30.61816],[-98.08333,30.6091],[-98.08504,30.60483],[-98.08582,30.60376],[-98.08705,30.60302],[-98.09093,30.60223],[-98.09437,30.60025],[-98.09589,30.59971],[-98.0963,30.59971],[-98.09846,30.60204],[-98.09986,30.60286],[-98.10062,30.60446],[-98.10172,30.60546],[-98.10237,30.60562],[-98.10497,30.60492],[-98.10778,30.60798],[-98.1184,30.61317],[-98.12802,30.60671],[-98.12977,30.60764],[-98.13097,30.61054],[-98.12907,30.61443],[-98.1581,30.6283],[-98.15898,30.62698],[-98.15952,30.62797],[-98.16083,30.62923],[-98.16298,30.63034],[-98.16329,30.63124],[-98.16355,30.6341],[-98.16312,30.63507],[-98.16234,30.63594],[-98.16023,30.63637],[-98.15999,30.63745],[-98.16028,30.63807],[-98.16194,30.63956],[-98.16331,30.64141],[-98.16323,30.64232],[-98.16215,30.64335],[-98.16328,30.64422],[-98.16416,30.64472],[-98.16679,30.64516],[-98.16775,30.64585],[-98.16943,30.64657],[-98.17089,30.64779],[-98.17429,30.64901],[-98.17831,30.65101],[-98.17892,30.65102],[-98.18117,30.65005],[-98.18247,30.65006],[-98.18387,30.65073],[-98.18622,30.65129],[-98.18776,30.65204],[-98.18873,30.65293],[-98.19489,30.64344],[-98.19899,30.64477],[-98.19816,30.64998],[-98.19596,30.64917],[-98.19801,30.65737],[-98.20153,30.65818],[-98.20776,30.65661],[-98.20941,30.66273],[-98.21691,30.66109],[-98.21503,30.65456],[-98.22161,30.65755],[-98.22279,30.65567],[-98.22682,30.65478],[-98.2259,30.65236],[-98.22646,30.65116],[-98.22866,30.64862],[-98.23176,30.64168],[-98.23336,30.63889],[-98.23374,30.63734],[-98.23362,30.63671],[-98.22961,30.63275],[-98.22963,30.63231],[-98.23446,30.63564],[-98.23653,30.63901],[-98.23754,30.642],[-98.23744,30.64509],[-98.2371,30.6457],[-98.23661,30.64612],[-98.23218,30.64766],[-98.23118,30.6482],[-98.2304,30.64904],[-98.23004,30.65011],[-98.22929,30.65622],[-98.22946,30.66016],[-98.22888,30.66405],[-98.22917,30.66496],[-98.23213,30.66907],[-98.23284,30.66929],[-98.23659,30.66923],[-98.24028,30.67139],[-98.24221,30.67355],[-98.24365,30.67677],[-98.24447,30.6773],[-98.24575,30.67752],[-98.24659,30.67814],[-98.24934,30.68304],[-98.25259,30.68424],[-98.255,30.68404],[-98.2548,30.67945],[-98.25662,30.65406],[-98.2586,30.65337],[-98.26013,30.65318],[-98.26273,30.65335],[-98.26623,30.65414],[-98.27036,30.65333],[-98.2856,30.66357],[-98.28661,30.66393],[-98.28695,30.66441],[-98.28671,30.66599],[-98.28765,30.66706],[-98.29063,30.66696],[-98.2977,30.67171],[-98.29721,30.67243],[-98.29716,30.67303],[-98.29765,30.67339],[-98.29651,30.67486],[-98.29672,30.6752],[-98.29813,30.67586],[-98.29881,30.677],[-98.29999,30.67752],[-98.30047,30.67927],[-98.30507,30.67158],[-98.30665,30.67151],[-98.3079,30.67274],[-98.30966,30.67229],[-98.31155,30.67269],[-98.31294,30.67328],[-98.31375,30.67408],[-98.31534,30.67426],[-98.31785,30.67619],[-98.31892,30.67769],[-98.31643,30.67071],[-98.32469,30.67469],[-98.32459,30.67519],[-98.3426,30.68362],[-98.34606,30.68347],[-98.34922,30.68454],[-98.351,30.68575],[-98.35133,30.68652],[-98.35272,30.68835],[-98.35694,30.69032],[-98.35731,30.68766],[-98.35685,30.68432],[-98.37556,30.68436],[-98.37589,30.67857],[-98.38197,30.679],[-98.3834,30.67606],[-98.38278,30.67555],[-98.38174,30.67547],[-98.38184,30.67518],[-98.38394,30.6729],[-98.38523,30.67096],[-98.38643,30.66987],[-98.38636,30.66647],[-98.38605,30.6651],[-98.38633,30.66409],[-98.38017,30.66163],[-98.37874,30.6605],[-98.37837,30.65968],[-98.37747,30.65906],[-98.37571,30.65956],[-98.37367,30.65924],[-98.37232,30.66005],[-98.37148,30.66103],[-98.37049,30.66103],[-98.36861,30.66009],[-98.36834,30.65939],[-98.36781,30.65883],[-98.36778,30.65826],[-98.36796,30.65785],[-98.36863,30.65748],[-98.36892,30.65664],[-98.37016,30.65544],[-98.3709,30.65517],[-98.37114,30.65485],[-98.37117,30.65407],[-98.37043,30.65345],[-98.36771,30.65299],[-98.36887,30.64969],[-98.36918,30.64814],[-98.36905,30.64745],[-98.37015,30.64606],[-98.37101,30.64565],[-98.37205,30.64553],[-98.37312,30.64581],[-98.37423,30.6452],[-98.37643,30.6463],[-98.37741,30.6456],[-98.37894,30.64556],[-98.37892,30.6431],[-98.37995,30.64239],[-98.38006,30.64218],[-98.37983,30.64186],[-98.37999,30.64168],[-98.38109,30.64174],[-98.38156,30.64123],[-98.38141,30.64083],[-98.38189,30.64058],[-98.38146,30.63988],[-98.38077,30.63978],[-98.40633,30.63736],[-98.40854,30.63753],[-98.40833,30.6362],[-98.40847,30.63518],[-98.40957,30.63307],[-98.40987,30.63199],[-98.40966,30.63031],[-98.40843,30.62849],[-98.40449,30.62592],[-98.40593,30.62486],[-98.40681,30.62385],[-98.40774,30.62371],[-98.41074,30.62421],[-98.41127,30.6239],[-98.41176,30.62282],[-98.4114,30.62249],[-98.41104,30.62072],[-98.41042,30.62006],[-98.41078,30.61957],[-98.41042,30.61922],[-98.41053,30.6184],[-98.41015,30.61696],[-98.4097,30.61674],[-98.40953,30.61819],[-98.40881,30.61808],[-98.40832,30.6186],[-98.40806,30.61836],[-98.40826,30.61815],[-98.40775,30.61803],[-98.40866,30.6177],[-98.40841,30.6176],[-98.40865,30.61725],[-98.40806,30.61627],[-98.40917,30.61597],[-98.40916,30.61547],[-98.40849,30.61477],[-98.4078,30.61476],[-98.40686,30.61527],[-98.40601,30.61446],[-98.40697,30.61447],[-98.40815,30.61387],[-98.40698,30.61315],[-98.40703,30.6126],[-98.40633,30.61163],[-98.40597,30.61159],[-98.40594,30.611],[-98.40541,30.61044],[-98.40528,30.60978],[-98.40243,30.60597],[-98.40164,30.6068],[-98.40119,30.60624],[-98.40131,30.60533],[-98.40092,30.60556],[-98.40051,30.60542],[-98.40141,30.60375],[-98.4,30.5973],[-98.40013,30.59618],[-98.4007,30.59464],[-98.40158,30.59384],[-98.40252,30.5931],[-98.40794,30.5905],[-98.41183,30.58818],[-98.4132,30.58691],[-98.41375,30.58553]]]},"properties":{"zip_code":"78654","county":"Burnet"}}]}