{"type":"FeatureCollection","features":[{"type":"Feature","geometry":{"type":"Polygon","coordinates":[[[-97.66499,29.60772],[-97.66463,29.60698],[-97.65765,29.60454],[-97.65583,29.60245],[-97.65105,29.59948],[-97.64911,29.59712],[-97.64869,29.5944],[-97.64562,29.59398],[-97.63817,29.58603],[-97.64202,29.58334],[-97.63967,29.58095],[-97.63948,29.57787],[-97.64712,29.57295],[-97.64572,29.56895],[-97.64816,29.56738],[-97.64135,29.56307],[-97.63862,29.56513],[-97.63242,29.56578],[-97.6311,29.56939],[-97.62973,29.57088],[-97.6253,29.57313],[-97.62225,29.57127],[-97.61986,29.57175],[-97.61865,29.5686],[-97.61358,29.56771],[-97.60944,29.56369],[-97.60118,29.56995],[-97.6053,29.5744],[-97.60497,29.57624],[-97.60824,29.57883],[-97.60652,29.58025],[-97.60917,29.58667],[-97.6042,29.591],[-97.60348,29.58978],[-97.60298,29.59035],[-97.60182,29.58964],[-97.5958,29.59019],[-97.59092,29.59293],[-97.59366,29.59467],[-97.59454,29.59644],[-97.60146,29.59767],[-97.60214,29.60384],[-97.60589,29.60615],[-97.61067,29.61107],[-97.61951,29.61559],[-97.62614,29.62361],[-97.63034,29.62153],[-97.63467,29.61811],[-97.63829,29.61775],[-97.64124,29.61303],[-97.64577,29.60953],[-97.64951,29.61296],[-97.6531,29.61144],[-97.65597,29.61247],[-97.66061,29.61259],[-97.66499,29.60772]]]},"properties":{"zip_code":"78658","county":"Gonzales"}}]}