{"type":"FeatureCollection","features":[{"type":"Feature","geometry":{"type":"Polygon","coordinates":[[[-97.89016,29.88632],[-97.88867,29.88502],[-97.88908,29.88471],[-97.88736,29.88267],[-97.88704,29.88379],[-97.88391,29.88414],[-97.88325,29.88389],[-97.87979,29.88689],[-97.8793,29.88637],[-97.87781,29.88742],[-97.87795,29.88758],[-97.87638,29.88846],[-97.87551,29.88807],[-97.87323,29.88806],[-97.87285,29.88787],[-97.86624,29.88803],[-97.86484,29.88699],[-97.86434,29.88741],[-97.86238,29.88585],[-97.86205,29.88615],[-97.86172,29.88588],[-97.86079,29.88674],[-97.85943,29.88564],[-97.85937,29.88428],[-97.85692,29.88229],[-97.85682,29.88013],[-97.85314,29.87998],[-97.85163,29.88115],[-97.84859,29.87812],[-97.85267,29.87509],[-97.85905,29.8752],[-97.85626,29.87243],[-97.86735,29.86418],[-97.86536,29.86331],[-97.86001,29.86756],[-97.8552,29.8626],[-97.85592,29.86169],[-97.85355,29.85937],[-97.84808,29.86485],[-97.84695,29.86374],[-97.84213,29.86733],[-97.84276,29.86943],[-97.83613,29.87453],[-97.81662,29.87385],[-97.81555,29.87293],[-97.8144,29.87369],[-97.80283,29.87332],[-97.80267,29.87315],[-97.81325,29.86616],[-97.80699,29.85987],[-97.78969,29.87287],[-97.76337,29.87205],[-97.76278,29.87185],[-97.76248,29.87214],[-97.76187,29.87172],[-97.74038,29.87057],[-97.74873,29.88269],[-97.74463,29.8835],[-97.74315,29.88417],[-97.74426,29.88424],[-97.74563,29.8858],[-97.74679,29.88597],[-97.74859,29.88913],[-97.75029,29.88956],[-97.75523,29.89246],[-97.75565,29.89312],[-97.75707,29.89422],[-97.75732,29.89475],[-97.75899,29.8961],[-97.75979,29.89762],[-97.7609,29.89796],[-97.76151,29.89778],[-97.76359,29.89837],[-97.76399,29.89882],[-97.76446,29.90048],[-97.76531,29.90132],[-97.76605,29.90141],[-97.76659,29.90202],[-97.76728,29.90216],[-97.76836,29.90141],[-97.76884,29.9014],[-97.76977,29.90268],[-97.77044,29.90293],[-97.77217,29.90248],[-97.77258,29.90199],[-97.77363,29.90192],[-97.77415,29.90216],[-97.77577,29.90123],[-97.77636,29.90107],[-97.77673,29.90125],[-97.77701,29.90206],[-97.77782,29.9029],[-97.77968,29.90347],[-97.78081,29.90434],[-97.78195,29.90712],[-97.78326,29.90926],[-97.78716,29.91382],[-97.7622,29.93229],[-97.75225,29.94137],[-97.74534,29.94693],[-97.74677,29.95436],[-97.75235,29.95358],[-97.75274,29.95553],[-97.75884,29.95447],[-97.75769,29.94866],[-97.76952,29.9469],[-97.77092,29.95402],[-97.77979,29.95206],[-97.77828,29.95006],[-97.78488,29.94951],[-97.78749,29.94903],[-97.784,29.94587],[-97.78597,29.94463],[-97.78785,29.94593],[-97.78978,29.94661],[-97.79192,29.94465],[-97.79243,29.94518],[-97.80313,29.94108],[-97.80345,29.94124],[-97.80745,29.93934],[-97.79959,29.93114],[-97.80258,29.92872],[-97.80545,29.9334],[-97.80744,29.93257],[-97.8094,29.93576],[-97.80861,29.93618],[-97.80988,29.93791],[-97.81212,29.93697],[-97.81185,29.93651],[-97.81238,29.93627],[-97.81271,29.93687],[-97.82125,29.93257],[-97.82736,29.92909],[-97.83671,29.92222],[-97.85073,29.91508],[-97.85176,29.91605],[-97.85375,29.91489],[-97.85675,29.91726],[-97.8588,29.91569],[-97.86325,29.91944],[-97.86426,29.91846],[-97.86608,29.91879],[-97.86807,29.91685],[-97.86616,29.91517],[-97.86714,29.91426],[-97.86665,29.91384],[-97.86706,29.90904],[-97.86363,29.90598],[-97.86959,29.90177],[-97.87684,29.90808],[-97.88462,29.90109],[-97.88191,29.89877],[-97.88131,29.89928],[-97.87778,29.89616],[-97.88126,29.89363],[-97.88112,29.89341],[-97.89016,29.88632]]]},"properties":{"zip_code":"78656","county":"Caldwell"}}]}