{"type":"FeatureCollection","features":[{"type":"Feature","geometry":{"type":"Polygon","coordinates":[[[-98.47282,30.55807],[-98.45759,30.54494],[-98.44895,30.54086],[-98.44301,30.53664],[-98.44502,30.53286],[-98.44766,30.52376],[-98.44027,30.5106],[-98.44098,30.50186],[-98.41146,30.5021],[-98.34364,30.48411],[-98.34257,30.49579],[-98.33337,30.49643],[-98.32849,30.49667],[-98.32811,30.4853],[-98.32127,30.48531],[-98.32191,30.50461],[-98.31824,30.50472],[-98.31828,30.50596],[-98.31559,30.50733],[-98.31561,30.50936],[-98.31307,30.51041],[-98.31202,30.51204],[-98.31286,30.51242],[-98.31107,30.5152],[-98.3078,30.51533],[-98.30547,30.51765],[-98.30504,30.52656],[-98.30238,30.52656],[-98.30267,30.54515],[-98.29091,30.54526],[-98.29094,30.54956],[-98.28872,30.55085],[-98.28404,30.5561],[-98.28479,30.55713],[-98.28905,30.55306],[-98.29482,30.55326],[-98.3004,30.5547],[-98.30933,30.55893],[-98.31686,30.56477],[-98.32225,30.56695],[-98.32586,30.56609],[-98.33276,30.55944],[-98.3377,30.55589],[-98.34253,30.55573],[-98.35198,30.55808],[-98.36429,30.57159],[-98.37031,30.57444],[-98.37595,30.57389],[-98.39754,30.56408],[-98.40227,30.56377],[-98.40536,30.56616],[-98.4106,30.57359],[-98.41309,30.58156],[-98.42063,30.57387],[-98.41905,30.56767],[-98.42186,30.56154],[-98.42278,30.56156],[-98.42343,30.55883],[-98.42492,30.55841],[-98.42683,30.5592],[-98.43071,30.56304],[-98.43166,30.56515],[-98.43342,30.56622],[-98.43767,30.56649],[-98.44455,30.56366],[-98.44556,30.56537],[-98.44472,30.56905],[-98.4458,30.57025],[-98.45098,30.57077],[-98.45337,30.57194],[-98.45886,30.57018],[-98.46271,30.57351],[-98.4653,30.57433],[-98.46771,30.5736],[-98.46991,30.57153],[-98.47025,30.56984],[-98.46769,30.56254],[-98.46888,30.56028],[-98.47282,30.55807]]]},"properties":{"zip_code":"78657","county":"Burnet"}}]}