{"type":"FeatureCollection","features":[{"type":"Feature","geometry":{"type":"Polygon","coordinates":[[[-98.17129,29.94852],[-98.17143,29.94845],[-98.15159,29.93432],[-98.15706,29.9335],[-98.16017,29.93386],[-98.16169,29.9335],[-98.16179,29.91457],[-98.15799,29.91443],[-98.14792,29.90843],[-98.14529,29.90857],[-98.14557,29.92375],[-98.14536,29.92748],[-98.14315,29.92829],[-98.04475,29.85871],[-98.04971,29.85471],[-98.05495,29.85106],[-98.05621,29.85235],[-98.05686,29.85185],[-98.07614,29.83452],[-98.07687,29.83329],[-98.07681,29.83282],[-98.07345,29.83133],[-98.07308,29.8307],[-98.07304,29.82934],[-98.07167,29.82853],[-98.07078,29.82732],[-98.06884,29.82696],[-98.06559,29.82554],[-98.06511,29.82559],[-98.06322,29.82683],[-98.06143,29.82738],[-98.05972,29.82908],[-98.05877,29.82875],[-98.05777,29.82787],[-98.05692,29.82628],[-98.05659,29.82473],[-98.05615,29.82399],[-98.05524,29.82379],[-98.05283,29.82544],[-98.05132,29.82526],[-98.05034,29.82101],[-98.05044,29.82036],[-98.05099,29.81979],[-98.05102,29.81909],[-98.04976,29.81617],[-98.04862,29.81464],[-98.04723,29.81343],[-98.04097,29.81243],[-98.03961,29.81196],[-98.03808,29.81074],[-98.03626,29.80771],[-98.03545,29.80732],[-98.03207,29.80812],[-98.0316,29.80781],[-98.02961,29.80738],[-98.02529,29.8074],[-98.02453,29.80707],[-98.02444,29.80681],[-98.0234,29.80769],[-98.02203,29.80955],[-98.01868,29.81225],[-98.01511,29.80126],[-98.02047,29.79641],[-98.0228,29.79396],[-98.0221,29.79306],[-98.02269,29.79188],[-98.02162,29.79114],[-98.02183,29.79076],[-98.02176,29.78994],[-98.02043,29.78885],[-98.01815,29.78997],[-98.01082,29.78816],[-98.00717,29.777],[-98.00294,29.77201],[-98.00277,29.77153],[-98.00294,29.77036],[-98.00275,29.7701],[-98.00152,29.76945],[-97.99731,29.76875],[-97.995,29.76787],[-97.99485,29.76763],[-97.99399,29.76504],[-97.9942,29.76188],[-97.99365,29.76076],[-98.00014,29.75515],[-97.99927,29.75244],[-97.98587,29.76546],[-97.9844,29.76411],[-97.98305,29.76213],[-97.98062,29.76196],[-97.9807,29.75982],[-97.97845,29.75999],[-97.97867,29.75843],[-97.97803,29.75837],[-97.97831,29.75751],[-97.97942,29.7572],[-97.97937,29.75074],[-97.95188,29.75002],[-97.95023,29.75045],[-97.94922,29.75023],[-97.94859,29.75091],[-97.94829,29.75262],[-97.94807,29.75281],[-97.94889,29.74805],[-97.94748,29.74846],[-97.94732,29.7487],[-97.94779,29.74873],[-97.94785,29.74892],[-97.94607,29.74959],[-97.9444,29.74922],[-97.94427,29.74892],[-97.94453,29.74849],[-97.94358,29.74711],[-97.94287,29.74641],[-97.94186,29.74594],[-97.94133,29.74527],[-97.94148,29.74415],[-97.94195,29.74328],[-97.9414,29.74272],[-97.9406,29.74271],[-97.94064,29.7431],[-97.94034,29.74325],[-97.93914,29.74314],[-97.93897,29.74355],[-97.9386,29.74349],[-97.93853,29.74373],[-97.93787,29.74347],[-97.93726,29.74382],[-97.93737,29.74416],[-97.93716,29.74435],[-97.9363,29.74455],[-97.9359,29.74398],[-97.93595,29.74366],[-97.93542,29.74354],[-97.93171,29.74425],[-97.93019,29.74431],[-97.92911,29.74346],[-97.92899,29.74279],[-97.92834,29.7425],[-97.92554,29.74527],[-97.91063,29.75117],[-97.90972,29.7493],[-97.90895,29.7493],[-97.9072,29.74706],[-97.90648,29.74571],[-97.90548,29.74463],[-97.89806,29.75003],[-97.88732,29.7533],[-97.88565,29.75412],[-97.87523,29.76201],[-97.87854,29.76537],[-97.87338,29.76911],[-97.87098,29.76646],[-97.86305,29.77241],[-97.86643,29.77583],[-97.85827,29.78209],[-97.86023,29.78413],[-97.85831,29.78577],[-97.86044,29.78794],[-97.86203,29.78668],[-97.86848,29.79319],[-97.86547,29.79589],[-97.86797,29.79865],[-97.86903,29.79785],[-97.87194,29.80075],[-97.8752,29.7985],[-97.87768,29.80108],[-97.87444,29.8034],[-97.87542,29.80464],[-97.87518,29.80482],[-97.87669,29.80672],[-97.87697,29.80658],[-97.87746,29.80721],[-97.87704,29.80756],[-97.87689,29.80807],[-97.8779,29.80813],[-97.87847,29.80848],[-97.87666,29.80967],[-97.87746,29.81061],[-97.87607,29.81185],[-97.87944,29.81556],[-97.87636,29.81804],[-97.87902,29.82039],[-97.87948,29.82011],[-97.88504,29.82576],[-97.88394,29.82681],[-97.88606,29.82888],[-97.86823,29.84555],[-97.87432,29.85197],[-97.87321,29.85318],[-97.87429,29.85575],[-97.87344,29.85637],[-97.8749,29.85759],[-97.87541,29.85854],[-97.87456,29.8595],[-97.87463,29.8599],[-97.87601,29.86055],[-97.8791,29.86074],[-97.8798,29.86309],[-97.87965,29.8636],[-97.88052,29.86532],[-97.86884,29.8631],[-97.85626,29.87243],[-97.85905,29.8752],[-97.85267,29.87509],[-97.84859,29.87812],[-97.85163,29.88115],[-97.85314,29.87998],[-97.85682,29.88013],[-97.85692,29.88229],[-97.85937,29.88428],[-97.85943,29.88564],[-97.86079,29.88674],[-97.86172,29.88588],[-97.86205,29.88615],[-97.86238,29.88585],[-97.86434,29.88741],[-97.86484,29.88699],[-97.86624,29.88803],[-97.87285,29.88787],[-97.87323,29.88806],[-97.87551,29.88807],[-97.87638,29.88846],[-97.87795,29.88758],[-97.87781,29.88742],[-97.8793,29.88637],[-97.87979,29.88689],[-97.88325,29.88389],[-97.88391,29.88414],[-97.88704,29.88379],[-97.88736,29.88267],[-97.88908,29.88471],[-97.88867,29.88502],[-97.89021,29.88624],[-97.88112,29.89341],[-97.88126,29.89363],[-97.87778,29.89616],[-97.88131,29.89928],[-97.88191,29.89877],[-97.88462,29.90109],[-97.87684,29.90808],[-97.86959,29.90177],[-97.86363,29.90598],[-97.86706,29.90904],[-97.86665,29.91384],[-97.86714,29.91426],[-97.86616,29.91517],[-97.86807,29.91685],[-97.86608,29.91879],[-97.86426,29.91846],[-97.86325,29.91944],[-97.8588,29.91569],[-97.85675,29.91726],[-97.85375,29.91489],[-97.85176,29.91605],[-97.85073,29.91508],[-97.84918,29.916],[-97.86066,29.92582],[-97.86314,29.92744],[-97.87816,29.94003],[-97.8781,29.94043],[-97.87553,29.94288],[-97.88134,29.94784],[-97.88357,29.95051],[-97.8845,29.95111],[-97.88305,29.95288],[-97.88369,29.95334],[-97.8863,29.95417],[-97.8875,29.95292],[-97.89119,29.95609],[-97.89296,29.95443],[-97.89411,29.9556],[-97.89289,29.95795],[-97.89976,29.96071],[-97.89988,29.95977],[-97.90158,29.95827],[-97.90201,29.95748],[-97.90188,29.95645],[-97.90032,29.95333],[-97.90022,29.95089],[-97.90121,29.94806],[-97.90309,29.94582],[-97.90255,29.94585],[-97.90242,29.94526],[-97.90184,29.94467],[-97.89707,29.94082],[-97.8965,29.93878],[-97.89509,29.93782],[-97.89569,29.93708],[-97.89952,29.93825],[-97.90132,29.94008],[-97.90379,29.94176],[-97.90656,29.94311],[-97.90691,29.94371],[-97.90678,29.9449],[-97.90581,29.94614],[-97.90355,29.94776],[-97.90229,29.95214],[-97.9024,29.95349],[-97.90282,29.95457],[-97.90393,29.95599],[-97.90478,29.95609],[-97.90528,29.95641],[-97.90762,29.96074],[-97.90751,29.96193],[-97.90801,29.96273],[-97.90812,29.96358],[-97.90754,29.96509],[-97.90591,29.96681],[-97.90375,29.96821],[-97.90332,29.96945],[-97.90338,29.9711],[-97.90396,29.97227],[-97.90413,29.97474],[-97.90397,29.97687],[-97.90432,29.97811],[-97.9055,29.97985],[-97.90603,29.98123],[-97.9069,29.98153],[-97.90759,29.98144],[-97.90933,29.98047],[-97.9097,29.97914],[-97.91228,29.9763],[-97.9123,29.97531],[-97.91253,29.97492],[-97.91425,29.97314],[-97.91488,29.97286],[-97.91569,29.97289],[-97.91663,29.97323],[-97.9181,29.97337],[-97.91907,29.97394],[-97.91959,29.97548],[-97.91862,29.97924],[-97.91851,29.98135],[-97.9178,29.98428],[-97.91777,29.98547],[-97.91851,29.98769],[-97.91893,29.98815],[-97.92096,29.98914],[-97.92412,29.98957],[-97.92514,29.99029],[-97.92656,29.99187],[-97.92804,29.99469],[-97.92965,29.99588],[-97.93565,30.00777],[-97.93639,30.0099],[-97.93689,30.0124],[-97.93747,30.01313],[-97.93826,30.01343],[-97.94068,30.01272],[-97.94289,30.00983],[-97.9446,30.00836],[-97.9505,30.00628],[-97.95414,30.0043],[-97.95545,30.00444],[-97.95656,30.00531],[-97.95775,30.00859],[-97.95867,30.01022],[-97.9598,30.01122],[-97.96191,30.01196],[-97.9657,30.01198],[-97.96678,30.01166],[-97.97123,30.00797],[-97.97212,30.00749],[-97.97289,30.00721],[-97.97605,30.00694],[-97.98355,30.00519],[-97.98637,30.00478],[-97.98916,30.00381],[-97.99111,30.00274],[-97.9943,30.00021],[-97.99479,29.99811],[-97.99461,29.9975],[-97.99408,29.9969],[-97.99408,29.99651],[-97.99487,29.99472],[-97.99563,29.99415],[-97.99639,29.99406],[-97.99801,29.99468],[-97.99887,29.99586],[-97.99987,29.99683],[-98.00065,29.9971],[-98.00172,29.99855],[-98.00275,29.99937],[-98.00393,29.99965],[-98.00483,29.99946],[-98.00543,29.99917],[-98.00651,29.99807],[-98.00693,29.99674],[-98.00687,29.99468],[-98.00615,29.99057],[-98.00657,29.98899],[-98.00741,29.98789],[-98.00947,29.98636],[-98.01428,29.98375],[-98.01621,29.98372],[-98.01876,29.98544],[-98.01991,29.98597],[-98.02066,29.98595],[-98.02394,29.9845],[-98.02666,29.98292],[-98.0278,29.98265],[-98.02855,29.98215],[-98.02918,29.98123],[-98.03005,29.98098],[-98.03092,29.98178],[-98.03115,29.98314],[-98.03183,29.98322],[-98.0323,29.98364],[-98.033,29.98524],[-98.03452,29.98739],[-98.03572,29.98766],[-98.03701,29.98716],[-98.03832,29.98572],[-98.03907,29.98427],[-98.03849,29.98361],[-98.03852,29.98243],[-98.03898,29.98208],[-98.0396,29.98083],[-98.03821,29.98003],[-98.03869,29.98009],[-98.03973,29.97944],[-98.03989,29.97962],[-98.0403,29.97951],[-98.04064,29.97857],[-98.04037,29.97729],[-98.0408,29.97408],[-98.04414,29.96654],[-98.04435,29.96106],[-98.04487,29.95907],[-98.04349,29.95588],[-98.04109,29.95213],[-98.03506,29.95061],[-98.0307,29.94784],[-98.02933,29.9465],[-98.02839,29.94495],[-98.03116,29.94237],[-98.03393,29.94521],[-98.03518,29.94685],[-98.03622,29.94752],[-98.03716,29.94765],[-98.04142,29.94688],[-98.04215,29.94687],[-98.044,29.94752],[-98.04666,29.94726],[-98.06039,29.95291],[-98.06037,29.94873],[-98.06248,29.94864],[-98.06244,29.94836],[-98.07639,29.94793],[-98.07919,29.94807],[-98.0792,29.94832],[-98.08002,29.94778],[-98.07964,29.9394],[-98.08313,29.93944],[-98.08546,29.94026],[-98.09028,29.94119],[-98.09158,29.94208],[-98.09255,29.9436],[-98.09355,29.9476],[-98.09355,29.95071],[-98.09448,29.95335],[-98.09449,29.95641],[-98.09527,29.95873],[-98.09514,29.95987],[-98.0948,29.96056],[-98.09197,29.96404],[-98.09163,29.96501],[-98.09168,29.96616],[-98.09273,29.97045],[-98.09279,29.97239],[-98.09452,29.97411],[-98.09997,29.97485],[-98.10122,29.97488],[-98.10143,29.9745],[-98.10253,29.97448],[-98.10394,29.97332],[-98.10385,29.97237],[-98.10268,29.9714],[-98.10305,29.97085],[-98.1038,29.97059],[-98.10751,29.97028],[-98.1098,29.9719],[-98.11049,29.97158],[-98.11021,29.97136],[-98.11056,29.97106],[-98.1127,29.97243],[-98.1146,29.97269],[-98.11472,29.97239],[-98.11432,29.97182],[-98.11506,29.97144],[-98.11415,29.96959],[-98.11484,29.96954],[-98.11451,29.96818],[-98.1157,29.96778],[-98.11593,29.96701],[-98.11713,29.96946],[-98.1168,29.97026],[-98.11741,29.97174],[-98.11917,29.97039],[-98.12162,29.96964],[-98.12352,29.96953],[-98.13108,29.96994],[-98.13998,29.96766],[-98.14169,29.96786],[-98.14275,29.96876],[-98.14422,29.96922],[-98.14627,29.9691],[-98.14764,29.96864],[-98.14822,29.96837],[-98.1487,29.96764],[-98.1482,29.96523],[-98.14738,29.96303],[-98.14738,29.96202],[-98.14783,29.96103],[-98.14944,29.96003],[-98.15299,29.95975],[-98.15554,29.96067],[-98.15857,29.96076],[-98.16108,29.95905],[-98.16152,29.95858],[-98.16236,29.95667],[-98.16367,29.95556],[-98.16636,29.95485],[-98.16808,29.95517],[-98.16892,29.95591],[-98.16944,29.95533],[-98.16923,29.95497],[-98.16999,29.95371],[-98.17006,29.95243],[-98.16971,29.95156],[-98.1699,29.95047],[-98.1709,29.94872],[-98.17129,29.94852]]]},"properties":{"zip_code":"78666","county":"Hays"}}]}