{"type":"FeatureCollection","features":[{"type":"Feature","geometry":{"type":"Polygon","coordinates":[[[-97.53296,29.95607],[-97.53076,29.95303],[-97.52967,29.95065],[-97.52939,29.9492],[-97.5294,29.94568],[-97.5282,29.9418],[-97.51819,29.93846],[-97.52395,29.92968],[-97.51731,29.93462],[-97.51079,29.93779],[-97.50762,29.93995],[-97.50732,29.93976],[-97.50444,29.94095],[-97.50441,29.93878],[-97.50485,29.9376],[-97.51551,29.92172],[-97.51336,29.9205],[-97.5175,29.91499],[-97.51723,29.91456],[-97.51365,29.9171],[-97.51119,29.9184],[-97.51065,29.91922],[-97.49031,29.93344],[-97.48005,29.92479],[-97.48781,29.9125],[-97.49078,29.90902],[-97.4978,29.89802],[-97.49857,29.89598],[-97.49983,29.894],[-97.49794,29.89297],[-97.49911,29.89121],[-97.4969,29.8883],[-97.49897,29.88503],[-97.50018,29.88547],[-97.50316,29.88046],[-97.49124,29.87465],[-97.49175,29.8737],[-97.48852,29.87201],[-97.48735,29.87358],[-97.4853,29.87988],[-97.48496,29.87993],[-97.47996,29.87762],[-97.47538,29.88506],[-97.44834,29.87215],[-97.45159,29.86674],[-97.44611,29.86318],[-97.43675,29.85878],[-97.43219,29.8563],[-97.42068,29.87476],[-97.42594,29.87922],[-97.41992,29.88541],[-97.42009,29.88583],[-97.41984,29.88809],[-97.41941,29.8896],[-97.41803,29.89023],[-97.417,29.89125],[-97.41595,29.89188],[-97.41509,29.89159],[-97.4117,29.89197],[-97.4113,29.8932],[-97.41082,29.89371],[-97.41046,29.89362],[-97.40948,29.89445],[-97.40785,29.89521],[-97.40565,29.89511],[-97.40478,29.89617],[-97.40367,29.89694],[-97.40301,29.89826],[-97.40095,29.90064],[-97.39914,29.901],[-97.39896,29.90236],[-97.39945,29.90298],[-97.39863,29.90343],[-97.39838,29.90416],[-97.3985,29.90528],[-97.39744,29.90632],[-97.39685,29.90738],[-97.39689,29.90767],[-97.39753,29.9074],[-97.39783,29.90901],[-97.3971,29.91205],[-97.39667,29.91225],[-97.39621,29.91168],[-97.3948,29.91198],[-97.39133,29.91362],[-97.3912,29.91533],[-97.39177,29.91622],[-97.39198,29.91713],[-97.39116,29.91927],[-97.38989,29.91972],[-97.38741,29.92127],[-97.38451,29.92215],[-97.38471,29.92343],[-97.38362,29.92382],[-97.38303,29.92483],[-97.38319,29.92518],[-97.38407,29.92577],[-97.38357,29.92703],[-97.37344,29.9221],[-97.37344,29.92185],[-97.37014,29.921],[-97.37054,29.91976],[-97.36705,29.91812],[-97.36164,29.92678],[-97.36012,29.92785],[-97.35982,29.92863],[-97.36122,29.93027],[-97.36336,29.93087],[-97.36409,29.93207],[-97.36648,29.9341],[-97.36691,29.93497],[-97.36261,29.93616],[-97.36178,29.93663],[-97.35945,29.93623],[-97.35908,29.93663],[-97.35807,29.93696],[-97.35691,29.93699],[-97.35396,29.93936],[-97.35112,29.94069],[-97.35134,29.94236],[-97.35063,29.94651],[-97.35198,29.94721],[-97.35306,29.94821],[-97.35315,29.94862],[-97.35247,29.9501],[-97.35272,29.95111],[-97.35432,29.95131],[-97.35511,29.95112],[-97.35561,29.95133],[-97.35579,29.95174],[-97.35489,29.95303],[-97.35352,29.9539],[-97.35298,29.95493],[-97.35284,29.9564],[-97.35196,29.95816],[-97.35211,29.95878],[-97.35251,29.95907],[-97.34333,29.95452],[-97.34281,29.95542],[-97.34293,29.95573],[-97.34043,29.95518],[-97.34142,29.95717],[-97.34278,29.95905],[-97.34514,29.96492],[-97.34673,29.9673],[-97.34822,29.96853],[-97.34733,29.96839],[-97.34555,29.96736],[-97.34501,29.96735],[-97.34443,29.96789],[-97.3439,29.96785],[-97.34281,29.97151],[-97.35112,29.97549],[-97.35292,29.97194],[-97.35424,29.97255],[-97.35512,29.97244],[-97.35569,29.97326],[-97.36169,29.97624],[-97.36279,29.97461],[-97.37478,29.98032],[-97.37301,29.98273],[-97.37558,29.9841],[-97.37402,29.98663],[-97.38502,29.99187],[-97.38574,29.9907],[-97.38642,29.99009],[-97.3921,29.99314],[-97.39108,29.99502],[-97.39506,29.99712],[-97.39948,29.99858],[-97.40526,30.00185],[-97.40704,29.99753],[-97.40815,29.99794],[-97.40958,29.99613],[-97.41064,29.99318],[-97.41404,29.98807],[-97.41872,29.99043],[-97.41938,29.98957],[-97.42004,29.98989],[-97.41992,29.9901],[-97.42206,29.99115],[-97.42279,29.99009],[-97.42406,29.99073],[-97.42857,29.98731],[-97.42649,29.9906],[-97.42761,29.99119],[-97.42868,29.98959],[-97.43028,29.99064],[-97.42907,29.99264],[-97.42936,29.99283],[-97.42911,29.9932],[-97.43014,29.99386],[-97.43031,29.99366],[-97.43158,29.9944],[-97.43174,29.9942],[-97.43259,29.99471],[-97.43241,29.99488],[-97.45586,30.00616],[-97.45547,30.00856],[-97.45815,30.00974],[-97.46012,30.00831],[-97.46102,30.00698],[-97.4629,30.00628],[-97.46282,30.00481],[-97.4686,29.99937],[-97.47067,30.00248],[-97.47231,30.00386],[-97.48181,29.996],[-97.47818,29.99264],[-97.48302,29.98841],[-97.48913,29.99407],[-97.48844,29.99455],[-97.49293,29.9973],[-97.49455,29.99577],[-97.49479,29.9952],[-97.49595,29.99485],[-97.49709,29.99574],[-97.49926,29.99403],[-97.50182,29.99606],[-97.50285,29.9951],[-97.50436,29.99728],[-97.50619,29.99759],[-97.50733,29.99656],[-97.50865,29.99761],[-97.50931,29.99702],[-97.51486,30.00173],[-97.52705,29.99083],[-97.53254,29.983],[-97.51682,29.9805],[-97.50719,29.97648],[-97.52508,29.96061],[-97.52576,29.96062],[-97.5284,29.96289],[-97.52869,29.96288],[-97.53296,29.95607]]]},"properties":{"zip_code":"78662","county":"Bastrop"}}]}