{"type":"FeatureCollection","features":[{"type":"Feature","geometry":{"type":"Polygon","coordinates":[[[-97.69285,30.57122],[-97.69261,30.55371],[-97.69199,30.5534],[-97.69163,30.55042],[-97.69193,30.54015],[-97.68888,30.54087],[-97.68866,30.54],[-97.6888,30.53879],[-97.68824,30.53732],[-97.68817,30.53602],[-97.68458,30.53719],[-97.68247,30.53673],[-97.68179,30.53626],[-97.68005,30.53756],[-97.68045,30.53868],[-97.67851,30.54127],[-97.676,30.54145],[-97.67545,30.54109],[-97.6748,30.54115],[-97.67439,30.5407],[-97.67377,30.53953],[-97.67401,30.53865],[-97.67361,30.53827],[-97.65959,30.54001],[-97.6596,30.54053],[-97.65597,30.54166],[-97.65576,30.54096],[-97.65399,30.54117],[-97.65398,30.54071],[-97.6523,30.54092],[-97.65289,30.53827],[-97.65165,30.53831],[-97.65052,30.54287],[-97.6509,30.54315],[-97.65081,30.54335],[-97.65022,30.54329],[-97.65123,30.53938],[-97.65213,30.53364],[-97.65225,30.52869],[-97.65569,30.52114],[-97.65551,30.51785],[-97.65394,30.51808],[-97.65411,30.51611],[-97.65456,30.51533],[-97.65523,30.51494],[-97.65504,30.51474],[-97.656,30.51415],[-97.65522,30.5139],[-97.65301,30.51387],[-97.65117,30.51419],[-97.64725,30.51544],[-97.64685,30.51325],[-97.64606,30.51169],[-97.64426,30.50956],[-97.64493,30.51001],[-97.64444,30.50711],[-97.64455,30.5044],[-97.64534,30.50188],[-97.64526,30.49631],[-97.62225,30.49663],[-97.6184,30.49736],[-97.6161,30.49739],[-97.61617,30.50009],[-97.61483,30.50011],[-97.61481,30.50067],[-97.61334,30.50069],[-97.61336,30.50153],[-97.61618,30.50149],[-97.61625,30.50427],[-97.6134,30.50427],[-97.61354,30.51063],[-97.61642,30.51056],[-97.61651,30.51539],[-97.61377,30.51539],[-97.61383,30.51701],[-97.61467,30.51754],[-97.61462,30.5188],[-97.61384,30.51887],[-97.61379,30.52283],[-97.61393,30.52917],[-97.61453,30.53167],[-97.60997,30.5326],[-97.60125,30.53353],[-97.60135,30.53986],[-97.60118,30.53969],[-97.59565,30.53995],[-97.59571,30.54466],[-97.59136,30.54478],[-97.59158,30.5556],[-97.59377,30.55564],[-97.59385,30.56206],[-97.5863,30.56213],[-97.58648,30.56292],[-97.5874,30.56427],[-97.589,30.56875],[-97.5892,30.57096],[-97.58874,30.57204],[-97.5877,30.57267],[-97.58818,30.57388],[-97.58789,30.57488],[-97.59356,30.588],[-97.59553,30.58978],[-97.59985,30.58842],[-97.59996,30.58867],[-97.6257,30.58065],[-97.62748,30.57993],[-97.63051,30.57802],[-97.63215,30.57731],[-97.63289,30.5792],[-97.63385,30.58065],[-97.63395,30.58161],[-97.63372,30.58161],[-97.63468,30.58379],[-97.63428,30.58619],[-97.63593,30.59013],[-97.63739,30.58961],[-97.63858,30.59393],[-97.6461,30.59147],[-97.64387,30.58766],[-97.65461,30.58438],[-97.65361,30.58199],[-97.65415,30.58193],[-97.6543,30.58235],[-97.65647,30.58343],[-97.66236,30.58161],[-97.66989,30.58047],[-97.6684,30.57669],[-97.67528,30.57502],[-97.67516,30.57439],[-97.6758,30.57404],[-97.68454,30.57144],[-97.68543,30.57347],[-97.68527,30.57283],[-97.69069,30.57147],[-97.69092,30.57186],[-97.69138,30.57171],[-97.69109,30.57105],[-97.69224,30.57077],[-97.69227,30.57251],[-97.69285,30.57122]]]},"properties":{"zip_code":"78665","county":"Williamson"}}]}