{"type":"FeatureCollection","features":[{"type":"Feature","geometry":{"type":"Polygon","coordinates":[[[-97.69261,30.55371],[-97.69236,30.53802],[-97.6921,30.53445],[-97.68639,30.51034],[-97.68404,30.50422],[-97.68013,30.4975],[-97.67857,30.49428],[-97.67071,30.46987],[-97.66921,30.46981],[-97.66773,30.46908],[-97.66806,30.46856],[-97.6659,30.46169],[-97.66568,30.46205],[-97.66531,30.46134],[-97.66472,30.46132],[-97.66458,30.4608],[-97.66317,30.46132],[-97.66238,30.46137],[-97.65979,30.46039],[-97.65951,30.46189],[-97.6506,30.45758],[-97.65082,30.45709],[-97.64902,30.45995],[-97.64754,30.46136],[-97.64631,30.46314],[-97.64708,30.46402],[-97.64763,30.46608],[-97.64748,30.46766],[-97.64609,30.46745],[-97.64421,30.46655],[-97.64281,30.46878],[-97.64376,30.46927],[-97.64282,30.47086],[-97.64409,30.47143],[-97.64583,30.47124],[-97.646,30.47214],[-97.64425,30.47245],[-97.64123,30.47233],[-97.64137,30.47309],[-97.6435,30.47815],[-97.64313,30.47983],[-97.64152,30.48183],[-97.64032,30.48183],[-97.6356,30.48089],[-97.63363,30.48401],[-97.62787,30.48527],[-97.62452,30.48714],[-97.62308,30.48715],[-97.62307,30.48786],[-97.61524,30.48792],[-97.61527,30.48955],[-97.61019,30.49],[-97.61017,30.48913],[-97.60958,30.48911],[-97.60954,30.48796],[-97.60012,30.48809],[-97.6001,30.49184],[-97.59957,30.4927],[-97.60016,30.4936],[-97.59697,30.49377],[-97.59524,30.49361],[-97.59499,30.49393],[-97.59537,30.49441],[-97.59494,30.49723],[-97.59338,30.49734],[-97.59111,30.49848],[-97.59106,30.49756],[-97.5906,30.49718],[-97.58879,30.49792],[-97.58884,30.49881],[-97.58984,30.49879],[-97.59015,30.51428],[-97.58952,30.51468],[-97.58947,30.5153],[-97.58968,30.51526],[-97.58967,30.51578],[-97.59036,30.51642],[-97.59022,30.51672],[-97.59053,30.51699],[-97.5902,30.5184],[-97.59049,30.51928],[-97.59036,30.51988],[-97.59109,30.52079],[-97.59193,30.52255],[-97.59151,30.52377],[-97.59167,30.52412],[-97.59116,30.52492],[-97.58964,30.52555],[-97.58898,30.52645],[-97.58848,30.52655],[-97.58728,30.52564],[-97.58685,30.52576],[-97.58671,30.52642],[-97.58524,30.52574],[-97.58446,30.52583],[-97.58596,30.5273],[-97.58682,30.52945],[-97.58854,30.53073],[-97.58987,30.53093],[-97.58907,30.53106],[-97.58856,30.53147],[-97.58872,30.53545],[-97.59242,30.5348],[-97.59245,30.53518],[-97.60125,30.53353],[-97.60997,30.5326],[-97.61453,30.53167],[-97.61393,30.52917],[-97.61379,30.52283],[-97.61384,30.51887],[-97.61462,30.5188],[-97.61467,30.51754],[-97.61383,30.51701],[-97.61377,30.51539],[-97.61651,30.51539],[-97.61642,30.51056],[-97.61354,30.51063],[-97.6134,30.50427],[-97.61625,30.50427],[-97.61618,30.50149],[-97.61336,30.50153],[-97.61334,30.50069],[-97.61481,30.50067],[-97.61483,30.50011],[-97.61617,30.50009],[-97.6161,30.49739],[-97.6184,30.49736],[-97.62225,30.49663],[-97.64526,30.49631],[-97.64534,30.50188],[-97.64455,30.5044],[-97.64444,30.50711],[-97.64493,30.51001],[-97.64426,30.50956],[-97.64606,30.51169],[-97.64685,30.51325],[-97.64725,30.51544],[-97.65117,30.51419],[-97.65301,30.51387],[-97.65522,30.5139],[-97.656,30.51415],[-97.65504,30.51474],[-97.65523,30.51494],[-97.65456,30.51533],[-97.65411,30.51611],[-97.65394,30.51808],[-97.65551,30.51785],[-97.65569,30.52114],[-97.65225,30.52869],[-97.65213,30.53364],[-97.65123,30.53938],[-97.65022,30.54329],[-97.65081,30.54335],[-97.6509,30.54315],[-97.65052,30.54287],[-97.65165,30.53831],[-97.65289,30.53827],[-97.6523,30.54092],[-97.65398,30.54071],[-97.65399,30.54117],[-97.65576,30.54096],[-97.65597,30.54166],[-97.6596,30.54053],[-97.65959,30.54001],[-97.67361,30.53827],[-97.67401,30.53865],[-97.67377,30.53953],[-97.67439,30.5407],[-97.6748,30.54115],[-97.67545,30.54109],[-97.676,30.54145],[-97.67851,30.54127],[-97.68045,30.53868],[-97.68005,30.53756],[-97.68179,30.53626],[-97.68247,30.53673],[-97.68458,30.53719],[-97.68817,30.53602],[-97.68824,30.53732],[-97.6888,30.53879],[-97.68866,30.54],[-97.68888,30.54087],[-97.69193,30.54015],[-97.69164,30.55082],[-97.69199,30.5534],[-97.69261,30.55371]]]},"properties":{"zip_code":"78664","county":"Williamson"}}]}