{"type":"FeatureCollection","features":[{"type":"Feature","geometry":{"type":"Polygon","coordinates":[[[-98.55616,30.48542],[-98.55588,30.48375],[-98.55528,30.48285],[-98.55389,30.48165],[-98.5529,30.48021],[-98.55225,30.47785],[-98.54839,30.47954],[-98.54215,30.48147],[-98.54057,30.48218],[-98.53424,30.48641],[-98.52764,30.49003],[-98.52688,30.49081],[-98.52568,30.49302],[-98.52499,30.49382],[-98.52386,30.4945],[-98.52194,30.49499],[-98.52179,30.4948],[-98.52225,30.49185],[-98.52183,30.49108],[-98.51792,30.48918],[-98.51726,30.4885],[-98.51491,30.48787],[-98.51445,30.48752],[-98.51787,30.48135],[-98.51493,30.48129],[-98.51571,30.48089],[-98.50738,30.47736],[-98.50722,30.47698],[-98.50547,30.4757],[-98.50509,30.47498],[-98.50505,30.47417],[-98.50473,30.47388],[-98.50161,30.4732],[-98.50001,30.47235],[-98.49763,30.47246],[-98.49613,30.47189],[-98.49551,30.47192],[-98.4946,30.47029],[-98.49357,30.4676],[-98.4921,30.46804],[-98.49178,30.4689],[-98.49048,30.46934],[-98.48954,30.47233],[-98.48824,30.47291],[-98.48808,30.47363],[-98.48517,30.4765],[-98.4851,30.47681],[-98.48467,30.47669],[-98.48446,30.47603],[-98.48393,30.47545],[-98.48388,30.47465],[-98.48441,30.47245],[-98.48427,30.47157],[-98.48393,30.47202],[-98.48345,30.47196],[-98.48365,30.47123],[-98.48331,30.47081],[-98.48319,30.4689],[-98.48264,30.46788],[-98.48288,30.46758],[-98.48257,30.46678],[-98.48345,30.46587],[-98.47912,30.46117],[-98.47791,30.45806],[-98.47763,30.45589],[-98.4772,30.45542],[-98.47565,30.45617],[-98.46706,30.45866],[-98.4596,30.45958],[-98.45125,30.4621],[-98.45132,30.45089],[-98.45013,30.44967],[-98.45098,30.44827],[-98.45085,30.44683],[-98.45053,30.44582],[-98.44966,30.44481],[-98.44976,30.44367],[-98.44902,30.44236],[-98.44878,30.43996],[-98.44858,30.43997],[-98.44819,30.44081],[-98.44849,30.44119],[-98.44848,30.44163],[-98.4478,30.44239],[-98.44634,30.44309],[-98.44512,30.44309],[-98.4449,30.44329],[-98.44499,30.44397],[-98.44435,30.44521],[-98.44529,30.44599],[-98.44537,30.44647],[-98.44436,30.44677],[-98.44375,30.44738],[-98.44387,30.44777],[-98.44457,30.44788],[-98.44465,30.44843],[-98.4445,30.44883],[-98.44379,30.4494],[-98.4441,30.45142],[-98.44337,30.45182],[-98.44292,30.45263],[-98.44295,30.45407],[-98.44248,30.45531],[-98.44279,30.4579],[-98.4418,30.45818],[-98.43759,30.45822],[-98.43675,30.4585],[-98.43399,30.45786],[-98.43378,30.45756],[-98.43272,30.4505],[-98.43275,30.4472],[-98.43317,30.44617],[-98.4341,30.44516],[-98.43399,30.4441],[-98.43418,30.44362],[-98.43529,30.44316],[-98.43561,30.44229],[-98.43608,30.44188],[-98.43653,30.44002],[-98.43513,30.4381],[-98.4337,30.43755],[-98.43254,30.43755],[-98.43169,30.43716],[-98.43114,30.4374],[-98.42922,30.43497],[-98.39051,30.43572],[-98.38599,30.43221],[-98.3785,30.43262],[-98.377,30.43335],[-98.37677,30.43468],[-98.37513,30.43593],[-98.37484,30.43844],[-98.37485,30.43806],[-98.37446,30.43771],[-98.37262,30.4373],[-98.37192,30.43729],[-98.37135,30.43794],[-98.37078,30.4379],[-98.37073,30.43701],[-98.36904,30.43659],[-98.36892,30.43621],[-98.36841,30.43584],[-98.3666,30.43629],[-98.36513,30.43619],[-98.36423,30.4365],[-98.36038,30.43671],[-98.35995,30.4366],[-98.35906,30.43578],[-98.35633,30.43508],[-98.35171,30.4342],[-98.35057,30.43452],[-98.34836,30.43293],[-98.34846,30.43176],[-98.35598,30.41683],[-98.35967,30.40881],[-98.36058,30.40894],[-98.3696,30.40857],[-98.36927,30.4049],[-98.36844,30.40506],[-98.36782,30.40483],[-98.365,30.40051],[-98.36382,30.39976],[-98.36944,30.38814],[-98.36647,30.38811],[-98.36572,30.38782],[-98.35608,30.40517],[-98.35417,30.40394],[-98.35303,30.40353],[-98.35202,30.40439],[-98.35262,30.40462],[-98.353,30.4042],[-98.35516,30.40522],[-98.35148,30.41231],[-98.34953,30.41754],[-98.34786,30.41682],[-98.34774,30.41634],[-98.34689,30.41617],[-98.347,30.41581],[-98.34618,30.41555],[-98.34607,30.41579],[-98.34598,30.41701],[-98.34724,30.41707],[-98.3472,30.41747],[-98.34852,30.41803],[-98.34921,30.4187],[-98.34526,30.42889],[-98.34424,30.42896],[-98.34421,30.42865],[-98.34372,30.42869],[-98.34368,30.42899],[-98.34247,30.42897],[-98.34243,30.42748],[-98.34168,30.42751],[-98.3417,30.42781],[-98.34205,30.42783],[-98.34198,30.42901],[-98.34141,30.42899],[-98.34151,30.42789],[-98.34127,30.42785],[-98.34073,30.42794],[-98.34079,30.42825],[-98.34118,30.42826],[-98.34124,30.42909],[-98.34093,30.42913],[-98.34084,30.42843],[-98.34025,30.42845],[-98.34057,30.42906],[-98.33994,30.42904],[-98.34001,30.42779],[-98.34028,30.42751],[-98.3394,30.42752],[-98.33946,30.42686],[-98.34006,30.42576],[-98.34005,30.42461],[-98.34027,30.42415],[-98.33967,30.42357],[-98.33987,30.42148],[-98.33884,30.42058],[-98.33765,30.41831],[-98.33712,30.4179],[-98.33509,30.41518],[-98.33462,30.41511],[-98.33239,30.41564],[-98.32876,30.41578],[-98.32695,30.41535],[-98.3227,30.41335],[-98.31878,30.41189],[-98.3157,30.41152],[-98.31413,30.41101],[-98.3125,30.4096],[-98.31112,30.40675],[-98.30722,30.40259],[-98.30294,30.39989],[-98.2986,30.39863],[-98.2971,30.39796],[-98.29546,30.39675],[-98.29349,30.39469],[-98.29136,30.39383],[-98.28995,30.39361],[-98.28831,30.3924],[-98.28737,30.39217],[-98.28829,30.39178],[-98.29067,30.39216],[-98.29158,30.39256],[-98.29307,30.392],[-98.29387,30.39128],[-98.29206,30.39074],[-98.29175,30.39043],[-98.29169,30.38981],[-98.29366,30.38877],[-98.29462,30.38772],[-98.29668,30.38635],[-98.29718,30.38457],[-98.29694,30.38308],[-98.2971,30.38179],[-98.2985,30.3805],[-98.29882,30.37953],[-98.29854,30.37768],[-98.2976,30.37459],[-98.29771,30.37389],[-98.29731,30.37346],[-98.29569,30.37269],[-98.29302,30.37317],[-98.29178,30.37383],[-98.29115,30.37379],[-98.28573,30.37175],[-98.28446,30.3717],[-98.28258,30.3723],[-98.28079,30.37381],[-98.2796,30.37443],[-98.27846,30.37466],[-98.27475,30.37447],[-98.2716,30.37487],[-98.27088,30.375],[-98.26877,30.37627],[-98.26473,30.37677],[-98.2651,30.37653],[-98.26954,30.36963],[-98.27068,30.36833],[-98.2727,30.36689],[-98.27525,30.36559],[-98.27602,30.36485],[-98.27721,30.36252],[-98.27782,30.35817],[-98.2844,30.35455],[-98.29062,30.35326],[-98.29367,30.35195],[-98.29439,30.35127],[-98.29543,30.3496],[-98.29703,30.34844],[-98.29345,30.33841],[-98.29257,30.3368],[-98.29731,30.33316],[-98.30001,30.33169],[-98.30154,30.33027],[-98.30154,30.32945],[-98.30117,30.32874],[-98.30038,30.32796],[-98.29906,30.32587],[-98.29821,30.32507],[-98.29729,30.32369],[-98.29819,30.32374],[-98.29977,30.32592],[-98.30164,30.32782],[-98.30349,30.3289],[-98.30898,30.3275],[-98.31055,30.3278],[-98.31333,30.3291],[-98.31615,30.32861],[-98.31476,30.30164],[-98.31128,30.30306],[-98.30897,30.30344],[-98.30282,30.30287],[-98.30093,30.30245],[-98.29994,30.303],[-98.29876,30.30416],[-98.29752,30.30455],[-98.29561,30.30634],[-98.29451,30.30685],[-98.29253,30.30912],[-98.28739,30.31264],[-98.2862,30.31323],[-98.28242,30.31412],[-98.2805,30.3135],[-98.2765,30.31826],[-98.27265,30.32209],[-98.27192,30.32358],[-98.27215,30.32463],[-98.27159,30.32644],[-98.26588,30.33298],[-98.26338,30.33649],[-98.2627,30.33707],[-98.25885,30.33913],[-98.25774,30.33954],[-98.25617,30.33966],[-98.25414,30.3393],[-98.25004,30.33742],[-98.24966,30.33707],[-98.24905,30.33551],[-98.24572,30.33243],[-98.24551,30.32966],[-98.24625,30.32414],[-98.24597,30.32355],[-98.24545,30.32314],[-98.24345,30.32236],[-98.24114,30.32251],[-98.2376,30.32392],[-98.2357,30.32427],[-98.23475,30.32415],[-98.23348,30.32342],[-98.23262,30.32221],[-98.23271,30.32079],[-98.235,30.31556],[-98.23631,30.31324],[-98.23729,30.31218],[-98.23867,30.31132],[-98.24315,30.3102],[-98.24524,30.30925],[-98.24576,30.30879],[-98.24613,30.308],[-98.24603,30.30726],[-98.24544,30.30616],[-98.24416,30.30504],[-98.24047,30.30074],[-98.2363,30.2979],[-98.23513,30.29756],[-98.23265,30.29748],[-98.22873,30.29783],[-98.226,30.29842],[-98.22492,30.29894],[-98.2239,30.30062],[-98.22339,30.30341],[-98.22391,30.30427],[-98.22327,30.3063],[-98.22227,30.30744],[-98.21664,30.31192],[-98.21505,30.31262],[-98.21341,30.31281],[-98.21227,30.31259],[-98.20801,30.31066],[-98.20621,30.31092],[-98.20437,30.31241],[-98.20357,30.3145],[-98.20354,30.31522],[-98.2056,30.31735],[-98.20688,30.31821],[-98.20799,30.31855],[-98.21005,30.32008],[-98.2113,30.32255],[-98.21133,30.32559],[-98.21057,30.32686],[-98.20833,30.32955],[-98.20638,30.33141],[-98.20313,30.33345],[-98.19866,30.3348],[-98.19752,30.33552],[-98.19676,30.33636],[-98.19631,30.338],[-98.19654,30.34],[-98.19734,30.34387],[-98.19828,30.34481],[-98.1985,30.34597],[-98.19705,30.3488],[-98.19634,30.34958],[-98.19507,30.35008],[-98.19277,30.35033],[-98.18642,30.34802],[-98.18534,30.34611],[-98.18502,30.34434],[-98.18484,30.34067],[-98.18288,30.33485],[-98.18078,30.333],[-98.17919,30.33035],[-98.17709,30.32821],[-98.17638,30.32766],[-98.1752,30.32753],[-98.17262,30.32877],[-98.16597,30.33129],[-98.15853,30.33374],[-98.15538,30.33451],[-98.15182,30.33483],[-98.14144,30.33386],[-98.14016,30.33396],[-98.13967,30.33429],[-98.13929,30.33518],[-98.13946,30.33709],[-98.13931,30.34062],[-98.13879,30.34151],[-98.13829,30.34426],[-98.13855,30.34715],[-98.13771,30.35086],[-98.13525,30.35511],[-98.13213,30.35767],[-98.12909,30.35925],[-98.12769,30.36058],[-98.12703,30.36166],[-98.12711,30.3628],[-98.12769,30.36338],[-98.12901,30.36384],[-98.12904,30.3645],[-98.13076,30.36567],[-98.13163,30.36684],[-98.1323,30.36859],[-98.13229,30.36948],[-98.13168,30.37048],[-98.12937,30.37262],[-98.13001,30.37268],[-98.13184,30.37196],[-98.13754,30.37322],[-98.14522,30.36528],[-98.14955,30.36992],[-98.15215,30.37317],[-98.15892,30.37321],[-98.15887,30.37665],[-98.15927,30.37665],[-98.16167,30.3729],[-98.16168,30.37369],[-98.16102,30.37424],[-98.16044,30.3759],[-98.16066,30.37653],[-98.16179,30.37771],[-98.16518,30.37918],[-98.16975,30.3789],[-98.17104,30.37998],[-98.17248,30.38215],[-98.17368,30.38348],[-98.17558,30.38387],[-98.1792,30.38403],[-98.18059,30.38511],[-98.18163,30.38721],[-98.18223,30.38745],[-98.18301,30.38739],[-98.18595,30.38601],[-98.18789,30.38569],[-98.18862,30.38527],[-98.18906,30.38535],[-98.19036,30.38742],[-98.19153,30.38786],[-98.19343,30.38943],[-98.1946,30.39003],[-98.19657,30.3931],[-98.19834,30.39381],[-98.19837,30.39466],[-98.19859,30.3951],[-98.19902,30.39515],[-98.19901,30.39567],[-98.20001,30.39613],[-98.20047,30.39717],[-98.20249,30.39919],[-98.20253,30.39995],[-98.20345,30.40028],[-98.20374,30.40107],[-98.20477,30.40175],[-98.20562,30.40331],[-98.2063,30.40381],[-98.20725,30.40515],[-98.20765,30.40513],[-98.20962,30.40612],[-98.21007,30.407],[-98.21025,30.40809],[-98.21004,30.40838],[-98.20869,30.4086],[-98.20829,30.40917],[-98.20776,30.41108],[-98.20747,30.41121],[-98.20723,30.41222],[-98.20652,30.41316],[-98.20649,30.41456],[-98.20689,30.41504],[-98.20662,30.41582],[-98.20668,30.42034],[-98.20747,30.42061],[-98.20863,30.42183],[-98.21056,30.42176],[-98.21096,30.42219],[-98.21136,30.42341],[-98.21194,30.42368],[-98.21556,30.42412],[-98.21609,30.42373],[-98.21665,30.42366],[-98.21763,30.42409],[-98.21776,30.42473],[-98.2181,30.42496],[-98.21921,30.42494],[-98.22851,30.41577],[-98.22963,30.41411],[-98.23539,30.41324],[-98.23607,30.41353],[-98.23675,30.41338],[-98.23827,30.41388],[-98.23976,30.414],[-98.24133,30.41466],[-98.2435,30.41462],[-98.24749,30.41388],[-98.24789,30.41371],[-98.24838,30.41304],[-98.24875,30.41297],[-98.25204,30.41422],[-98.25372,30.41434],[-98.25381,30.41564],[-98.26281,30.43484],[-98.2652,30.43599],[-98.26653,30.43809],[-98.26522,30.44113],[-98.26311,30.44793],[-98.25993,30.4518],[-98.26,30.45966],[-98.26042,30.4604],[-98.26062,30.46194],[-98.32088,30.47801],[-98.32118,30.48211],[-98.32307,30.48239],[-98.32299,30.4852],[-98.32317,30.48539],[-98.32811,30.4853],[-98.32849,30.49667],[-98.33337,30.49643],[-98.33332,30.49605],[-98.34257,30.49579],[-98.34364,30.48411],[-98.40096,30.49959],[-98.41146,30.5021],[-98.5223,30.501],[-98.52201,30.50032],[-98.52061,30.49895],[-98.52054,30.49783],[-98.52287,30.49704],[-98.52315,30.49619],[-98.52392,30.49603],[-98.52549,30.49629],[-98.52558,30.49573],[-98.52605,30.49559],[-98.52638,30.49503],[-98.52653,30.49431],[-98.52938,30.49442],[-98.53265,30.49489],[-98.53755,30.49459],[-98.54535,30.49096],[-98.55465,30.488],[-98.55595,30.48718],[-98.55616,30.48542]]]},"properties":{"zip_code":"78663","county":"Travis"}}]}