{"type":"FeatureCollection","features":[{"type":"Feature","geometry":{"type":"Polygon","coordinates":[[[-98.26654,30.43826],[-98.2652,30.43599],[-98.26278,30.4348],[-98.25381,30.41564],[-98.25372,30.41434],[-98.25204,30.41422],[-98.24875,30.41297],[-98.24838,30.41304],[-98.24789,30.41371],[-98.24749,30.41388],[-98.2435,30.41462],[-98.24133,30.41466],[-98.23976,30.414],[-98.23827,30.41388],[-98.23675,30.41338],[-98.23607,30.41353],[-98.23539,30.41324],[-98.22963,30.41411],[-98.22851,30.41577],[-98.21887,30.42508],[-98.2181,30.42496],[-98.21776,30.42473],[-98.21763,30.42409],[-98.21665,30.42366],[-98.21609,30.42373],[-98.21556,30.42412],[-98.21194,30.42368],[-98.21136,30.42341],[-98.21096,30.42219],[-98.21056,30.42176],[-98.2093,30.42187],[-98.20829,30.42167],[-98.20747,30.42061],[-98.20668,30.42034],[-98.20662,30.41582],[-98.20689,30.41504],[-98.20649,30.41456],[-98.20652,30.41316],[-98.20723,30.41222],[-98.20747,30.41121],[-98.20776,30.41108],[-98.20829,30.40917],[-98.20869,30.4086],[-98.21004,30.40838],[-98.21025,30.40809],[-98.21007,30.407],[-98.20962,30.40612],[-98.20894,30.40566],[-98.20725,30.40515],[-98.2063,30.40381],[-98.20562,30.40331],[-98.20477,30.40175],[-98.20374,30.40107],[-98.20345,30.40028],[-98.20253,30.39995],[-98.20249,30.39919],[-98.20047,30.39717],[-98.20001,30.39613],[-98.19901,30.39567],[-98.19902,30.39515],[-98.19859,30.3951],[-98.19837,30.39466],[-98.19834,30.39381],[-98.19646,30.39298],[-98.1946,30.39003],[-98.19343,30.38943],[-98.19153,30.38786],[-98.19036,30.38742],[-98.18906,30.38535],[-98.18862,30.38527],[-98.18789,30.38569],[-98.18595,30.38601],[-98.18335,30.38727],[-98.18213,30.38743],[-98.18138,30.38688],[-98.18059,30.38511],[-98.1792,30.38403],[-98.17558,30.38387],[-98.17368,30.38348],[-98.17248,30.38215],[-98.17104,30.37998],[-98.16975,30.3789],[-98.16518,30.37918],[-98.16193,30.37779],[-98.16082,30.37674],[-98.16044,30.3759],[-98.16102,30.37424],[-98.16168,30.37369],[-98.16167,30.3729],[-98.15927,30.37665],[-98.15887,30.37665],[-98.15892,30.37321],[-98.15215,30.37317],[-98.14955,30.36992],[-98.14522,30.36528],[-98.13754,30.37322],[-98.13184,30.37196],[-98.13001,30.37268],[-98.12896,30.37259],[-98.12529,30.37534],[-98.12525,30.37511],[-98.11902,30.37741],[-98.11898,30.37476],[-98.11859,30.37203],[-98.11637,30.35997],[-98.11442,30.35908],[-98.1141,30.35923],[-98.11141,30.36321],[-98.10131,30.35829],[-98.10206,30.35705],[-98.09501,30.35355],[-98.09583,30.35251],[-98.10773,30.34652],[-98.09972,30.33432],[-98.11205,30.32775],[-98.1089,30.32599],[-98.10761,30.32417],[-98.10342,30.32071],[-98.09055,30.31214],[-98.0896,30.31295],[-98.08897,30.31429],[-98.0875,30.31467],[-98.08709,30.31577],[-98.08585,30.31646],[-98.08508,30.31821],[-98.08489,30.31943],[-98.08346,30.32041],[-98.08314,30.32307],[-98.08255,30.32581],[-98.08199,30.32697],[-98.08188,30.32818],[-98.07911,30.33155],[-98.07869,30.33351],[-98.07772,30.33554],[-98.07658,30.33724],[-98.07711,30.33856],[-98.07655,30.34076],[-98.07697,30.34252],[-98.07676,30.3452],[-98.07411,30.34639],[-98.06935,30.34422],[-98.06251,30.34779],[-98.06141,30.3471],[-98.05975,30.3447],[-98.05873,30.34197],[-98.05521,30.34065],[-98.05507,30.34007],[-98.0544,30.34],[-98.0522,30.34159],[-98.05133,30.34172],[-98.04864,30.33932],[-98.04752,30.33872],[-98.04689,30.33867],[-98.04537,30.33945],[-98.04388,30.33961],[-98.04262,30.33869],[-98.04198,30.33782],[-98.04012,30.33691],[-98.03742,30.33723],[-98.03568,30.33883],[-98.03281,30.33664],[-98.02982,30.33501],[-98.02747,30.33322],[-98.02557,30.33235],[-98.02452,30.3315],[-98.02438,30.33162],[-98.02371,30.33323],[-98.02387,30.33454],[-98.02353,30.33614],[-98.0243,30.33733],[-98.02611,30.3379],[-98.02688,30.33869],[-98.02697,30.33948],[-98.02595,30.34291],[-98.02621,30.34294],[-98.02739,30.34458],[-98.02818,30.34986],[-98.02831,30.35302],[-98.03004,30.35444],[-98.02842,30.35551],[-98.02636,30.3546],[-98.02624,30.3559],[-98.02657,30.35618],[-98.02517,30.35611],[-98.02467,30.3557],[-98.02342,30.35592],[-98.02148,30.35586],[-98.02191,30.3538],[-98.02566,30.35407],[-98.02583,30.3537],[-98.02559,30.35392],[-98.02355,30.35319],[-98.0225,30.3525],[-98.0233,30.35125],[-98.02376,30.35097],[-98.02454,30.35094],[-98.02406,30.35075],[-98.02213,30.35084],[-98.022,30.35161],[-98.02035,30.35381],[-98.02061,30.35483],[-98.02012,30.35555],[-98.01898,30.35869],[-98.01929,30.36033],[-98.01985,30.36141],[-98.01911,30.3623],[-98.01868,30.36217],[-98.01913,30.36298],[-98.01902,30.36375],[-98.01812,30.36497],[-98.0182,30.36584],[-98.01858,30.36631],[-98.01759,30.3669],[-98.01755,30.36768],[-98.01711,30.36804],[-98.01635,30.36775],[-98.01563,30.36798],[-98.0148,30.36652],[-98.0142,30.36611],[-98.01325,30.36714],[-98.01355,30.36738],[-98.01345,30.36766],[-98.0137,30.36776],[-98.01481,30.37048],[-98.01182,30.37048],[-98.00911,30.37116],[-98.01066,30.37095],[-98.01248,30.37166],[-98.01443,30.37377],[-98.01555,30.37569],[-98.01608,30.37687],[-98.01581,30.37969],[-98.01479,30.38212],[-98.00171,30.39467],[-97.99941,30.39523],[-97.98832,30.40155],[-97.98503,30.40481],[-97.98411,30.40791],[-97.98425,30.4113],[-97.98455,30.4127],[-97.98553,30.41383],[-97.98677,30.41462],[-97.99013,30.41484],[-97.99737,30.41422],[-98.00429,30.41429],[-98.01105,30.41474],[-98.0195,30.41494],[-98.0305,30.41585],[-98.03318,30.41667],[-98.03667,30.41842],[-98.0371,30.42025],[-98.03703,30.42183],[-98.03588,30.42601],[-98.03464,30.42865],[-98.03185,30.43224],[-98.02594,30.43764],[-98.01189,30.44918],[-98.00765,30.4503],[-98.00593,30.45037],[-98.00525,30.45203],[-98.00248,30.45399],[-98.00028,30.45589],[-97.9994,30.45706],[-97.99874,30.45879],[-97.99863,30.46103],[-97.99912,30.46423],[-98.00189,30.47045],[-98.00285,30.47364],[-98.00468,30.47663],[-98.006,30.47812],[-98.00861,30.4797],[-98.01216,30.48058],[-98.0177,30.48061],[-98.02072,30.47941],[-98.02223,30.47808],[-98.02378,30.47626],[-98.02541,30.47204],[-98.02641,30.4684],[-98.02698,30.46735],[-98.02791,30.46314],[-98.02904,30.45965],[-98.03157,30.45504],[-98.03629,30.44768],[-98.04069,30.44292],[-98.05064,30.43511],[-98.054,30.43332],[-98.05589,30.433],[-98.05778,30.43317],[-98.05936,30.43392],[-98.06087,30.43527],[-98.06199,30.43741],[-98.06328,30.44199],[-98.06219,30.44403],[-98.061,30.44533],[-98.05605,30.44888],[-98.05419,30.45091],[-98.05399,30.45182],[-98.05425,30.45325],[-98.05535,30.45666],[-98.05805,30.45954],[-98.05999,30.46103],[-98.06252,30.46245],[-98.0656,30.46285],[-98.07281,30.46282],[-98.07783,30.46325],[-98.08242,30.46408],[-98.08564,30.46544],[-98.08812,30.4672],[-98.089,30.46826],[-98.09013,30.47015],[-98.09109,30.47239],[-98.09149,30.47498],[-98.09108,30.47597],[-98.08258,30.48535],[-98.08034,30.48824],[-98.07965,30.48957],[-98.07943,30.49261],[-98.07991,30.49389],[-98.08081,30.49506],[-98.08242,30.49613],[-98.08325,30.49642],[-98.08815,30.49757],[-98.09253,30.49803],[-98.09779,30.49744],[-98.09778,30.49806],[-98.10086,30.49746],[-98.10318,30.49669],[-98.10592,30.49534],[-98.10828,30.49358],[-98.11056,30.49091],[-98.11372,30.48558],[-98.11817,30.48479],[-98.12089,30.48502],[-98.12311,30.48472],[-98.12342,30.48648],[-98.12313,30.48704],[-98.12541,30.48851],[-98.12588,30.48799],[-98.12764,30.49037],[-98.12951,30.49486],[-98.1304,30.49609],[-98.13089,30.49758],[-98.1312,30.50225],[-98.13348,30.51029],[-98.13373,30.51335],[-98.13321,30.51473],[-98.13223,30.51589],[-98.131,30.5168],[-98.12529,30.51922],[-98.12528,30.52126],[-98.12427,30.52257],[-98.12394,30.52275],[-98.12378,30.52219],[-98.12323,30.5223],[-98.12336,30.52113],[-98.12315,30.52113],[-98.12258,30.52156],[-98.12161,30.52331],[-98.12391,30.52947],[-98.12419,30.52991],[-98.1249,30.5299],[-98.12423,30.53034],[-98.12423,30.53141],[-98.12493,30.53272],[-98.1251,30.53434],[-98.12597,30.53603],[-98.12576,30.53642],[-98.12695,30.53669],[-98.12919,30.53638],[-98.1311,30.53484],[-98.13153,30.53389],[-98.13153,30.53347],[-98.13116,30.53306],[-98.13165,30.53345],[-98.13159,30.53372],[-98.13214,30.53339],[-98.13338,30.53173],[-98.13322,30.5306],[-98.13383,30.53077],[-98.13462,30.52937],[-98.13553,30.52868],[-98.13748,30.52622],[-98.13916,30.52486],[-98.1407,30.52284],[-98.14253,30.52275],[-98.14262,30.52231],[-98.14224,30.52192],[-98.1425,30.52116],[-98.14251,30.52155],[-98.14299,30.52185],[-98.14387,30.5217],[-98.14337,30.52203],[-98.143,30.5227],[-98.14311,30.52312],[-98.14376,30.52312],[-98.14429,30.5237],[-98.14481,30.52366],[-98.14497,30.52402],[-98.14636,30.52439],[-98.14939,30.52443],[-98.15397,30.52323],[-98.15413,30.52316],[-98.15377,30.52244],[-98.15434,30.52195],[-98.15423,30.52176],[-98.15376,30.522],[-98.15428,30.52168],[-98.15455,30.52189],[-98.15399,30.52246],[-98.15402,30.52274],[-98.15487,30.52303],[-98.15848,30.52268],[-98.15909,30.52284],[-98.15913,30.52193],[-98.15959,30.52267],[-98.16044,30.52247],[-98.15944,30.52322],[-98.16121,30.5241],[-98.16393,30.52455],[-98.16677,30.5257],[-98.16757,30.52629],[-98.17002,30.52933],[-98.17081,30.52945],[-98.17119,30.53027],[-98.17134,30.53222],[-98.17099,30.53342],[-98.17036,30.53452],[-98.17097,30.53555],[-98.17261,30.53646],[-98.17394,30.53662],[-98.17598,30.5359],[-98.17793,30.53332],[-98.17869,30.53247],[-98.17904,30.53241],[-98.17966,30.53277],[-98.18131,30.53301],[-98.18143,30.53327],[-98.18314,30.53381],[-98.18521,30.53492],[-98.18575,30.53553],[-98.18633,30.53526],[-98.18774,30.53669],[-98.18868,30.53885],[-98.18907,30.53901],[-98.19027,30.53863],[-98.19212,30.53743],[-98.19443,30.5342],[-98.19534,30.53462],[-98.19573,30.53416],[-98.19533,30.53374],[-98.19548,30.53286],[-98.19564,30.53239],[-98.19601,30.5323],[-98.19636,30.53265],[-98.19588,30.53249],[-98.19579,30.53279],[-98.19614,30.53438],[-98.19543,30.53493],[-98.20005,30.53494],[-98.20628,30.53538],[-98.20854,30.53483],[-98.21045,30.53492],[-98.21131,30.53364],[-98.21276,30.53335],[-98.21658,30.53482],[-98.2175,30.53472],[-98.2186,30.53518],[-98.22031,30.53641],[-98.22286,30.53893],[-98.22308,30.53891],[-98.22381,30.537],[-98.22236,30.53409],[-98.2224,30.53324],[-98.22383,30.53269],[-98.22632,30.5324],[-98.22827,30.53251],[-98.22874,30.53222],[-98.22894,30.53114],[-98.22835,30.52964],[-98.22844,30.52815],[-98.22939,30.52515],[-98.2293,30.52214],[-98.22995,30.52068],[-98.23091,30.51997],[-98.23179,30.5199],[-98.2327,30.52042],[-98.23378,30.52153],[-98.23455,30.5218],[-98.23662,30.52139],[-98.23713,30.52094],[-98.23714,30.51953],[-98.23539,30.51675],[-98.23538,30.51561],[-98.23481,30.51302],[-98.23479,30.51017],[-98.23516,30.50882],[-98.23621,30.50675],[-98.23978,30.50326],[-98.24016,30.50196],[-98.24153,30.50205],[-98.24227,30.50157],[-98.24264,30.5011],[-98.24272,30.49992],[-98.2431,30.49928],[-98.24371,30.49925],[-98.24509,30.49986],[-98.24562,30.49911],[-98.2485,30.49708],[-98.2496,30.49754],[-98.25083,30.49743],[-98.25207,30.4977],[-98.25439,30.4968],[-98.25584,30.497],[-98.25738,30.49675],[-98.25812,30.49699],[-98.2597,30.4981],[-98.26118,30.49839],[-98.26226,30.49892],[-98.26344,30.49867],[-98.26375,30.4984],[-98.26144,30.49752],[-98.25038,30.49424],[-98.24014,30.49311],[-98.24098,30.49232],[-98.24398,30.49169],[-98.24719,30.4915],[-98.25008,30.49047],[-98.25135,30.48983],[-98.25267,30.48859],[-98.25321,30.48765],[-98.25063,30.48346],[-98.25104,30.48264],[-98.25003,30.48029],[-98.24924,30.4793],[-98.24774,30.47807],[-98.24711,30.47682],[-98.24681,30.47559],[-98.24698,30.47427],[-98.24615,30.47452],[-98.24391,30.47418],[-98.24385,30.46776],[-98.23065,30.46772],[-98.23069,30.45816],[-98.22606,30.45657],[-98.22616,30.45275],[-98.24946,30.45889],[-98.2503,30.45945],[-98.26062,30.46194],[-98.26042,30.4604],[-98.26,30.45966],[-98.25993,30.4518],[-98.26311,30.44793],[-98.26522,30.44113],[-98.26654,30.43826]]]},"properties":{"zip_code":"78669","county":"Travis"}}]}