{"type":"FeatureCollection","features":[{"type":"Feature","geometry":{"type":"Polygon","coordinates":[[[-97.7733,29.74193],[-97.77286,29.74224],[-97.77253,29.74199],[-97.77113,29.74198],[-97.77094,29.74175],[-97.7696,29.74191],[-97.76887,29.74178],[-97.76825,29.74125],[-97.7702,29.73925],[-97.7707,29.73782],[-97.77067,29.73632],[-97.77018,29.73482],[-97.7705,29.73347],[-97.77127,29.73284],[-97.77145,29.73371],[-97.77193,29.73419],[-97.77231,29.73404],[-97.77129,29.73263],[-97.76563,29.72903],[-97.76528,29.72848],[-97.76374,29.7279],[-97.763,29.72791],[-97.76187,29.72839],[-97.76128,29.7283],[-97.76069,29.72776],[-97.76059,29.72708],[-97.76112,29.72591],[-97.76104,29.72555],[-97.76021,29.72549],[-97.75982,29.72505],[-97.75934,29.72523],[-97.75922,29.72594],[-97.7587,29.72552],[-97.7586,29.72505],[-97.75922,29.72384],[-97.76057,29.72358],[-97.76354,29.72177],[-97.7652,29.72159],[-97.76647,29.72176],[-97.76847,29.72005],[-97.76832,29.71888],[-97.76566,29.71713],[-97.76374,29.71342],[-97.76279,29.71285],[-97.76147,29.71372],[-97.75904,29.71459],[-97.75869,29.71489],[-97.7585,29.71602],[-97.75731,29.717],[-97.75683,29.71775],[-97.75566,29.71773],[-97.75294,29.71663],[-97.74998,29.71463],[-97.74739,29.71427],[-97.74653,29.71344],[-97.74641,29.71301],[-97.74665,29.71256],[-97.74724,29.71212],[-97.7477,29.71227],[-97.74956,29.71203],[-97.74985,29.71181],[-97.74982,29.71156],[-97.74899,29.7111],[-97.74692,29.7111],[-97.74593,29.71141],[-97.74493,29.71269],[-97.74394,29.71186],[-97.74136,29.71259],[-97.73978,29.71252],[-97.73854,29.713],[-97.73831,29.71274],[-97.73742,29.71327],[-97.73685,29.71312],[-97.73606,29.71239],[-97.73502,29.71266],[-97.72869,29.71724],[-97.72852,29.71744],[-97.72979,29.71793],[-97.73416,29.71863],[-97.73589,29.71917],[-97.74054,29.72399],[-97.73382,29.72092],[-97.73297,29.72278],[-97.73231,29.72347],[-97.73142,29.7237],[-97.73076,29.72358],[-97.72984,29.72383],[-97.72811,29.7226],[-97.72735,29.72257],[-97.72659,29.72207],[-97.72593,29.72387],[-97.7252,29.72448],[-97.72575,29.7292],[-97.72229,29.7257],[-97.7175,29.72909],[-97.71699,29.72977],[-97.71649,29.7319],[-97.7157,29.73356],[-97.71191,29.73694],[-97.71169,29.73764],[-97.7118,29.74043],[-97.71129,29.74181],[-97.71021,29.74291],[-97.70607,29.74593],[-97.70563,29.74688],[-97.71089,29.75235],[-97.71565,29.74594],[-97.7166,29.74392],[-97.7168,29.74379],[-97.71732,29.74421],[-97.72331,29.73966],[-97.72454,29.73945],[-97.72539,29.74026],[-97.72589,29.74026],[-97.74487,29.72596],[-97.75013,29.72838],[-97.75144,29.72937],[-97.76074,29.74245],[-97.76502,29.7473],[-97.77171,29.74396],[-97.77178,29.74348],[-97.77147,29.74303],[-97.77046,29.74267],[-97.77073,29.74243],[-97.773,29.74234],[-97.7733,29.74193]]]},"properties":{"zip_code":"78661","county":"Caldwell"}}]}