{"type":"FeatureCollection","features":[{"type":"Feature","geometry":{"type":"Polygon","coordinates":[[[-97.67159,30.42442],[-97.67118,30.42431],[-97.67006,30.43019],[-97.66682,30.4297],[-97.66578,30.42926],[-97.66524,30.42885],[-97.66873,30.42334],[-97.66577,30.42182],[-97.66512,30.42295],[-97.66492,30.42496],[-97.66501,30.42145],[-97.65877,30.4184],[-97.65639,30.41653],[-97.65456,30.41436],[-97.65391,30.41511],[-97.65395,30.41626],[-97.65368,30.41674],[-97.65107,30.42028],[-97.65669,30.42341],[-97.65737,30.42438],[-97.65706,30.42575],[-97.65699,30.42937],[-97.6567,30.43021],[-97.65658,30.43041],[-97.65099,30.4277],[-97.64999,30.42928],[-97.64807,30.42858],[-97.6467,30.42854],[-97.64683,30.42631],[-97.64788,30.42474],[-97.64671,30.42371],[-97.64553,30.42313],[-97.64719,30.42038],[-97.64565,30.41929],[-97.64755,30.41874],[-97.64787,30.4184],[-97.64833,30.41877],[-97.65199,30.41296],[-97.65074,30.41218],[-97.64959,30.41046],[-97.64858,30.4096],[-97.64624,30.41333],[-97.64609,30.41424],[-97.64544,30.41417],[-97.64781,30.41055],[-97.64701,30.40967],[-97.64225,30.40886],[-97.64202,30.40799],[-97.64101,30.40687],[-97.6417,30.4065],[-97.63786,30.40473],[-97.63832,30.40366],[-97.63549,30.4023],[-97.63401,30.4013],[-97.63356,30.4005],[-97.63328,30.39785],[-97.63291,30.3969],[-97.63203,30.396],[-97.62884,30.39434],[-97.62822,30.39362],[-97.62779,30.39234],[-97.62708,30.39159],[-97.61616,30.38633],[-97.61193,30.39295],[-97.61414,30.39397],[-97.61387,30.3944],[-97.60948,30.39191],[-97.6092,30.39132],[-97.60724,30.38965],[-97.60713,30.38904],[-97.60765,30.38821],[-97.60757,30.38783],[-97.60612,30.38637],[-97.60597,30.38571],[-97.60509,30.3846],[-97.60414,30.38414],[-97.60298,30.3842],[-97.60243,30.38334],[-97.60159,30.38419],[-97.59429,30.39599],[-97.5935,30.39657],[-97.59371,30.39688],[-97.59415,30.3969],[-97.5949,30.39619],[-97.59527,30.39646],[-97.59562,30.39636],[-97.59561,30.39596],[-97.596,30.39581],[-97.59724,30.39625],[-97.59713,30.39667],[-97.59644,30.39697],[-97.59647,30.39762],[-97.59737,30.39794],[-97.59799,30.39762],[-97.59885,30.39785],[-97.598,30.39995],[-97.59926,30.40055],[-97.59951,30.40037],[-97.60073,30.40076],[-97.60073,30.40134],[-97.6005,30.4015],[-97.60028,30.40135],[-97.59997,30.40209],[-97.59945,30.40197],[-97.59882,30.4032],[-97.59952,30.40352],[-97.59979,30.40309],[-97.60035,30.40382],[-97.60098,30.4038],[-97.60091,30.40548],[-97.60116,30.40562],[-97.60071,30.4059],[-97.59941,30.40528],[-97.59893,30.40549],[-97.59823,30.40627],[-97.59835,30.40746],[-97.59862,30.40765],[-97.59935,30.40758],[-97.60089,30.40833],[-97.60153,30.40834],[-97.60202,30.40878],[-97.60218,30.40955],[-97.60199,30.40986],[-97.60078,30.40963],[-97.60019,30.41001],[-97.60058,30.41081],[-97.59995,30.41204],[-97.59985,30.41293],[-97.60112,30.4128],[-97.6019,30.41302],[-97.60221,30.41408],[-97.60198,30.41638],[-97.6044,30.41616],[-97.60468,30.41747],[-97.60466,30.41786],[-97.60427,30.41805],[-97.6015,30.41672],[-97.6005,30.41829],[-97.59662,30.41655],[-97.59373,30.42092],[-97.59319,30.42065],[-97.59544,30.41724],[-97.59496,30.41575],[-97.58951,30.41309],[-97.59391,30.40626],[-97.58567,30.40236],[-97.58316,30.40629],[-97.58188,30.40183],[-97.57844,30.40005],[-97.57772,30.39976],[-97.57617,30.40222],[-97.56921,30.399],[-97.56843,30.40045],[-97.55104,30.39202],[-97.54141,30.40748],[-97.5404,30.407],[-97.53825,30.41065],[-97.53857,30.41083],[-97.53688,30.41357],[-97.5266,30.40873],[-97.52305,30.4139],[-97.52325,30.41403],[-97.52364,30.41379],[-97.52395,30.41428],[-97.52453,30.41419],[-97.5257,30.41466],[-97.52635,30.41439],[-97.52673,30.41468],[-97.52676,30.41566],[-97.52717,30.41624],[-97.52776,30.41626],[-97.52752,30.41681],[-97.5265,30.41739],[-97.52684,30.41766],[-97.52686,30.41804],[-97.52724,30.41833],[-97.52802,30.41837],[-97.52795,30.41873],[-97.52832,30.41909],[-97.52873,30.41899],[-97.52932,30.4199],[-97.53006,30.4202],[-97.53028,30.42051],[-97.53004,30.42055],[-97.53002,30.42079],[-97.53068,30.42084],[-97.53099,30.42121],[-97.53067,30.42144],[-97.53118,30.42212],[-97.53102,30.42227],[-97.53125,30.423],[-97.53108,30.42326],[-97.53171,30.42369],[-97.53204,30.42575],[-97.53182,30.42689],[-97.53286,30.42552],[-97.53804,30.42801],[-97.53865,30.42808],[-97.53917,30.42777],[-97.54079,30.42524],[-97.5418,30.42504],[-97.55059,30.42912],[-97.55224,30.4296],[-97.55247,30.43018],[-97.55233,30.4308],[-97.55192,30.43103],[-97.55153,30.43072],[-97.55087,30.43094],[-97.55068,30.43117],[-97.55097,30.43167],[-97.55055,30.43159],[-97.55041,30.43198],[-97.55069,30.43212],[-97.5505,30.43246],[-97.55087,30.43277],[-97.55227,30.4329],[-97.55284,30.4336],[-97.55271,30.4341],[-97.55228,30.43427],[-97.55151,30.43518],[-97.55089,30.4352],[-97.55039,30.43588],[-97.54955,30.43577],[-97.54954,30.43531],[-97.54888,30.43502],[-97.54825,30.43531],[-97.54822,30.43579],[-97.54736,30.43624],[-97.54706,30.43696],[-97.54699,30.43801],[-97.5466,30.4383],[-97.54674,30.43865],[-97.54607,30.43986],[-97.54676,30.44043],[-97.54651,30.44083],[-97.54352,30.43927],[-97.54312,30.43969],[-97.53575,30.45119],[-97.53297,30.44979],[-97.52543,30.46173],[-97.52437,30.46797],[-97.52828,30.46874],[-97.52712,30.47465],[-97.52815,30.47543],[-97.54412,30.4796],[-97.54431,30.47939],[-97.54314,30.47916],[-97.54608,30.47542],[-97.55007,30.47648],[-97.54949,30.48025],[-97.55362,30.48077],[-97.55233,30.4875],[-97.55198,30.48745],[-97.55296,30.49029],[-97.56346,30.49183],[-97.56377,30.49556],[-97.56889,30.49616],[-97.56826,30.49972],[-97.57208,30.50026],[-97.58005,30.50039],[-97.5809,30.50086],[-97.5819,30.50046],[-97.58218,30.49992],[-97.58312,30.49759],[-97.58393,30.49404],[-97.58439,30.49386],[-97.59212,30.49373],[-97.59268,30.49413],[-97.59293,30.4975],[-97.59494,30.49723],[-97.59536,30.49483],[-97.59536,30.49417],[-97.595,30.49398],[-97.5952,30.49363],[-97.60016,30.4936],[-97.59957,30.4927],[-97.6001,30.49184],[-97.60012,30.48809],[-97.60954,30.48796],[-97.60958,30.48911],[-97.61017,30.48913],[-97.61019,30.49],[-97.61527,30.48955],[-97.61524,30.48792],[-97.62307,30.48786],[-97.62308,30.48715],[-97.62452,30.48714],[-97.62787,30.48527],[-97.63363,30.48401],[-97.6356,30.48089],[-97.64032,30.48183],[-97.64152,30.48183],[-97.64313,30.47983],[-97.6435,30.47815],[-97.64137,30.47309],[-97.64123,30.47233],[-97.64425,30.47245],[-97.646,30.47214],[-97.64583,30.47124],[-97.64409,30.47143],[-97.64282,30.47086],[-97.64376,30.46927],[-97.64281,30.46878],[-97.64421,30.46655],[-97.64609,30.46745],[-97.64748,30.46766],[-97.64763,30.46608],[-97.64708,30.46402],[-97.64631,30.46314],[-97.64754,30.46136],[-97.64902,30.45995],[-97.65082,30.45709],[-97.6506,30.45758],[-97.65951,30.46189],[-97.65979,30.46039],[-97.66238,30.46137],[-97.66317,30.46132],[-97.66458,30.4608],[-97.66472,30.46132],[-97.66531,30.46134],[-97.66568,30.46205],[-97.6659,30.46169],[-97.66806,30.46856],[-97.66773,30.46908],[-97.66921,30.46981],[-97.67071,30.46987],[-97.66659,30.45664],[-97.66628,30.45341],[-97.66663,30.45044],[-97.66813,30.44274],[-97.66875,30.44304],[-97.66882,30.44267],[-97.66861,30.44254],[-97.66931,30.44033],[-97.66851,30.44059],[-97.67159,30.42442]]]},"properties":{"zip_code":"78660","county":"Travis"}}]}