{"type":"FeatureCollection","features":[{"type":"Feature","geometry":{"type":"Polygon","coordinates":[[[-97.65319,29.33921],[-97.62946,29.31516],[-97.62763,29.31474],[-97.62717,29.3129],[-97.61545,29.30049],[-97.57824,29.32733],[-97.57524,29.33155],[-97.56269,29.34262],[-97.54631,29.32849],[-97.5454,29.32988],[-97.54598,29.33105],[-97.54226,29.33114],[-97.53995,29.32993],[-97.52717,29.34181],[-97.54237,29.35449],[-97.54589,29.35606],[-97.5465,29.36004],[-97.55053,29.36029],[-97.56085,29.36354],[-97.56053,29.36592],[-97.56465,29.3668],[-97.56678,29.3686],[-97.56632,29.3716],[-97.5649,29.37386],[-97.57601,29.37816],[-97.59255,29.39505],[-97.59317,29.39458],[-97.59242,29.39354],[-97.59083,29.39281],[-97.59198,29.39161],[-97.59194,29.3885],[-97.58962,29.38767],[-97.59096,29.38655],[-97.59075,29.38538],[-97.58787,29.38529],[-97.58795,29.38357],[-97.58959,29.38061],[-97.58808,29.38036],[-97.58779,29.37914],[-97.59239,29.37578],[-97.59354,29.37569],[-97.59406,29.37399],[-97.59336,29.37219],[-97.59508,29.37232],[-97.59529,29.37026],[-97.59359,29.3682],[-97.59378,29.36689],[-97.592,29.36753],[-97.58786,29.36678],[-97.58844,29.36462],[-97.58797,29.36348],[-97.58995,29.36274],[-97.58922,29.36091],[-97.59095,29.35804],[-97.59034,29.35362],[-97.5933,29.35112],[-97.59447,29.34757],[-97.59269,29.34683],[-97.59321,29.34453],[-97.59011,29.34276],[-97.58968,29.34169],[-97.59043,29.33989],[-97.59296,29.33886],[-97.59498,29.34148],[-97.59976,29.34324],[-97.60104,29.34294],[-97.60185,29.34518],[-97.60405,29.3469],[-97.60669,29.34782],[-97.60792,29.3475],[-97.60989,29.34901],[-97.61151,29.34882],[-97.61593,29.35036],[-97.61925,29.34965],[-97.62205,29.35244],[-97.62349,29.35134],[-97.62493,29.35333],[-97.62941,29.35276],[-97.63006,29.35432],[-97.6337,29.35574],[-97.63348,29.35732],[-97.64001,29.35767],[-97.64017,29.35675],[-97.64344,29.35418],[-97.64258,29.35255],[-97.64307,29.3516],[-97.64509,29.3508],[-97.64426,29.34598],[-97.65319,29.33921]]]},"properties":{"zip_code":"78677","county":"Gonzales"}}]}