{"type":"FeatureCollection","features":[{"type":"Feature","geometry":{"type":"Polygon","coordinates":[[[-97.61017,30.67216],[-97.61009,30.67169],[-97.60426,30.67077],[-97.60176,30.66994],[-97.5993,30.66842],[-97.59725,30.66683],[-97.5967,30.66611],[-97.59615,30.66499],[-97.59581,30.66325],[-97.59552,30.66403],[-97.59586,30.66707],[-97.59369,30.66732],[-97.59452,30.67119],[-97.59388,30.67127],[-97.59169,30.67228],[-97.58647,30.67339],[-97.5867,30.67428],[-97.58595,30.67446],[-97.58644,30.67579],[-97.59015,30.67495],[-97.58993,30.67409],[-97.5911,30.67392],[-97.59135,30.67515],[-97.59077,30.67537],[-97.59051,30.67735],[-97.59169,30.68077],[-97.59188,30.68079],[-97.59343,30.68028],[-97.5924,30.67717],[-97.59257,30.6759],[-97.59191,30.67387],[-97.60641,30.67274],[-97.60986,30.67279],[-97.61017,30.67216]]]},"properties":{"zip_code":"78674","county":"Williamson"}}]}