{"type":"FeatureCollection","features":[{"type":"Feature","geometry":{"type":"Polygon","coordinates":[[[-97.87357,29.76387],[-97.85943,29.74968],[-97.8602,29.74842],[-97.85252,29.74051],[-97.84004,29.7444],[-97.82079,29.75776],[-97.82248,29.76342],[-97.8268,29.76813],[-97.82587,29.76881],[-97.83317,29.77893],[-97.83015,29.78087],[-97.8314,29.78301],[-97.83375,29.7815],[-97.83547,29.78285],[-97.83833,29.7835],[-97.83567,29.78064],[-97.84537,29.77341],[-97.84624,29.77446],[-97.83811,29.78086],[-97.8389,29.78153],[-97.83843,29.78186],[-97.84486,29.78599],[-97.87357,29.76387]]]},"properties":{"zip_code":"78670","county":"Guadalupe"}}]}