{"type":"FeatureCollection","features":[{"type":"Feature","geometry":{"type":"Polygon","coordinates":[[[-98.32806,30.07042],[-98.32796,30.06983],[-98.32729,30.06903],[-98.32598,30.06813],[-98.32398,30.06847],[-98.32233,30.06918],[-98.32112,30.06813],[-98.32073,30.0675],[-98.3202,30.06769],[-98.31886,30.06716],[-98.31834,30.06747],[-98.31721,30.06889],[-98.31659,30.07037],[-98.31449,30.06986],[-98.31356,30.06939],[-98.31296,30.06877],[-98.31017,30.06903],[-98.30843,30.06979],[-98.3064,30.06842],[-98.3056,30.06722],[-98.30562,30.06619],[-98.30622,30.06504],[-98.30716,30.0647],[-98.30878,30.06463],[-98.31095,30.06525],[-98.31412,30.06373],[-98.31542,30.06254],[-98.31564,30.06183],[-98.31509,30.05993],[-98.31429,30.0587],[-98.31431,30.05768],[-98.31618,30.05532],[-98.3165,30.05459],[-98.31643,30.05383],[-98.31594,30.05325],[-98.31285,30.05127],[-98.31066,30.05037],[-98.30586,30.04766],[-98.30452,30.0472],[-98.30265,30.0469],[-98.29895,30.04715],[-98.29417,30.0468],[-98.2976,30.03799],[-98.27301,30.02068],[-98.27285,30.01329],[-98.272,30.01238],[-98.27123,30.00971],[-98.27313,30.00802],[-98.27285,30.0005],[-98.25478,29.99973],[-98.25443,30.00178],[-98.2463,30.00177],[-98.23484,29.99361],[-98.23474,29.9848],[-98.23328,29.98103],[-98.21739,29.98115],[-98.22426,29.98605],[-98.21756,29.98957],[-98.206,29.98978],[-98.20603,29.98625],[-98.20567,29.98576],[-98.20617,29.9802],[-98.20611,29.97762],[-98.206,29.97604],[-98.2054,29.97478],[-98.2049,29.97446],[-98.20389,29.97437],[-98.20339,29.97461],[-98.20235,29.97599],[-98.20131,29.97596],[-98.19852,29.9739],[-98.1968,29.97152],[-98.19614,29.97099],[-98.19106,29.96861],[-98.186,29.9648],[-98.18476,29.96418],[-98.18107,29.964],[-98.17892,29.96368],[-98.17802,29.96331],[-98.17639,29.9623],[-98.17124,29.95727],[-98.16808,29.95517],[-98.16717,29.95492],[-98.16541,29.95497],[-98.16367,29.95556],[-98.16236,29.95667],[-98.16152,29.95858],[-98.16108,29.95905],[-98.15857,29.96076],[-98.15554,29.96067],[-98.15299,29.95975],[-98.15023,29.95987],[-98.14865,29.96042],[-98.14762,29.96131],[-98.14738,29.96303],[-98.1482,29.96523],[-98.1487,29.96764],[-98.14822,29.96837],[-98.14627,29.9691],[-98.14351,29.96908],[-98.14275,29.96876],[-98.14169,29.96786],[-98.13998,29.96766],[-98.13108,29.96994],[-98.12352,29.96953],[-98.12162,29.96964],[-98.11917,29.97039],[-98.11741,29.97174],[-98.1168,29.97026],[-98.11713,29.96946],[-98.11596,29.96701],[-98.1157,29.96778],[-98.11451,29.96818],[-98.11484,29.96954],[-98.11415,29.96959],[-98.11506,29.97144],[-98.11432,29.97182],[-98.11472,29.97239],[-98.1146,29.97269],[-98.1127,29.97243],[-98.11056,29.97106],[-98.11021,29.97136],[-98.11049,29.97158],[-98.1098,29.9719],[-98.10751,29.97028],[-98.10527,29.97039],[-98.1038,29.97059],[-98.10275,29.97113],[-98.10281,29.97165],[-98.10385,29.97237],[-98.10405,29.973],[-98.10376,29.97352],[-98.10253,29.97448],[-98.10143,29.9745],[-98.10122,29.97488],[-98.09997,29.97485],[-98.09452,29.97411],[-98.09279,29.97239],[-98.09273,29.97045],[-98.09159,29.9657],[-98.09197,29.96404],[-98.0948,29.96056],[-98.09527,29.95899],[-98.09449,29.95641],[-98.09448,29.95335],[-98.09355,29.95071],[-98.09355,29.9476],[-98.09255,29.9436],[-98.09158,29.94208],[-98.09028,29.94119],[-98.08546,29.94026],[-98.08313,29.93944],[-98.07964,29.9394],[-98.08002,29.94778],[-98.0792,29.94832],[-98.07919,29.94807],[-98.07639,29.94793],[-98.06244,29.94836],[-98.06248,29.94864],[-98.06037,29.94873],[-98.06039,29.95291],[-98.04666,29.94726],[-98.044,29.94752],[-98.04215,29.94687],[-98.04142,29.94688],[-98.03716,29.94765],[-98.03622,29.94752],[-98.03518,29.94685],[-98.03393,29.94521],[-98.03116,29.94237],[-98.02839,29.94495],[-98.02933,29.9465],[-98.0307,29.94784],[-98.03506,29.95061],[-98.04109,29.95213],[-98.0434,29.95571],[-98.04485,29.9589],[-98.04435,29.96106],[-98.04414,29.96654],[-98.0408,29.97408],[-98.04037,29.97729],[-98.04064,29.97857],[-98.0403,29.97951],[-98.03989,29.97962],[-98.03973,29.97944],[-98.03869,29.98009],[-98.03821,29.98003],[-98.0396,29.98083],[-98.03898,29.98208],[-98.03852,29.98243],[-98.03849,29.98361],[-98.03907,29.98427],[-98.03747,29.9868],[-98.03588,29.98763],[-98.03462,29.98748],[-98.033,29.98524],[-98.0323,29.98364],[-98.03183,29.98322],[-98.03115,29.98314],[-98.03092,29.98178],[-98.03005,29.98098],[-98.02918,29.98123],[-98.02855,29.98215],[-98.0278,29.98265],[-98.02666,29.98292],[-98.02394,29.9845],[-98.02066,29.98595],[-98.01991,29.98597],[-98.01876,29.98544],[-98.01621,29.98372],[-98.01428,29.98375],[-98.00947,29.98636],[-98.00741,29.98789],[-98.00657,29.98899],[-98.00615,29.99057],[-98.00687,29.99468],[-98.00693,29.99674],[-98.00651,29.99807],[-98.00543,29.99917],[-98.00483,29.99946],[-98.00393,29.99965],[-98.00275,29.99937],[-98.00172,29.99855],[-98.00065,29.9971],[-97.99987,29.99683],[-97.99887,29.99586],[-97.99801,29.99468],[-97.99639,29.99406],[-97.99563,29.99415],[-97.99487,29.99472],[-97.99408,29.99651],[-97.99408,29.9969],[-97.99461,29.9975],[-97.99479,29.99811],[-97.9943,30.00021],[-97.99111,30.00274],[-97.98916,30.00381],[-97.98637,30.00478],[-97.98355,30.00519],[-97.97605,30.00694],[-97.97289,30.00721],[-97.97212,30.00749],[-97.97123,30.00797],[-97.96741,30.01129],[-97.9657,30.01198],[-97.96191,30.01196],[-97.9598,30.01122],[-97.95867,30.01022],[-97.95775,30.00859],[-97.95656,30.00531],[-97.95545,30.00444],[-97.95414,30.0043],[-97.9505,30.00628],[-97.9456,30.00786],[-97.9436,30.00905],[-97.94068,30.01272],[-97.94131,30.01347],[-97.94163,30.0143],[-97.94139,30.01547],[-97.93826,30.01764],[-97.93813,30.01797],[-97.93813,30.01836],[-97.94002,30.01971],[-97.94002,30.02019],[-97.93931,30.02133],[-97.93926,30.02244],[-97.93994,30.02354],[-97.9396,30.0248],[-97.93976,30.02633],[-97.9411,30.02693],[-97.94563,30.02711],[-97.94729,30.02816],[-97.94806,30.02894],[-97.94861,30.03002],[-97.94866,30.03321],[-97.9489,30.03399],[-97.94993,30.03543],[-97.9514,30.03621],[-97.9533,30.03651],[-97.95409,30.03637],[-97.95472,30.03591],[-97.95635,30.03208],[-97.95807,30.02929],[-97.95841,30.02725],[-97.95922,30.02617],[-97.96044,30.02599],[-97.96199,30.02697],[-97.96297,30.0288],[-97.96294,30.03045],[-97.96226,30.03224],[-97.96223,30.03327],[-97.96278,30.03424],[-97.96287,30.03496],[-97.96298,30.04366],[-97.97615,30.04585],[-97.98862,30.04739],[-98.00035,30.04793],[-98.00399,30.04663],[-98.005,30.04648],[-98.01284,30.04634],[-98.01517,30.04656],[-98.02028,30.04805],[-98.02604,30.04807],[-98.02705,30.04939],[-98.0279,30.04978],[-98.02688,30.05138],[-98.02703,30.05207],[-98.03597,30.05685],[-98.03682,30.07026],[-98.04597,30.07051],[-98.04621,30.07889],[-98.04494,30.07878],[-98.04532,30.08354],[-98.04642,30.08352],[-98.04661,30.09078],[-98.05028,30.09081],[-98.0503,30.09179],[-98.05294,30.09179],[-98.05291,30.0915],[-98.07636,30.09071],[-98.0763,30.08925],[-98.08054,30.08974],[-98.08048,30.08653],[-98.08602,30.08721],[-98.08623,30.08689],[-98.08697,30.08667],[-98.08692,30.08368],[-98.08056,30.08382],[-98.08034,30.07901],[-98.08629,30.07886],[-98.08604,30.07389],[-98.08843,30.07387],[-98.08834,30.07266],[-98.08765,30.07114],[-98.08761,30.07017],[-98.08958,30.07016],[-98.09056,30.07254],[-98.09038,30.07302],[-98.0909,30.07412],[-98.09171,30.07407],[-98.09303,30.07505],[-98.09738,30.07904],[-98.09981,30.08304],[-98.10017,30.08401],[-98.10052,30.08693],[-98.09968,30.08928],[-98.09853,30.09096],[-98.09609,30.09674],[-98.09607,30.09758],[-98.09665,30.09928],[-98.09598,30.10195],[-98.0979,30.10222],[-98.10073,30.10075],[-98.1015,30.10066],[-98.10496,30.10109],[-98.10667,30.10106],[-98.11,30.10196],[-98.11301,30.10216],[-98.11548,30.10195],[-98.11922,30.10366],[-98.11976,30.10404],[-98.12092,30.10595],[-98.1236,30.10738],[-98.12505,30.10775],[-98.1279,30.10709],[-98.13073,30.10731],[-98.13164,30.10808],[-98.13239,30.10994],[-98.13372,30.11106],[-98.13396,30.11224],[-98.13476,30.11287],[-98.13541,30.11398],[-98.13705,30.11505],[-98.13763,30.11676],[-98.13785,30.11684],[-98.13839,30.11575],[-98.13982,30.11559],[-98.14018,30.11637],[-98.14057,30.11664],[-98.14239,30.1168],[-98.1427,30.1174],[-98.1413,30.12024],[-98.14179,30.12127],[-98.14221,30.12148],[-98.14515,30.12145],[-98.14749,30.12254],[-98.14906,30.12151],[-98.1506,30.12006],[-98.15358,30.11988],[-98.15536,30.12021],[-98.15637,30.11976],[-98.15711,30.11885],[-98.1581,30.1187],[-98.15833,30.12084],[-98.15745,30.12192],[-98.15751,30.12242],[-98.15718,30.12288],[-98.15742,30.12374],[-98.1582,30.12421],[-98.15816,30.12501],[-98.15851,30.1257],[-98.15989,30.12645],[-98.16042,30.12966],[-98.16073,30.12979],[-98.16148,30.12819],[-98.16327,30.12714],[-98.16319,30.12576],[-98.16366,30.12488],[-98.16475,30.12416],[-98.16683,30.12406],[-98.16798,30.12355],[-98.16847,30.12172],[-98.16974,30.12036],[-98.1702,30.11938],[-98.17173,30.1178],[-98.17382,30.11639],[-98.174,30.11589],[-98.17378,30.11478],[-98.1739,30.11355],[-98.1744,30.11219],[-98.17754,30.11551],[-98.17884,30.11572],[-98.17929,30.11549],[-98.17953,30.11487],[-98.18318,30.11364],[-98.18326,30.11294],[-98.18453,30.11146],[-98.18665,30.11344],[-98.18882,30.11071],[-98.19154,30.11007],[-98.19238,30.10949],[-98.19273,30.10979],[-98.19781,30.1086],[-98.19978,30.10733],[-98.20091,30.10892],[-98.20194,30.1089],[-98.20224,30.10856],[-98.20589,30.11154],[-98.19945,30.11835],[-98.20617,30.12284],[-98.20912,30.11978],[-98.21148,30.11634],[-98.21348,30.11829],[-98.21447,30.11854],[-98.22952,30.11833],[-98.2298,30.12422],[-98.22936,30.1249],[-98.22965,30.12469],[-98.23054,30.13173],[-98.24449,30.13187],[-98.24906,30.13642],[-98.25665,30.13496],[-98.25672,30.13552],[-98.25788,30.13674],[-98.25924,30.13654],[-98.26345,30.12614],[-98.2635,30.13475],[-98.26592,30.13471],[-98.26586,30.14108],[-98.27037,30.14046],[-98.27999,30.13518],[-98.28657,30.13214],[-98.29578,30.12558],[-98.29752,30.12399],[-98.30102,30.11922],[-98.30282,30.11557],[-98.30513,30.11377],[-98.30477,30.11357],[-98.30023,30.1132],[-98.30037,30.11214],[-98.29995,30.11064],[-98.30015,30.10666],[-98.29975,30.10435],[-98.30414,30.09482],[-98.30435,30.0932],[-98.30496,30.0914],[-98.30682,30.08918],[-98.30909,30.08372],[-98.31271,30.08488],[-98.31633,30.08281],[-98.31994,30.08251],[-98.32077,30.08338],[-98.32101,30.08624],[-98.32223,30.08644],[-98.32424,30.08727],[-98.32504,30.08793],[-98.32468,30.08646],[-98.32415,30.08565],[-98.32218,30.08408],[-98.32162,30.0839],[-98.32139,30.08216],[-98.32252,30.07905],[-98.3236,30.07748],[-98.32466,30.07668],[-98.32612,30.07327],[-98.32806,30.07042]]]},"properties":{"zip_code":"78676","county":"Hays"}}]}