{"type":"FeatureCollection","features":[{"type":"Feature","geometry":{"type":"Polygon","coordinates":[[[-97.76498,30.55274],[-97.76346,30.55122],[-97.75996,30.54283],[-97.76345,30.54168],[-97.76334,30.54148],[-97.76392,30.54129],[-97.76387,30.5411],[-97.76491,30.54076],[-97.76283,30.53604],[-97.76315,30.53146],[-97.76018,30.53017],[-97.75677,30.52965],[-97.75319,30.5283],[-97.75169,30.52741],[-97.74942,30.52468],[-97.74851,30.52235],[-97.74853,30.52168],[-97.74789,30.5205],[-97.7463,30.51949],[-97.74544,30.51918],[-97.74228,30.51948],[-97.74229,30.51914],[-97.73902,30.51967],[-97.73733,30.51521],[-97.74176,30.51381],[-97.74045,30.51057],[-97.73903,30.51029],[-97.73885,30.51106],[-97.73693,30.5107],[-97.73832,30.50594],[-97.73814,30.50593],[-97.74047,30.50212],[-97.74081,30.50093],[-97.74035,30.49918],[-97.73747,30.49602],[-97.7365,30.49541],[-97.73529,30.49512],[-97.72977,30.49527],[-97.72826,30.4949],[-97.7257,30.49367],[-97.72585,30.49347],[-97.72315,30.49199],[-97.72239,30.49122],[-97.72117,30.48858],[-97.71957,30.48752],[-97.71683,30.49184],[-97.71644,30.49314],[-97.71645,30.49425],[-97.71692,30.49562],[-97.71778,30.49672],[-97.72175,30.49905],[-97.7172,30.50577],[-97.7159,30.5074],[-97.71395,30.50873],[-97.70344,30.51235],[-97.70175,30.51245],[-97.70158,30.51125],[-97.70075,30.5088],[-97.70034,30.50625],[-97.70369,30.50521],[-97.70328,30.50312],[-97.70822,30.5016],[-97.70814,30.50141],[-97.70875,30.50118],[-97.70793,30.4975],[-97.70579,30.49817],[-97.70526,30.49766],[-97.70574,30.49748],[-97.70475,30.49506],[-97.70522,30.49492],[-97.70512,30.49468],[-97.70603,30.49456],[-97.70494,30.49185],[-97.70569,30.49158],[-97.70577,30.49135],[-97.70726,30.49177],[-97.70794,30.49133],[-97.70396,30.48117],[-97.70355,30.48127],[-97.70323,30.48069],[-97.70548,30.47724],[-97.70341,30.4765],[-97.70215,30.47644],[-97.69392,30.47767],[-97.69305,30.47479],[-97.69218,30.47367],[-97.69062,30.47231],[-97.68572,30.47697],[-97.68519,30.4779],[-97.685,30.47896],[-97.68319,30.47926],[-97.68289,30.48007],[-97.67424,30.48079],[-97.67857,30.49428],[-97.68013,30.4975],[-97.68404,30.50422],[-97.68605,30.50928],[-97.69027,30.52619],[-97.69224,30.53553],[-97.69285,30.57105],[-97.69287,30.58514],[-97.69232,30.58851],[-97.69093,30.5936],[-97.68711,30.60314],[-97.68661,30.60521],[-97.68646,30.60765],[-97.68742,30.60653],[-97.68744,30.60343],[-97.691,30.59464],[-97.69279,30.5882],[-97.69334,30.58401],[-97.69339,30.57995],[-97.69459,30.57742],[-97.6944,30.57653],[-97.69346,30.57515],[-97.69796,30.57399],[-97.69807,30.57331],[-97.70387,30.57166],[-97.70468,30.57417],[-97.70575,30.57377],[-97.70649,30.57428],[-97.70843,30.57492],[-97.71053,30.57692],[-97.71148,30.57746],[-97.7134,30.57744],[-97.71422,30.57766],[-97.71594,30.57947],[-97.71691,30.58014],[-97.71766,30.58035],[-97.71911,30.58021],[-97.72013,30.58066],[-97.72051,30.58106],[-97.72047,30.58172],[-97.72101,30.58265],[-97.72107,30.58358],[-97.72152,30.58471],[-97.72199,30.58524],[-97.72403,30.58641],[-97.72454,30.58639],[-97.72501,30.58672],[-97.72605,30.58646],[-97.72655,30.58524],[-97.72686,30.58477],[-97.72713,30.58476],[-97.72733,30.58487],[-97.72762,30.58654],[-97.72794,30.58678],[-97.73072,30.58713],[-97.73229,30.58865],[-97.73294,30.58864],[-97.73644,30.58749],[-97.73858,30.58854],[-97.73934,30.58861],[-97.74049,30.58784],[-97.74185,30.5864],[-97.74272,30.58632],[-97.74313,30.58586],[-97.74415,30.58568],[-97.74563,30.58489],[-97.74663,30.58535],[-97.74789,30.58448],[-97.74586,30.57936],[-97.75616,30.57625],[-97.75127,30.5634],[-97.75499,30.56219],[-97.75448,30.56097],[-97.75466,30.55964],[-97.75619,30.55895],[-97.75723,30.55786],[-97.75773,30.55679],[-97.75815,30.55464],[-97.75871,30.55368],[-97.75958,30.55582],[-97.76498,30.55274]]]},"properties":{"zip_code":"78681","county":"Williamson"}}]}