{"type":"FeatureCollection","features":[{"type":"Feature","geometry":{"type":"Polygon","coordinates":[[[-97.78598,30.29738],[-97.78557,30.2936],[-97.78526,30.29316],[-97.78588,30.29166],[-97.78592,30.29092],[-97.78553,30.28981],[-97.7856,30.28819],[-97.78534,30.28615],[-97.78427,30.28431],[-97.78035,30.2805],[-97.77666,30.27754],[-97.77278,30.27489],[-97.76968,30.27162],[-97.76827,30.27067],[-97.75598,30.26542],[-97.75265,30.26457],[-97.75204,30.26419],[-97.75118,30.26528],[-97.75384,30.26609],[-97.75309,30.26719],[-97.7522,30.2675],[-97.75164,30.26745],[-97.75059,30.2703],[-97.75126,30.27054],[-97.75082,30.27153],[-97.75132,30.27248],[-97.75142,30.27344],[-97.75209,30.27403],[-97.75129,30.27541],[-97.75026,30.27632],[-97.75015,30.27671],[-97.75111,30.27854],[-97.75077,30.2805],[-97.75115,30.28221],[-97.75442,30.28431],[-97.75452,30.28476],[-97.75395,30.28549],[-97.75388,30.28693],[-97.75346,30.28844],[-97.75199,30.29031],[-97.75153,30.29161],[-97.751,30.29201],[-97.74845,30.29218],[-97.74774,30.29234],[-97.74741,30.29266],[-97.74941,30.29691],[-97.75017,30.2977],[-97.74911,30.29886],[-97.74752,30.299],[-97.74715,30.29931],[-97.74746,30.30014],[-97.74906,30.30145],[-97.74964,30.30244],[-97.75009,30.30267],[-97.7493,30.30415],[-97.74759,30.30562],[-97.74746,30.30613],[-97.748,30.30722],[-97.75074,30.30725],[-97.75261,30.3081],[-97.75248,30.30857],[-97.75449,30.30904],[-97.75464,30.30857],[-97.75764,30.30904],[-97.7571,30.31196],[-97.75629,30.31988],[-97.75705,30.32407],[-97.75815,30.32458],[-97.75865,30.326],[-97.75956,30.32641],[-97.76013,30.32555],[-97.76378,30.32735],[-97.7687,30.32105],[-97.764,30.3187],[-97.76728,30.31361],[-97.76904,30.31453],[-97.77015,30.31413],[-97.7716,30.31316],[-97.77383,30.3126],[-97.77588,30.31361],[-97.77788,30.30831],[-97.77915,30.30622],[-97.78106,30.30373],[-97.78372,30.30085],[-97.78598,30.29738]]]},"properties":{"zip_code":"78703","county":"Travis"}}]}