{"type":"FeatureCollection","features":[{"type":"Feature","geometry":{"type":"Polygon","coordinates":[[[-97.7373,30.25826],[-97.7371,30.25599],[-97.73599,30.25061],[-97.7343,30.25016],[-97.72978,30.24811],[-97.72376,30.2466],[-97.7226,30.24681],[-97.71786,30.24861],[-97.71594,30.24982],[-97.71351,30.25043],[-97.70528,30.25061],[-97.70188,30.2502],[-97.70048,30.24871],[-97.69958,30.24691],[-97.69838,30.24631],[-97.69498,30.24531],[-97.69348,30.24541],[-97.69128,30.24518],[-97.69172,30.24811],[-97.69106,30.24945],[-97.69147,30.2501],[-97.69249,30.25077],[-97.69246,30.2531],[-97.69277,30.25515],[-97.6925,30.25509],[-97.69133,30.25683],[-97.69162,30.25695],[-97.69125,30.25746],[-97.69157,30.25762],[-97.69098,30.25852],[-97.69386,30.26009],[-97.69551,30.26561],[-97.69436,30.26743],[-97.69627,30.2681],[-97.69791,30.27356],[-97.69844,30.27466],[-97.70033,30.27686],[-97.70304,30.28115],[-97.70142,30.28139],[-97.70171,30.28291],[-97.70817,30.28188],[-97.70736,30.28348],[-97.70856,30.28594],[-97.70893,30.28587],[-97.70848,30.28476],[-97.7085,30.28183],[-97.70946,30.28171],[-97.70966,30.28277],[-97.71175,30.28244],[-97.71154,30.2814],[-97.71925,30.28013],[-97.71946,30.28115],[-97.72045,30.28099],[-97.72021,30.27998],[-97.72318,30.27948],[-97.7234,30.28051],[-97.72539,30.28019],[-97.72514,30.2791],[-97.73005,30.27851],[-97.73097,30.27646],[-97.73557,30.2634],[-97.73652,30.26132],[-97.7373,30.25826]]]},"properties":{"zip_code":"78702","county":"Travis"}}]}