{"type":"FeatureCollection","features":[{"type":"Feature","geometry":{"type":"Polygon","coordinates":[[[-97.80242,30.24472],[-97.79791,30.23552],[-97.79656,30.23404],[-97.7969,30.23387],[-97.79621,30.23334],[-97.79196,30.23127],[-97.7928,30.22991],[-97.79087,30.22899],[-97.79002,30.23035],[-97.78852,30.22964],[-97.78834,30.2299],[-97.7861,30.22885],[-97.78616,30.22848],[-97.78465,30.22782],[-97.7814,30.22747],[-97.7816,30.22714],[-97.78017,30.22659],[-97.77949,30.22768],[-97.77296,30.22761],[-97.77071,30.22708],[-97.76947,30.22652],[-97.76999,30.22567],[-97.76883,30.22507],[-97.76969,30.22368],[-97.75412,30.21623],[-97.75399,30.21659],[-97.75293,30.2159],[-97.75193,30.21561],[-97.75129,30.21657],[-97.74397,30.21633],[-97.74376,30.2187],[-97.74391,30.21963],[-97.74745,30.2233],[-97.73563,30.24321],[-97.73514,30.24441],[-97.73502,30.24544],[-97.73599,30.25061],[-97.73826,30.25184],[-97.74098,30.25479],[-97.74192,30.25701],[-97.74222,30.2586],[-97.74368,30.2607],[-97.74489,30.26153],[-97.7476,30.26277],[-97.74973,30.26359],[-97.75163,30.264],[-97.75265,30.26457],[-97.75598,30.26542],[-97.76066,30.26753],[-97.76592,30.26467],[-97.76761,30.2641],[-97.76934,30.2641],[-97.77151,30.2636],[-97.77544,30.26356],[-97.77811,30.26284],[-97.7796,30.26288],[-97.78088,30.26255],[-97.7824,30.26178],[-97.78371,30.26159],[-97.78501,30.26099],[-97.78555,30.26039],[-97.78419,30.25928],[-97.78458,30.2581],[-97.78517,30.25751],[-97.79089,30.25519],[-97.79453,30.25407],[-97.79572,30.25343],[-97.79614,30.25259],[-97.79677,30.24875],[-97.79668,30.24815],[-97.79602,30.24767],[-97.79348,30.24804],[-97.79217,30.24783],[-97.78948,30.2464],[-97.7889,30.2456],[-97.7887,30.24446],[-97.78894,30.2432],[-97.78986,30.2421],[-97.79234,30.24187],[-97.79338,30.2431],[-97.79405,30.24319],[-97.79718,30.24484],[-97.79843,30.24517],[-97.80094,30.24525],[-97.80242,30.24472]]]},"properties":{"zip_code":"78704","county":"Travis"}}]}