{"type":"FeatureCollection","features":[{"type":"Feature","geometry":{"type":"Polygon","coordinates":[[[-97.75384,30.26609],[-97.75118,30.26528],[-97.75199,30.26416],[-97.7476,30.26277],[-97.74489,30.26153],[-97.74368,30.2607],[-97.74222,30.2586],[-97.74192,30.25701],[-97.74098,30.25479],[-97.73826,30.25184],[-97.73599,30.25061],[-97.7371,30.25599],[-97.73724,30.25882],[-97.73652,30.26132],[-97.73557,30.2634],[-97.73152,30.27472],[-97.73601,30.27599],[-97.73497,30.27867],[-97.73607,30.27899],[-97.73571,30.27998],[-97.74518,30.28266],[-97.74506,30.28404],[-97.74663,30.28414],[-97.74673,30.2831],[-97.74982,30.28394],[-97.75191,30.28372],[-97.75212,30.28361],[-97.75084,30.28212],[-97.75043,30.28056],[-97.75057,30.27997],[-97.75093,30.27995],[-97.75111,30.27858],[-97.75017,30.27649],[-97.75129,30.27541],[-97.75209,30.27403],[-97.75142,30.27344],[-97.75132,30.27248],[-97.75082,30.27153],[-97.75126,30.27054],[-97.75059,30.2703],[-97.75164,30.26745],[-97.7522,30.2675],[-97.75309,30.26719],[-97.75384,30.26609]]]},"properties":{"zip_code":"78701","county":"Travis"}}]}