{"type":"FeatureCollection","features":[{"type":"Feature","geometry":{"type":"Polygon","coordinates":[[[-97.75452,30.28476],[-97.75442,30.28431],[-97.75123,30.28234],[-97.75084,30.28117],[-97.75091,30.27999],[-97.75057,30.27997],[-97.75043,30.28056],[-97.75077,30.28195],[-97.75212,30.28361],[-97.74982,30.28394],[-97.74673,30.2831],[-97.74663,30.28414],[-97.74506,30.28404],[-97.74518,30.28266],[-97.73571,30.27998],[-97.73386,30.28056],[-97.73326,30.28135],[-97.7335,30.28232],[-97.73501,30.28447],[-97.73401,30.28533],[-97.73369,30.28532],[-97.73353,30.28706],[-97.73702,30.28735],[-97.73743,30.28347],[-97.74191,30.2838],[-97.74141,30.28908],[-97.74222,30.28915],[-97.7422,30.28948],[-97.74139,30.28942],[-97.74135,30.28981],[-97.74025,30.28975],[-97.74046,30.28758],[-97.73953,30.28754],[-97.73955,30.28781],[-97.73925,30.288],[-97.73893,30.29182],[-97.73658,30.29165],[-97.73653,30.29264],[-97.73516,30.29123],[-97.73474,30.29043],[-97.73453,30.29043],[-97.73469,30.28933],[-97.7341,30.28818],[-97.73346,30.28917],[-97.73092,30.28921],[-97.72983,30.28883],[-97.72766,30.28748],[-97.72508,30.28656],[-97.72013,30.29428],[-97.72104,30.29473],[-97.72083,30.29505],[-97.72272,30.29596],[-97.72293,30.29562],[-97.72329,30.29579],[-97.72341,30.29564],[-97.73395,30.30072],[-97.73364,30.30106],[-97.73446,30.30144],[-97.73424,30.30175],[-97.7353,30.30225],[-97.73569,30.30203],[-97.73607,30.30223],[-97.73584,30.3026],[-97.73764,30.30349],[-97.73298,30.31084],[-97.73757,30.31346],[-97.74311,30.3052],[-97.74638,30.30671],[-97.748,30.30722],[-97.74749,30.30581],[-97.7493,30.30415],[-97.75009,30.30267],[-97.74964,30.30244],[-97.74906,30.30145],[-97.74746,30.30014],[-97.74712,30.29939],[-97.74752,30.299],[-97.74911,30.29886],[-97.75017,30.2977],[-97.74941,30.29691],[-97.74741,30.29266],[-97.74774,30.29234],[-97.74845,30.29218],[-97.751,30.29201],[-97.75153,30.29161],[-97.75199,30.29031],[-97.75346,30.28844],[-97.75388,30.28693],[-97.75395,30.28549],[-97.75452,30.28476]]]},"properties":{"zip_code":"78705","county":"Travis"}}]}