{"type":"FeatureCollection","features":[{"type":"Feature","geometry":{"type":"Polygon","coordinates":[[[-97.69696,30.14765],[-97.69673,30.14419],[-97.69167,30.14184],[-97.68858,30.14271],[-97.68798,30.14268],[-97.67872,30.13829],[-97.68425,30.12957],[-97.68494,30.12897],[-97.68614,30.12915],[-97.68697,30.129],[-97.68806,30.12788],[-97.68898,30.12731],[-97.68939,30.12667],[-97.69383,30.12879],[-97.69521,30.12663],[-97.69079,30.12446],[-97.69302,30.121],[-97.69231,30.12065],[-97.6935,30.11867],[-97.69375,30.11745],[-97.69246,30.11678],[-97.69354,30.11579],[-97.69506,30.1154],[-97.69437,30.10203],[-97.69322,30.10323],[-97.68592,30.09637],[-97.69318,30.08963],[-97.69296,30.08207],[-97.69337,30.08194],[-97.69294,30.06644],[-97.69282,30.06322],[-97.69205,30.05602],[-97.69071,30.05615],[-97.69114,30.06096],[-97.69081,30.06136],[-97.69145,30.06852],[-97.69157,30.07552],[-97.68971,30.07595],[-97.68725,30.07835],[-97.68641,30.07851],[-97.68572,30.07953],[-97.68467,30.08014],[-97.68282,30.08196],[-97.68207,30.08175],[-97.68079,30.08219],[-97.67863,30.08239],[-97.67809,30.08217],[-97.67661,30.08228],[-97.67497,30.08164],[-97.67451,30.08194],[-97.67418,30.08186],[-97.67303,30.08365],[-97.67319,30.08435],[-97.67295,30.08509],[-97.67188,30.08595],[-97.67168,30.08642],[-97.66896,30.0842],[-97.66901,30.08341],[-97.66846,30.08293],[-97.66844,30.0824],[-97.6692,30.08208],[-97.66858,30.08118],[-97.66899,30.08039],[-97.669,30.07959],[-97.66628,30.08203],[-97.64937,30.06794],[-97.63921,30.07829],[-97.64139,30.07825],[-97.64061,30.07895],[-97.64087,30.07959],[-97.63873,30.08167],[-97.64647,30.08778],[-97.64544,30.08849],[-97.6452,30.08983],[-97.64472,30.09025],[-97.65083,30.09541],[-97.65127,30.09536],[-97.65567,30.09141],[-97.66032,30.09532],[-97.65573,30.09942],[-97.65674,30.10053],[-97.65049,30.11071],[-97.64966,30.11326],[-97.654,30.1153],[-97.65855,30.11657],[-97.66042,30.11789],[-97.66034,30.12067],[-97.66097,30.12306],[-97.66165,30.12446],[-97.66546,30.1304],[-97.66647,30.13356],[-97.66653,30.13547],[-97.66629,30.1371],[-97.66554,30.13913],[-97.66478,30.14042],[-97.67257,30.14426],[-97.67046,30.14586],[-97.66918,30.14821],[-97.6718,30.14933],[-97.67048,30.15175],[-97.67053,30.15287],[-97.66906,30.15351],[-97.66066,30.1663],[-97.66376,30.16792],[-97.66351,30.17034],[-97.66158,30.16947],[-97.65932,30.16736],[-97.65172,30.173],[-97.64762,30.17835],[-97.64591,30.18227],[-97.64576,30.18329],[-97.64596,30.18489],[-97.64766,30.1916],[-97.64748,30.19296],[-97.64669,30.19433],[-97.65162,30.19843],[-97.64565,30.20368],[-97.6444,30.20265],[-97.6419,30.20455],[-97.65353,30.21055],[-97.65865,30.21291],[-97.66892,30.21862],[-97.67768,30.22289],[-97.68016,30.22316],[-97.68329,30.22244],[-97.68348,30.20511],[-97.68375,30.20163],[-97.68529,30.19185],[-97.68775,30.183],[-97.68752,30.18284],[-97.6876,30.18257],[-97.68271,30.17848],[-97.68264,30.17515],[-97.68154,30.17503],[-97.68434,30.17536],[-97.68459,30.17578],[-97.68404,30.17641],[-97.68512,30.1773],[-97.68669,30.1781],[-97.68812,30.17818],[-97.68889,30.17785],[-97.68922,30.17669],[-97.68866,30.17575],[-97.6892,30.17349],[-97.69007,30.17372],[-97.69276,30.16414],[-97.69299,30.16425],[-97.69424,30.15988],[-97.69348,30.15971],[-97.69386,30.15856],[-97.69265,30.15704],[-97.69626,30.15147],[-97.69667,30.15144],[-97.69696,30.14765]]]},"properties":{"zip_code":"78719","county":"Travis"}}]}