{"type":"FeatureCollection","features":[{"type":"Feature","geometry":{"type":"Polygon","coordinates":[[[-97.7422,30.28948],[-97.74222,30.28915],[-97.74141,30.28908],[-97.74191,30.2838],[-97.73743,30.28347],[-97.73702,30.28735],[-97.73353,30.28706],[-97.73369,30.28532],[-97.73401,30.28533],[-97.73501,30.28447],[-97.7335,30.28232],[-97.73326,30.28135],[-97.73386,30.28056],[-97.73571,30.27998],[-97.73607,30.27899],[-97.73497,30.27867],[-97.73601,30.27599],[-97.73152,30.27472],[-97.73005,30.27851],[-97.72514,30.2791],[-97.72603,30.28314],[-97.7274,30.28308],[-97.72508,30.28656],[-97.72766,30.28748],[-97.72983,30.28883],[-97.73092,30.28921],[-97.73346,30.28917],[-97.7341,30.28818],[-97.73469,30.28933],[-97.73453,30.29043],[-97.73474,30.29043],[-97.73516,30.29123],[-97.73653,30.29264],[-97.73658,30.29165],[-97.73893,30.29182],[-97.73925,30.288],[-97.73955,30.28781],[-97.73953,30.28754],[-97.74046,30.28758],[-97.74025,30.28975],[-97.74135,30.28981],[-97.74139,30.28942],[-97.7422,30.28948]]]},"properties":{"zip_code":"78712","county":"Travis"}}]}