{"type":"FeatureCollection","features":[{"type":"Feature","geometry":{"type":"Polygon","coordinates":[[[-97.80905,30.49175],[-97.80828,30.49058],[-97.80737,30.49054],[-97.80676,30.49015],[-97.8065,30.4896],[-97.80673,30.4889],[-97.80819,30.48835],[-97.80712,30.48592],[-97.80493,30.48663],[-97.80488,30.48468],[-97.80428,30.48267],[-97.80253,30.47985],[-97.80137,30.48018],[-97.79871,30.48018],[-97.79634,30.47989],[-97.79548,30.48017],[-97.79439,30.4776],[-97.79429,30.47623],[-97.79389,30.47531],[-97.7961,30.47449],[-97.79895,30.47294],[-97.79702,30.46816],[-97.79636,30.46835],[-97.79526,30.46562],[-97.79386,30.46628],[-97.79203,30.46659],[-97.79067,30.46597],[-97.78999,30.4646],[-97.78921,30.46382],[-97.78781,30.46532],[-97.78756,30.46691],[-97.78796,30.46782],[-97.78937,30.4692],[-97.78992,30.47018],[-97.78061,30.47304],[-97.78041,30.4725],[-97.77673,30.47357],[-97.77205,30.47395],[-97.76953,30.47443],[-97.76053,30.47732],[-97.7531,30.47465],[-97.74879,30.47396],[-97.74236,30.47482],[-97.73694,30.47644],[-97.73127,30.47692],[-97.73021,30.47681],[-97.72319,30.4751],[-97.72223,30.47444],[-97.72052,30.47268],[-97.72003,30.4718],[-97.71974,30.47081],[-97.71978,30.46969],[-97.72115,30.45584],[-97.72036,30.45614],[-97.71963,30.45757],[-97.7176,30.45863],[-97.70323,30.48069],[-97.70355,30.48127],[-97.70396,30.48117],[-97.70794,30.49133],[-97.70726,30.49177],[-97.70577,30.49135],[-97.70569,30.49158],[-97.70494,30.49185],[-97.70603,30.49456],[-97.70512,30.49468],[-97.70522,30.49492],[-97.70475,30.49506],[-97.70574,30.49748],[-97.70526,30.49766],[-97.70579,30.49817],[-97.70793,30.4975],[-97.70875,30.50118],[-97.70814,30.50141],[-97.70822,30.5016],[-97.70328,30.50312],[-97.70369,30.50521],[-97.70034,30.50625],[-97.70052,30.50756],[-97.70175,30.51245],[-97.70266,30.51245],[-97.70532,30.51172],[-97.71331,30.50882],[-97.71339,30.50896],[-97.7159,30.5074],[-97.72175,30.49905],[-97.71778,30.49672],[-97.71692,30.49562],[-97.71645,30.49425],[-97.71644,30.49314],[-97.71683,30.49184],[-97.71957,30.48752],[-97.72117,30.48858],[-97.72239,30.49122],[-97.72304,30.4919],[-97.72585,30.49347],[-97.72573,30.49369],[-97.72928,30.49521],[-97.73497,30.49509],[-97.73634,30.49535],[-97.73747,30.49602],[-97.74021,30.49898],[-97.74078,30.50027],[-97.7407,30.50155],[-97.73814,30.50593],[-97.73832,30.50594],[-97.73693,30.5107],[-97.73885,30.51106],[-97.73903,30.51029],[-97.74045,30.51057],[-97.74176,30.51381],[-97.73733,30.51521],[-97.73902,30.51967],[-97.74204,30.51915],[-97.74229,30.51914],[-97.74228,30.51948],[-97.74544,30.51918],[-97.7488,30.51669],[-97.75334,30.51466],[-97.75526,30.51334],[-97.75589,30.51271],[-97.75774,30.50917],[-97.75838,30.50869],[-97.76064,30.50858],[-97.76203,30.50914],[-97.76421,30.50887],[-97.77066,30.50557],[-97.77167,30.50526],[-97.77253,30.50531],[-97.77321,30.50598],[-97.77399,30.50623],[-97.77492,30.50577],[-97.77565,30.50419],[-97.77732,30.50354],[-97.78032,30.50394],[-97.78269,30.50361],[-97.7835,30.50406],[-97.78726,30.50519],[-97.78806,30.5052],[-97.78927,30.50576],[-97.7899,30.50577],[-97.79195,30.50511],[-97.79588,30.50278],[-97.7975,30.49979],[-97.79978,30.49782],[-97.80334,30.49605],[-97.80465,30.49599],[-97.80545,30.49565],[-97.80618,30.49495],[-97.80601,30.49413],[-97.80652,30.49377],[-97.80696,30.49236],[-97.80752,30.49218],[-97.8085,30.49238],[-97.80891,30.49217],[-97.80905,30.49175]]]},"properties":{"zip_code":"78717","county":"Williamson"}}]}