{"type":"FeatureCollection","features":[{"type":"Feature","geometry":{"type":"Polygon","coordinates":[[[-97.88643,30.42651],[-97.88521,30.42645],[-97.88324,30.42773],[-97.8817,30.42588],[-97.88008,30.42739],[-97.87982,30.42898],[-97.87868,30.42902],[-97.87877,30.42705],[-97.8775,30.42618],[-97.8771,30.42342],[-97.87422,30.42335],[-97.8728,30.42552],[-97.87265,30.42545],[-97.87247,30.4245],[-97.86948,30.42023],[-97.86912,30.41914],[-97.86904,30.41719],[-97.86994,30.41776],[-97.86981,30.41671],[-97.86941,30.41608],[-97.86866,30.41552],[-97.86852,30.41496],[-97.86759,30.41447],[-97.86837,30.4129],[-97.86761,30.41184],[-97.86749,30.41125],[-97.86689,30.41096],[-97.86627,30.41022],[-97.86656,30.40915],[-97.86549,30.40817],[-97.86493,30.40716],[-97.86408,30.40702],[-97.86349,30.40582],[-97.86215,30.40595],[-97.8616,30.40556],[-97.86103,30.40575],[-97.86076,30.40553],[-97.86005,30.40562],[-97.85957,30.40513],[-97.85692,30.40459],[-97.85625,30.40483],[-97.85629,30.40529],[-97.85402,30.40378],[-97.85368,30.40439],[-97.85206,30.4029],[-97.85111,30.40358],[-97.85032,30.40363],[-97.84924,30.40276],[-97.84982,30.40176],[-97.84853,30.40176],[-97.8482,30.39961],[-97.84739,30.39895],[-97.84696,30.39899],[-97.8469,30.39866],[-97.84497,30.3989],[-97.84565,30.39768],[-97.84488,30.39584],[-97.84547,30.39454],[-97.84442,30.39378],[-97.84098,30.39537],[-97.8388,30.39505],[-97.83714,30.39555],[-97.83423,30.39694],[-97.83284,30.39824],[-97.83262,30.39912],[-97.83193,30.40031],[-97.83192,30.40107],[-97.83139,30.40198],[-97.83045,30.40198],[-97.82926,30.40282],[-97.82737,30.40355],[-97.82712,30.40392],[-97.82624,30.40425],[-97.82619,30.40505],[-97.8248,30.4057],[-97.82399,30.40645],[-97.82327,30.40776],[-97.82319,30.4093],[-97.82345,30.41017],[-97.82254,30.41163],[-97.8224,30.41232],[-97.82262,30.41298],[-97.82111,30.41535],[-97.82006,30.41594],[-97.81756,30.4165],[-97.81445,30.41864],[-97.81084,30.41936],[-97.80882,30.4189],[-97.80807,30.4191],[-97.80777,30.42103],[-97.80862,30.42173],[-97.80915,30.42172],[-97.80955,30.42222],[-97.81144,30.42209],[-97.81366,30.42294],[-97.81468,30.42458],[-97.81466,30.4254],[-97.81405,30.42673],[-97.81478,30.42742],[-97.81504,30.42811],[-97.81455,30.42864],[-97.81462,30.4295],[-97.81577,30.43007],[-97.81595,30.4304],[-97.81576,30.43113],[-97.81481,30.43135],[-97.81412,30.4323],[-97.8145,30.43336],[-97.81398,30.43467],[-97.81413,30.43683],[-97.81511,30.43878],[-97.81628,30.44003],[-97.81756,30.44073],[-97.81825,30.44225],[-97.81878,30.44271],[-97.81851,30.44348],[-97.81775,30.4429],[-97.81679,30.44152],[-97.81632,30.44153],[-97.81565,30.44242],[-97.81507,30.44187],[-97.81447,30.44266],[-97.81438,30.44359],[-97.81223,30.44689],[-97.81339,30.44723],[-97.81527,30.44918],[-97.81798,30.4502],[-97.81948,30.45021],[-97.82002,30.45044],[-97.82398,30.45429],[-97.82629,30.45601],[-97.82656,30.45752],[-97.83201,30.46187],[-97.83602,30.4643],[-97.84253,30.46222],[-97.84394,30.46201],[-97.84109,30.45987],[-97.84218,30.45925],[-97.84409,30.45865],[-97.84584,30.45737],[-97.84677,30.45456],[-97.84762,30.45349],[-97.84872,30.45267],[-97.85719,30.44891],[-97.85804,30.4483],[-97.85891,30.44679],[-97.86184,30.44537],[-97.86319,30.44413],[-97.86566,30.44247],[-97.86881,30.44111],[-97.87134,30.44124],[-97.87371,30.43986],[-97.87315,30.43826],[-97.87447,30.43774],[-97.8749,30.43714],[-97.87483,30.43451],[-97.87552,30.43263],[-97.876,30.43202],[-97.87918,30.43136],[-97.87916,30.43112],[-97.88001,30.43113],[-97.88007,30.4307],[-97.88232,30.42835],[-97.88487,30.42682],[-97.88643,30.42651]]]},"properties":{"zip_code":"78726","county":"Travis"}}]}