{"type":"FeatureCollection","features":[{"type":"Feature","geometry":{"type":"Polygon","coordinates":[[[-97.69172,30.24811],[-97.69128,30.24518],[-97.69029,30.24579],[-97.69001,30.24566],[-97.68915,30.24598],[-97.68787,30.24581],[-97.68246,30.24629],[-97.67781,30.24797],[-97.67514,30.24933],[-97.67312,30.25082],[-97.67162,30.25298],[-97.67167,30.25431],[-97.67127,30.25477],[-97.66923,30.2561],[-97.66791,30.25662],[-97.66193,30.26042],[-97.66157,30.26094],[-97.65936,30.26133],[-97.65817,30.26206],[-97.65653,30.26229],[-97.65339,30.26216],[-97.6499,30.26245],[-97.64666,30.26323],[-97.64436,30.26302],[-97.64272,30.26252],[-97.64173,30.26171],[-97.64142,30.26043],[-97.64167,30.25739],[-97.64085,30.25658],[-97.6387,30.25652],[-97.63542,30.25588],[-97.63218,30.2557],[-97.62863,30.256],[-97.62623,30.25511],[-97.62572,30.25098],[-97.62621,30.24914],[-97.62936,30.24409],[-97.63044,30.24268],[-97.63262,30.24089],[-97.63315,30.2399],[-97.63615,30.23883],[-97.64202,30.23765],[-97.64552,30.23655],[-97.64774,30.23641],[-97.65014,30.23523],[-97.65046,30.23461],[-97.65167,30.23378],[-97.65357,30.23304],[-97.65546,30.23059],[-97.65768,30.22871],[-97.65862,30.22738],[-97.6588,30.22676],[-97.65784,30.2235],[-97.65701,30.22162],[-97.65089,30.21438],[-97.65056,30.21357],[-97.64528,30.21036],[-97.63848,30.20806],[-97.63734,30.20825],[-97.63276,30.20747],[-97.62691,30.2095],[-97.62087,30.21057],[-97.61882,30.21133],[-97.61469,30.21378],[-97.61278,30.21407],[-97.61131,30.21527],[-97.61055,30.21558],[-97.60785,30.21547],[-97.60725,30.2157],[-97.60594,30.21699],[-97.6052,30.21848],[-97.6048,30.22128],[-97.60387,30.22353],[-97.60376,30.22535],[-97.60336,30.2264],[-97.60238,30.22699],[-97.59823,30.22769],[-97.59667,30.22852],[-97.59483,30.22833],[-97.59333,30.22749],[-97.59228,30.226],[-97.59209,30.22451],[-97.59221,30.22359],[-97.59265,30.22262],[-97.59477,30.22134],[-97.59535,30.22054],[-97.59551,30.21989],[-97.59561,30.21749],[-97.59443,30.21388],[-97.59459,30.21167],[-97.59525,30.2087],[-97.59473,30.20791],[-97.59381,30.20727],[-97.59049,30.20624],[-97.58828,30.20617],[-97.58435,30.20785],[-97.58344,30.20851],[-97.58305,30.20928],[-97.5824,30.2096],[-97.58177,30.21036],[-97.58171,30.21118],[-97.58125,30.21184],[-97.57952,30.21328],[-97.57813,30.21396],[-97.57621,30.2143],[-97.57449,30.21418],[-97.56509,30.21197],[-97.56358,30.21114],[-97.56289,30.21031],[-97.56239,30.20874],[-97.56121,30.20793],[-97.55949,30.20754],[-97.55708,30.20754],[-97.55617,30.20792],[-97.55475,30.209],[-97.55212,30.21202],[-97.55095,30.21381],[-97.5484,30.21638],[-97.54617,30.21798],[-97.5456,30.21802],[-97.54402,30.21902],[-97.54278,30.21929],[-97.54206,30.22029],[-97.54285,30.22202],[-97.54247,30.22335],[-97.54184,30.22431],[-97.54164,30.22611],[-97.54207,30.22674],[-97.54268,30.22702],[-97.54331,30.22773],[-97.54386,30.22975],[-97.54506,30.23208],[-97.54595,30.23272],[-97.54638,30.23437],[-97.54743,30.23449],[-97.54793,30.23511],[-97.54761,30.23556],[-97.54655,30.23587],[-97.54562,30.23583],[-97.5446,30.23629],[-97.5442,30.23691],[-97.54368,30.23879],[-97.54406,30.24018],[-97.54491,30.24087],[-97.54695,30.24081],[-97.54848,30.24134],[-97.54922,30.2412],[-97.54988,30.24039],[-97.55116,30.24059],[-97.55126,30.24125],[-97.55056,30.24226],[-97.55263,30.24302],[-97.55334,30.24275],[-97.55436,30.24288],[-97.55572,30.24253],[-97.55608,30.24199],[-97.55604,30.24104],[-97.55642,30.24065],[-97.55732,30.24131],[-97.55809,30.24143],[-97.55844,30.24298],[-97.55896,30.24364],[-97.55883,30.24403],[-97.55855,30.24411],[-97.55878,30.24531],[-97.55917,30.24537],[-97.55982,30.24469],[-97.56038,30.24498],[-97.56083,30.24559],[-97.56024,30.24701],[-97.55887,30.24731],[-97.55891,30.24689],[-97.55785,30.24687],[-97.55783,30.24716],[-97.5582,30.24757],[-97.55806,30.24811],[-97.55831,30.24806],[-97.55877,30.24849],[-97.5588,30.24908],[-97.55989,30.24883],[-97.56072,30.24903],[-97.5616,30.24857],[-97.5648,30.24814],[-97.56904,30.249],[-97.57576,30.24883],[-97.58303,30.24748],[-97.58285,30.24584],[-97.58341,30.24487],[-97.58386,30.2451],[-97.58337,30.24594],[-97.58367,30.24682],[-97.58441,30.24722],[-97.58812,30.24151],[-97.58875,30.24179],[-97.58963,30.2408],[-97.5903,30.24079],[-97.59258,30.24191],[-97.59305,30.24251],[-97.59328,30.24626],[-97.59636,30.24892],[-97.59651,30.24973],[-97.59635,30.25029],[-97.59564,30.25146],[-97.59868,30.25138],[-97.60942,30.25555],[-97.61182,30.257],[-97.61397,30.259],[-97.61966,30.26103],[-97.62126,30.26268],[-97.6252,30.25537],[-97.62595,30.25637],[-97.62736,30.257],[-97.62869,30.25716],[-97.62989,30.25677],[-97.63152,30.25663],[-97.62991,30.26074],[-97.62928,30.26137],[-97.62882,30.2624],[-97.62743,30.26176],[-97.62504,30.26545],[-97.62582,30.26611],[-97.62537,30.26676],[-97.62666,30.26872],[-97.63056,30.26261],[-97.63077,30.26193],[-97.63441,30.25667],[-97.63894,30.25795],[-97.63971,30.25858],[-97.64079,30.26241],[-97.64141,30.26338],[-97.64062,30.26352],[-97.64086,30.26432],[-97.64236,30.26426],[-97.6432,30.26452],[-97.6438,30.26406],[-97.64423,30.26404],[-97.64616,30.26508],[-97.64618,30.26574],[-97.64573,30.26597],[-97.6438,30.26626],[-97.64259,30.26599],[-97.64224,30.26619],[-97.64175,30.26803],[-97.64209,30.2687],[-97.642,30.26985],[-97.64247,30.27105],[-97.64335,30.27211],[-97.64345,30.27504],[-97.64386,30.27553],[-97.64192,30.27855],[-97.64869,30.28108],[-97.64875,30.27957],[-97.6493,30.2781],[-97.65702,30.26643],[-97.65735,30.26718],[-97.6573,30.26817],[-97.65765,30.26869],[-97.65667,30.26897],[-97.65742,30.26979],[-97.658,30.27002],[-97.65819,30.2713],[-97.65764,30.27197],[-97.65579,30.2717],[-97.65536,30.27252],[-97.65564,30.27311],[-97.65636,30.27303],[-97.65676,30.27342],[-97.65634,30.2743],[-97.65525,30.27444],[-97.65541,30.27491],[-97.65596,30.27525],[-97.65604,30.27676],[-97.65673,30.27679],[-97.65684,30.27775],[-97.65632,30.27798],[-97.656,30.27847],[-97.65545,30.28015],[-97.65547,30.28117],[-97.65477,30.28197],[-97.65478,30.28223],[-97.65538,30.2828],[-97.65451,30.28327],[-97.65785,30.28438],[-97.66526,30.28562],[-97.66955,30.26925],[-97.67037,30.267],[-97.67264,30.26329],[-97.67291,30.26334],[-97.6774,30.25643],[-97.67821,30.25483],[-97.67954,30.25337],[-97.68251,30.25141],[-97.6849,30.25079],[-97.68999,30.25003],[-97.69122,30.24928],[-97.69172,30.24811]],[[-97.64893,30.26835],[-97.64742,30.27084],[-97.64776,30.27104],[-97.64712,30.27201],[-97.64415,30.27041],[-97.64375,30.26937],[-97.6445,30.26914],[-97.6458,30.26686],[-97.64893,30.26835]]]},"properties":{"zip_code":"78725","county":"Travis"}}]}