{"type":"FeatureCollection","features":[{"type":"Feature","geometry":{"type":"Polygon","coordinates":[[[-97.71249,30.30596],[-97.71254,30.3055],[-97.71208,30.30619],[-97.70921,30.30264],[-97.70932,30.30177],[-97.70882,30.30101],[-97.70974,30.29879],[-97.70882,30.29778],[-97.70815,30.2965],[-97.70739,30.29131],[-97.70682,30.29133],[-97.70625,30.29072],[-97.70509,30.29062],[-97.70378,30.28978],[-97.69879,30.29012],[-97.69857,30.28909],[-97.7013,30.28754],[-97.70502,30.28922],[-97.70715,30.2892],[-97.70629,30.28621],[-97.70395,30.28257],[-97.70036,30.28312],[-97.70037,30.28356],[-97.69838,30.28395],[-97.69814,30.28345],[-97.69772,30.28351],[-97.69804,30.28412],[-97.69712,30.2844],[-97.6969,30.28398],[-97.69629,30.28417],[-97.69609,30.28373],[-97.68263,30.28586],[-97.67251,30.28681],[-97.66526,30.28562],[-97.66101,30.30165],[-97.66072,30.30405],[-97.66083,30.30651],[-97.66132,30.30911],[-97.66289,30.31577],[-97.66376,30.31763],[-97.66472,30.31891],[-97.66662,30.32073],[-97.67323,30.32572],[-97.68089,30.3232],[-97.68126,30.32418],[-97.6825,30.32451],[-97.68348,30.32305],[-97.68457,30.32301],[-97.68454,30.32206],[-97.68429,30.32197],[-97.68488,30.32186],[-97.68908,30.32149],[-97.68915,30.32213],[-97.69206,30.32194],[-97.69414,30.32295],[-97.69364,30.32399],[-97.69514,30.32446],[-97.69723,30.32395],[-97.69807,30.32404],[-97.69849,30.32221],[-97.69505,30.32187],[-97.69539,30.32147],[-97.70469,30.32235],[-97.70686,30.3222],[-97.70771,30.3162],[-97.70868,30.31285],[-97.71023,30.30992],[-97.71242,30.30649],[-97.71249,30.30596]]]},"properties":{"zip_code":"78723","county":"Travis"}}]}