{"type":"FeatureCollection","features":[{"type":"Feature","geometry":{"type":"MultiPolygon","coordinates":[[[[-97.76017,30.43311],[-97.76034,30.43271],[-97.75804,30.43291],[-97.7581,30.43099],[-97.75476,30.42967],[-97.75322,30.42949],[-97.75212,30.42898],[-97.75141,30.4295],[-97.75115,30.42907],[-97.75234,30.4284],[-97.75361,30.42651],[-97.74975,30.42461],[-97.74843,30.42356],[-97.74767,30.42262],[-97.74721,30.42157],[-97.7467,30.41907],[-97.74544,30.41911],[-97.74212,30.41755],[-97.74297,30.41628],[-97.74168,30.41567],[-97.74108,30.41654],[-97.73862,30.41536],[-97.7384,30.41577],[-97.73158,30.4125],[-97.73086,30.41351],[-97.73034,30.4132],[-97.73026,30.41376],[-97.73057,30.41412],[-97.72987,30.41513],[-97.72997,30.41544],[-97.72952,30.41562],[-97.72955,30.41615],[-97.72934,30.41613],[-97.72922,30.4152],[-97.72871,30.41487],[-97.72849,30.4134],[-97.72686,30.41244],[-97.72626,30.41173],[-97.72346,30.41184],[-97.72204,30.41163],[-97.71569,30.42153],[-97.70821,30.4179],[-97.70519,30.42103],[-97.70156,30.41864],[-97.69935,30.41748],[-97.68137,30.40893],[-97.68103,30.4101],[-97.68061,30.41038],[-97.68072,30.41069],[-97.68035,30.41146],[-97.68044,30.41273],[-97.68008,30.41331],[-97.68035,30.4144],[-97.68005,30.41514],[-97.67937,30.41588],[-97.67953,30.41663],[-97.67911,30.41768],[-97.67811,30.41876],[-97.67808,30.41943],[-97.67905,30.41982],[-97.67921,30.42019],[-97.67824,30.42151],[-97.67659,30.42238],[-97.67654,30.42266],[-97.67602,30.42303],[-97.67633,30.42396],[-97.67733,30.42434],[-97.67727,30.42559],[-97.67761,30.4258],[-97.67659,30.42686],[-97.68475,30.43089],[-97.68606,30.43453],[-97.6864,30.43399],[-97.68968,30.43554],[-97.68925,30.43611],[-97.69815,30.44035],[-97.70031,30.44075],[-97.71236,30.44538],[-97.71609,30.4484],[-97.71804,30.44908],[-97.72067,30.45322],[-97.727,30.44061],[-97.72774,30.43861],[-97.72837,30.43924],[-97.7292,30.43927],[-97.7296,30.43953],[-97.73142,30.43945],[-97.73209,30.43972],[-97.73393,30.44125],[-97.73552,30.44118],[-97.73561,30.44086],[-97.7374,30.44044],[-97.7389,30.43955],[-97.74081,30.4414],[-97.741,30.44132],[-97.74246,30.44375],[-97.74636,30.44231],[-97.74466,30.43994],[-97.7462,30.43893],[-97.74704,30.43869],[-97.74845,30.43937],[-97.74887,30.43972],[-97.74965,30.44117],[-97.75801,30.43815],[-97.75803,30.43763],[-97.76008,30.43438],[-97.76017,30.43311]]],[[[-97.76452,30.43599],[-97.76545,30.4357],[-97.76437,30.43313],[-97.76273,30.43313],[-97.76235,30.43344],[-97.76356,30.4364],[-97.76452,30.43599]]]]},"properties":{"zip_code":"78727","county":"Travis"}}]}