{"type":"FeatureCollection","features":[{"type":"Feature","geometry":{"type":"Polygon","coordinates":[[[-97.70239,30.28123],[-97.70304,30.28115],[-97.70033,30.27686],[-97.69844,30.27466],[-97.69791,30.27356],[-97.69627,30.2681],[-97.69436,30.26743],[-97.69551,30.26561],[-97.69386,30.26009],[-97.69098,30.25852],[-97.69157,30.25762],[-97.69125,30.25746],[-97.69162,30.25695],[-97.69133,30.25683],[-97.6925,30.25509],[-97.69277,30.25515],[-97.69246,30.2531],[-97.69249,30.25077],[-97.69147,30.2501],[-97.69106,30.24945],[-97.68945,30.25017],[-97.6849,30.25079],[-97.68251,30.25141],[-97.67954,30.25337],[-97.67821,30.25483],[-97.6774,30.25643],[-97.67291,30.26334],[-97.67264,30.26329],[-97.67037,30.267],[-97.66955,30.26925],[-97.66526,30.28562],[-97.67251,30.28681],[-97.68263,30.28586],[-97.69609,30.28373],[-97.69629,30.28417],[-97.6969,30.28398],[-97.69712,30.2844],[-97.69804,30.28412],[-97.69772,30.28351],[-97.69814,30.28345],[-97.69838,30.28395],[-97.70037,30.28356],[-97.70036,30.28312],[-97.70171,30.28291],[-97.70142,30.28139],[-97.70239,30.28123]]]},"properties":{"zip_code":"78721","county":"Travis"}}]}