{"type":"FeatureCollection","features":[{"type":"Feature","geometry":{"type":"Polygon","coordinates":[[[-97.7274,30.28308],[-97.72603,30.28314],[-97.72539,30.28019],[-97.7234,30.28051],[-97.72318,30.27948],[-97.72021,30.27998],[-97.72045,30.28099],[-97.71946,30.28115],[-97.71925,30.28013],[-97.71154,30.2814],[-97.71175,30.28244],[-97.70966,30.28277],[-97.70946,30.28171],[-97.7085,30.28183],[-97.70848,30.28476],[-97.70893,30.28587],[-97.70856,30.28594],[-97.70736,30.28348],[-97.70817,30.28188],[-97.70395,30.28257],[-97.70629,30.28621],[-97.70715,30.2892],[-97.70502,30.28922],[-97.7013,30.28754],[-97.69857,30.28909],[-97.69879,30.29012],[-97.70378,30.28978],[-97.70509,30.29062],[-97.70625,30.29072],[-97.70682,30.29133],[-97.70739,30.29131],[-97.70815,30.2965],[-97.70882,30.29778],[-97.70974,30.29879],[-97.70882,30.30101],[-97.70932,30.30177],[-97.70921,30.30264],[-97.71208,30.30619],[-97.71254,30.3055],[-97.71242,30.30649],[-97.7274,30.28308]]]},"properties":{"zip_code":"78722","county":"Travis"}}]}