{"type":"FeatureCollection","features":[{"type":"Feature","geometry":{"type":"MultiPolygon","coordinates":[[[[-97.67323,30.32572],[-97.66662,30.32073],[-97.66472,30.31891],[-97.66344,30.31704],[-97.66267,30.315],[-97.66083,30.30651],[-97.66084,30.30262],[-97.66526,30.28562],[-97.65763,30.28434],[-97.65451,30.28327],[-97.65538,30.2828],[-97.65478,30.28223],[-97.65477,30.28197],[-97.65547,30.28117],[-97.65545,30.28015],[-97.656,30.27847],[-97.65632,30.27798],[-97.65684,30.27775],[-97.65673,30.27679],[-97.65604,30.27676],[-97.65596,30.27525],[-97.65541,30.27491],[-97.65525,30.27444],[-97.65634,30.2743],[-97.65676,30.27342],[-97.65636,30.27303],[-97.65564,30.27311],[-97.65536,30.27252],[-97.65579,30.2717],[-97.65764,30.27197],[-97.65819,30.2713],[-97.658,30.27002],[-97.65742,30.26979],[-97.65667,30.26897],[-97.65765,30.26869],[-97.6573,30.26817],[-97.65733,30.26706],[-97.65698,30.2664],[-97.6493,30.2781],[-97.64875,30.27957],[-97.64869,30.28108],[-97.64192,30.27855],[-97.64386,30.27553],[-97.64345,30.27504],[-97.64335,30.27211],[-97.64247,30.27105],[-97.642,30.26985],[-97.64209,30.2687],[-97.64175,30.26803],[-97.64224,30.26619],[-97.64259,30.26599],[-97.6438,30.26626],[-97.64573,30.26597],[-97.64618,30.26574],[-97.64616,30.26508],[-97.64423,30.26404],[-97.6438,30.26406],[-97.6432,30.26452],[-97.64236,30.26426],[-97.64086,30.26432],[-97.64062,30.26352],[-97.64141,30.26338],[-97.64079,30.26241],[-97.63971,30.25858],[-97.63894,30.25795],[-97.63441,30.25667],[-97.63077,30.26193],[-97.63056,30.26261],[-97.62666,30.26872],[-97.62537,30.26676],[-97.62582,30.26611],[-97.62504,30.26545],[-97.62743,30.26176],[-97.62882,30.2624],[-97.62928,30.26137],[-97.62991,30.26074],[-97.63152,30.25663],[-97.62989,30.25677],[-97.62869,30.25716],[-97.62736,30.257],[-97.62595,30.25637],[-97.6252,30.25537],[-97.62126,30.26268],[-97.61966,30.26103],[-97.61397,30.259],[-97.61182,30.257],[-97.60942,30.25555],[-97.59868,30.25138],[-97.59564,30.25146],[-97.59635,30.25029],[-97.59651,30.24973],[-97.59636,30.24892],[-97.59328,30.24626],[-97.59305,30.24251],[-97.59258,30.24191],[-97.5903,30.24079],[-97.58963,30.2408],[-97.58875,30.24179],[-97.58812,30.24151],[-97.58441,30.24722],[-97.58367,30.24682],[-97.58337,30.24594],[-97.58386,30.2451],[-97.58341,30.24487],[-97.58285,30.24584],[-97.58303,30.24748],[-97.58019,30.24804],[-97.57576,30.24883],[-97.57067,30.2491],[-97.56904,30.249],[-97.5648,30.24814],[-97.5616,30.24857],[-97.56072,30.24903],[-97.56241,30.24934],[-97.56228,30.25026],[-97.56304,30.25123],[-97.56399,30.25152],[-97.56495,30.25505],[-97.56368,30.25644],[-97.56427,30.25717],[-97.56398,30.25811],[-97.56504,30.25944],[-97.56691,30.25957],[-97.56742,30.259],[-97.56837,30.25961],[-97.56891,30.26103],[-97.5695,30.26079],[-97.57031,30.26151],[-97.57043,30.26296],[-97.57175,30.26383],[-97.57352,30.26419],[-97.57357,30.26455],[-97.57297,30.26518],[-97.57383,30.26654],[-97.57598,30.26873],[-97.57678,30.26879],[-97.57717,30.2692],[-97.57746,30.26918],[-97.57751,30.26987],[-97.57808,30.26998],[-97.5785,30.27043],[-97.58415,30.27028],[-97.5848,30.26954],[-97.58534,30.26943],[-97.58625,30.26979],[-97.58684,30.27072],[-97.58617,30.27265],[-97.58533,30.27332],[-97.58499,30.27399],[-97.5852,30.27494],[-97.58573,30.27548],[-97.58724,30.27517],[-97.58871,30.27581],[-97.58126,30.28183],[-97.57889,30.28421],[-97.579,30.28469],[-97.57864,30.28534],[-97.58008,30.28682],[-97.58358,30.28856],[-97.57793,30.28845],[-97.57481,30.28795],[-97.57278,30.28869],[-97.5717,30.28965],[-97.57113,30.29073],[-97.57015,30.29447],[-97.57048,30.29462],[-97.56924,30.29843],[-97.56872,30.30292],[-97.56903,30.30517],[-97.56951,30.30447],[-97.5699,30.30713],[-97.57046,30.30903],[-97.57208,30.31273],[-97.57449,30.31604],[-97.58613,30.33048],[-97.59129,30.34032],[-97.59939,30.33725],[-97.59947,30.33747],[-97.60441,30.33561],[-97.60764,30.33474],[-97.60772,30.33502],[-97.60941,30.33457],[-97.61053,30.33569],[-97.61168,30.33601],[-97.61335,30.33609],[-97.61476,30.3367],[-97.61593,30.33763],[-97.61677,30.33875],[-97.61711,30.3402],[-97.61711,30.34096],[-97.61663,30.34185],[-97.62281,30.33236],[-97.62322,30.33093],[-97.6243,30.33115],[-97.62418,30.33176],[-97.62635,30.33163],[-97.62549,30.33293],[-97.62744,30.33383],[-97.62896,30.33148],[-97.64407,30.33042],[-97.644,30.32954],[-97.6443,30.3295],[-97.66428,30.32796],[-97.66956,30.32693],[-97.67323,30.32572]]],[[[-97.64897,30.26849],[-97.64877,30.2682],[-97.6458,30.26686],[-97.6445,30.26914],[-97.64375,30.26937],[-97.64415,30.27041],[-97.64712,30.27201],[-97.64776,30.27104],[-97.64742,30.27084],[-97.64897,30.26849]]]]},"properties":{"zip_code":"78724","county":"Travis"}}]}