{"type":"FeatureCollection","features":[{"type":"Feature","geometry":{"type":"Polygon","coordinates":[[[-97.79487,30.46574],[-97.79526,30.46562],[-97.79217,30.45802],[-97.79283,30.45781],[-97.79199,30.45548],[-97.79067,30.44873],[-97.78523,30.45036],[-97.7801,30.44653],[-97.78141,30.44555],[-97.78143,30.44496],[-97.78408,30.44302],[-97.7831,30.44238],[-97.78245,30.44267],[-97.78188,30.44204],[-97.78018,30.44332],[-97.77991,30.443],[-97.77886,30.44334],[-97.77904,30.44384],[-97.77757,30.44433],[-97.77515,30.44273],[-97.77839,30.44172],[-97.77788,30.4404],[-97.77904,30.43979],[-97.7758,30.43774],[-97.76921,30.43456],[-97.76973,30.4342],[-97.76606,30.43241],[-97.76166,30.43261],[-97.76034,30.43271],[-97.76002,30.4335],[-97.76008,30.43438],[-97.75803,30.43763],[-97.75801,30.43815],[-97.74965,30.44117],[-97.74887,30.43972],[-97.74845,30.43937],[-97.74704,30.43869],[-97.7462,30.43893],[-97.74466,30.43994],[-97.74636,30.44231],[-97.74246,30.44375],[-97.741,30.44132],[-97.74081,30.4414],[-97.7389,30.43955],[-97.7374,30.44044],[-97.73561,30.44086],[-97.73552,30.44118],[-97.73393,30.44125],[-97.73209,30.43972],[-97.73142,30.43945],[-97.7296,30.43953],[-97.7292,30.43927],[-97.72837,30.43924],[-97.72774,30.43861],[-97.727,30.44061],[-97.72072,30.45313],[-97.72124,30.45511],[-97.72078,30.45812],[-97.71974,30.47081],[-97.72052,30.47268],[-97.72299,30.47499],[-97.72421,30.47548],[-97.73021,30.47681],[-97.73127,30.47692],[-97.73694,30.47644],[-97.74236,30.47482],[-97.74879,30.47396],[-97.7531,30.47465],[-97.76053,30.47732],[-97.76953,30.47443],[-97.77205,30.47395],[-97.77673,30.47357],[-97.78041,30.4725],[-97.78061,30.47304],[-97.78992,30.47018],[-97.78937,30.4692],[-97.78796,30.46782],[-97.78756,30.46691],[-97.78781,30.46532],[-97.78921,30.46382],[-97.78999,30.4646],[-97.79067,30.46597],[-97.79117,30.46631],[-97.79203,30.46659],[-97.793,30.46653],[-97.79487,30.46574]],[[-97.76545,30.4357],[-97.76356,30.4364],[-97.76235,30.43344],[-97.76325,30.43304],[-97.76437,30.43313],[-97.76545,30.4357]]]},"properties":{"zip_code":"78729","county":"Williamson"}}]}