{"type":"FeatureCollection","features":[{"type":"Feature","geometry":{"type":"Polygon","coordinates":[[[-97.72124,30.45495],[-97.72072,30.45313],[-97.71804,30.44908],[-97.71609,30.4484],[-97.71236,30.44538],[-97.70031,30.44075],[-97.69815,30.44035],[-97.68925,30.43611],[-97.68968,30.43554],[-97.6864,30.43399],[-97.68606,30.43453],[-97.68475,30.43089],[-97.67159,30.42442],[-97.66851,30.44059],[-97.66931,30.44033],[-97.66861,30.44254],[-97.66882,30.44267],[-97.66875,30.44304],[-97.66813,30.44274],[-97.66645,30.45151],[-97.66629,30.45443],[-97.66696,30.45799],[-97.67424,30.48079],[-97.68289,30.48007],[-97.68319,30.47926],[-97.685,30.47896],[-97.68519,30.4779],[-97.68572,30.47697],[-97.69062,30.47231],[-97.69218,30.47367],[-97.69305,30.47479],[-97.69392,30.47767],[-97.70215,30.47644],[-97.70341,30.4765],[-97.70548,30.47724],[-97.7176,30.45863],[-97.71963,30.45757],[-97.72036,30.45614],[-97.72115,30.45584],[-97.72124,30.45495]]]},"properties":{"zip_code":"78728","county":"Travis"}}]}