{"type":"FeatureCollection","features":[{"type":"Feature","geometry":{"type":"Polygon","coordinates":[[[-97.92927,30.17502],[-97.92927,30.17451],[-97.92807,30.17304],[-97.92647,30.1727],[-97.9243,30.17281],[-97.91786,30.16526],[-97.91862,30.16312],[-97.91859,30.15919],[-97.91772,30.15848],[-97.91762,30.15794],[-97.9188,30.15783],[-97.91551,30.15487],[-97.90455,30.16409],[-97.9049,30.1643],[-97.90466,30.1643],[-97.88352,30.14907],[-97.88352,30.15147],[-97.88154,30.15394],[-97.87989,30.15226],[-97.87934,30.15205],[-97.87395,30.15234],[-97.87077,30.14926],[-97.87027,30.14935],[-97.87032,30.14878],[-97.86833,30.14623],[-97.86685,30.14347],[-97.86208,30.14599],[-97.86197,30.14632],[-97.86,30.1457],[-97.85936,30.14743],[-97.85874,30.14719],[-97.85486,30.14848],[-97.85758,30.15386],[-97.85911,30.15572],[-97.85999,30.15541],[-97.86035,30.16742],[-97.86015,30.16846],[-97.8593,30.16998],[-97.85778,30.17109],[-97.85499,30.17541],[-97.85752,30.17578],[-97.85862,30.1755],[-97.85932,30.17574],[-97.85837,30.17706],[-97.85847,30.17751],[-97.8595,30.17866],[-97.86138,30.18014],[-97.86182,30.18023],[-97.86332,30.18178],[-97.86385,30.18306],[-97.86387,30.18369],[-97.86288,30.18504],[-97.86296,30.18546],[-97.86217,30.1859],[-97.86128,30.18691],[-97.8608,30.18835],[-97.86232,30.18991],[-97.86258,30.19047],[-97.86367,30.19061],[-97.86491,30.19025],[-97.866,30.19084],[-97.86621,30.19247],[-97.86574,30.19337],[-97.86552,30.19466],[-97.86645,30.1954],[-97.86762,30.19589],[-97.86968,30.19588],[-97.87383,30.19786],[-97.87478,30.19809],[-97.87572,30.198],[-97.87934,30.19598],[-97.87983,30.19605],[-97.88032,30.19657],[-97.88093,30.19632],[-97.88144,30.19643],[-97.88177,30.1967],[-97.88279,30.19927],[-97.88337,30.19997],[-97.88591,30.20097],[-97.8871,30.20199],[-97.88817,30.20253],[-97.88879,30.20238],[-97.89216,30.19702],[-97.90052,30.2011],[-97.90274,30.1977],[-97.90506,30.19897],[-97.90654,30.19686],[-97.90922,30.19568],[-97.911,30.19561],[-97.91397,30.1971],[-97.91437,30.1998],[-97.91511,30.20113],[-97.914,30.20311],[-97.91594,30.20377],[-97.91648,30.20366],[-97.91756,30.20317],[-97.91837,30.20244],[-97.92351,30.1945],[-97.92652,30.19067],[-97.9287,30.18693],[-97.92888,30.18571],[-97.92875,30.1784],[-97.92888,30.17639],[-97.92927,30.17502]]]},"properties":{"zip_code":"78739","county":"Travis"}}]}