{"type":"FeatureCollection","features":[{"type":"Feature","geometry":{"type":"Polygon","coordinates":[[[-97.92257,30.32591],[-97.92259,30.32549],[-97.92068,30.32553],[-97.92066,30.32494],[-97.91759,30.3259],[-97.91124,30.32886],[-97.90941,30.33045],[-97.90909,30.32984],[-97.90835,30.33016],[-97.90738,30.32777],[-97.91169,30.32108],[-97.91079,30.31947],[-97.91043,30.31721],[-97.91067,30.31544],[-97.90951,30.3129],[-97.91075,30.31105],[-97.90894,30.31018],[-97.90887,30.30983],[-97.90682,30.30939],[-97.90714,30.30459],[-97.90302,30.30285],[-97.89788,30.29866],[-97.89729,30.29791],[-97.89698,30.29693],[-97.89815,30.29542],[-97.90034,30.29408],[-97.90201,30.29229],[-97.90214,30.29184],[-97.90123,30.29014],[-97.9007,30.28926],[-97.89797,30.28962],[-97.89598,30.29096],[-97.89164,30.29541],[-97.89061,30.29568],[-97.8892,30.29525],[-97.88831,30.29433],[-97.88741,30.293],[-97.88621,30.2899],[-97.88613,30.28919],[-97.88421,30.28697],[-97.88304,30.28648],[-97.88195,30.28685],[-97.88035,30.28853],[-97.88062,30.28911],[-97.88055,30.2901],[-97.88013,30.29085],[-97.88147,30.29357],[-97.88149,30.29481],[-97.88128,30.29571],[-97.88005,30.29631],[-97.8792,30.29773],[-97.87783,30.29862],[-97.87617,30.29899],[-97.87465,30.29832],[-97.87327,30.29732],[-97.8707,30.29719],[-97.86946,30.29849],[-97.86876,30.29999],[-97.86811,30.3008],[-97.86803,30.30153],[-97.86858,30.30182],[-97.86843,30.30365],[-97.86911,30.30455],[-97.86939,30.3054],[-97.8691,30.30625],[-97.86832,30.30674],[-97.86829,30.30707],[-97.86866,30.3087],[-97.86837,30.31032],[-97.86927,30.31204],[-97.86884,30.314],[-97.86828,30.31369],[-97.86711,30.31653],[-97.86666,30.31699],[-97.86697,30.31758],[-97.8633,30.31826],[-97.86152,30.31805],[-97.85843,30.31578],[-97.85105,30.31266],[-97.84856,30.31069],[-97.84753,30.31033],[-97.84559,30.31012],[-97.8453,30.31172],[-97.8436,30.31373],[-97.84302,30.31719],[-97.84261,30.31789],[-97.84137,30.31906],[-97.8414,30.3203],[-97.84187,30.32134],[-97.84404,30.32405],[-97.84407,30.32439],[-97.8438,30.32467],[-97.84268,30.3252],[-97.84458,30.32808],[-97.84501,30.32945],[-97.84617,30.34034],[-97.84519,30.3404],[-97.84746,30.3467],[-97.85079,30.3516],[-97.85719,30.3547],[-97.86222,30.35425],[-97.87442,30.34617],[-97.88049,30.344],[-97.89449,30.3417],[-97.89989,30.3399],[-97.90919,30.3316],[-97.91489,30.3278],[-97.91789,30.3266],[-97.92256,30.32619],[-97.92257,30.32591]]]},"properties":{"zip_code":"78733","county":"Travis"}}]}