{"type":"FeatureCollection","features":[{"type":"Feature","geometry":{"type":"Polygon","coordinates":[[[-97.89814,30.34159],[-97.89691,30.34089],[-97.89449,30.3417],[-97.88049,30.344],[-97.87442,30.34617],[-97.86222,30.35425],[-97.85719,30.3547],[-97.85079,30.3516],[-97.84746,30.3467],[-97.84519,30.3404],[-97.84445,30.33625],[-97.84436,30.33091],[-97.84403,30.32951],[-97.84267,30.32622],[-97.84149,30.32515],[-97.83989,30.32435],[-97.83859,30.32401],[-97.83588,30.32392],[-97.83064,30.32523],[-97.82566,30.32907],[-97.81425,30.34182],[-97.81244,30.34414],[-97.80951,30.34915],[-97.80694,30.3515],[-97.80482,30.35221],[-97.80238,30.35217],[-97.80009,30.35159],[-97.79683,30.34999],[-97.79135,30.35929],[-97.79226,30.35955],[-97.79298,30.3601],[-97.79555,30.36298],[-97.79751,30.36585],[-97.80082,30.36806],[-97.80306,30.37102],[-97.80428,30.37366],[-97.80406,30.37466],[-97.80459,30.37553],[-97.80466,30.37651],[-97.80437,30.3779],[-97.80359,30.37971],[-97.80376,30.38253],[-97.80441,30.38336],[-97.80406,30.38449],[-97.80549,30.38527],[-97.80594,30.38617],[-97.8071,30.38661],[-97.80717,30.38817],[-97.80768,30.38926],[-97.81028,30.3852],[-97.81798,30.38558],[-97.81825,30.38342],[-97.82731,30.38982],[-97.83094,30.39181],[-97.83037,30.39329],[-97.83111,30.39494],[-97.83423,30.39403],[-97.83499,30.39302],[-97.83519,30.39208],[-97.83904,30.39221],[-97.8389,30.39272],[-97.83773,30.39418],[-97.83673,30.39479],[-97.8366,30.39585],[-97.8388,30.39505],[-97.84098,30.39537],[-97.84442,30.39378],[-97.84547,30.39454],[-97.84488,30.39584],[-97.84565,30.39768],[-97.84497,30.3989],[-97.8469,30.39866],[-97.84696,30.39899],[-97.84739,30.39895],[-97.8482,30.39961],[-97.84853,30.40176],[-97.84982,30.40176],[-97.84924,30.40276],[-97.85032,30.40363],[-97.85111,30.40358],[-97.85206,30.4029],[-97.85368,30.40439],[-97.85402,30.40378],[-97.85253,30.40234],[-97.84949,30.39735],[-97.85114,30.39712],[-97.85155,30.39655],[-97.85148,30.39597],[-97.85097,30.39552],[-97.8502,30.39536],[-97.84933,30.39438],[-97.86366,30.38567],[-97.87371,30.37463],[-97.87393,30.37437],[-97.87029,30.37179],[-97.8716,30.36956],[-97.87243,30.36932],[-97.87436,30.37075],[-97.87509,30.3704],[-97.87827,30.37112],[-97.88405,30.36235],[-97.87943,30.36008],[-97.88207,30.35592],[-97.88273,30.35617],[-97.88301,30.35586],[-97.8892,30.3465],[-97.89027,30.34663],[-97.88986,30.34577],[-97.89,30.34507],[-97.88978,30.34456],[-97.89002,30.34415],[-97.88884,30.3437],[-97.89347,30.3429],[-97.89814,30.34159]]]},"properties":{"zip_code":"78730","county":"Travis"}}]}