{"type":"FeatureCollection","features":[{"type":"Feature","geometry":{"type":"Polygon","coordinates":[[[-98.01481,30.37048],[-98.0137,30.36776],[-98.01345,30.36766],[-98.01355,30.36738],[-98.01325,30.36714],[-98.0136,30.36676],[-98.01167,30.36594],[-98.01117,30.36519],[-98.01055,30.36534],[-98.01078,30.36416],[-98.01021,30.36358],[-98.00997,30.36391],[-98.00995,30.36295],[-98.0089,30.36312],[-98.00852,30.36292],[-98.0084,30.3625],[-98.0087,30.36178],[-98.00806,30.36109],[-98.00843,30.35884],[-98.00545,30.35626],[-98.00519,30.35564],[-98.00487,30.35547],[-98.00502,30.35612],[-98.00607,30.35769],[-98.0054,30.35804],[-98.00451,30.3579],[-98.00475,30.35738],[-98.0045,30.35712],[-98.00395,30.35748],[-98.00328,30.35752],[-98.00271,30.35711],[-98.00251,30.35616],[-98.00173,30.35611],[-98.00179,30.35681],[-98.00227,30.35761],[-98.00322,30.35855],[-98.00259,30.3584],[-98.00196,30.35784],[-98.00055,30.3577],[-98.00041,30.35787],[-98.0014,30.35859],[-98.00147,30.3589],[-98.00108,30.35949],[-97.99958,30.36043],[-97.99911,30.36008],[-97.99941,30.35977],[-97.99756,30.3579],[-97.99746,30.35754],[-97.99675,30.3577],[-97.99626,30.35698],[-97.99608,30.3541],[-97.99586,30.35409],[-97.99567,30.35251],[-97.99438,30.35174],[-97.99356,30.35154],[-97.99179,30.35248],[-97.99022,30.35516],[-97.98955,30.35584],[-97.98865,30.35594],[-97.98722,30.35534],[-97.98639,30.35527],[-97.98256,30.35737],[-97.98256,30.35511],[-97.98013,30.35387],[-97.9795,30.35384],[-97.9798,30.35191],[-97.97873,30.35155],[-97.97688,30.35143],[-97.97717,30.34794],[-97.97682,30.34523],[-97.97705,30.34511],[-97.97821,30.34031],[-97.97569,30.3402],[-97.97529,30.33986],[-97.97535,30.33967],[-97.97462,30.33947],[-97.97487,30.34162],[-97.97398,30.34265],[-97.97355,30.34243],[-97.97308,30.34265],[-97.97326,30.343],[-97.9731,30.34337],[-97.96865,30.3409],[-97.96975,30.33881],[-97.97037,30.3388],[-97.97012,30.33775],[-97.97063,30.33641],[-97.97043,30.33436],[-97.96891,30.33454],[-97.96735,30.33112],[-97.9666,30.33005],[-97.96532,30.33077],[-97.96483,30.33137],[-97.96535,30.33186],[-97.96532,30.3321],[-97.96404,30.3324],[-97.96277,30.33215],[-97.96203,30.33248],[-97.96139,30.33321],[-97.96137,30.33396],[-97.96254,30.33564],[-97.96266,30.33707],[-97.96169,30.33894],[-97.96054,30.33959],[-97.95978,30.33969],[-97.95927,30.34047],[-97.95823,30.34128],[-97.95818,30.34205],[-97.95711,30.34233],[-97.95664,30.34288],[-97.95574,30.34319],[-97.95483,30.34248],[-97.95319,30.34275],[-97.95297,30.34316],[-97.95141,30.34413],[-97.95109,30.3441],[-97.94864,30.34227],[-97.94792,30.34224],[-97.94722,30.34261],[-97.9463,30.34229],[-97.94443,30.34088],[-97.94403,30.33977],[-97.94369,30.33944],[-97.94086,30.33927],[-97.93919,30.33748],[-97.9388,30.33748],[-97.9386,30.33881],[-97.93821,30.33949],[-97.93696,30.33933],[-97.93585,30.3379],[-97.93662,30.33655],[-97.93565,30.33687],[-97.93405,30.33645],[-97.91679,30.3544],[-97.91349,30.3622],[-97.91433,30.3758],[-97.91448,30.38478],[-97.9134,30.38827],[-97.91109,30.39049],[-97.90539,30.39277],[-97.89998,30.39424],[-97.89922,30.39478],[-97.89995,30.39639],[-97.90084,30.40076],[-97.90654,30.41169],[-97.90923,30.41818],[-97.91302,30.42631],[-97.91546,30.42951],[-97.91915,30.4325],[-97.92336,30.43487],[-97.92669,30.43618],[-97.93139,30.43724],[-97.93459,30.43746],[-97.93866,30.43732],[-97.94677,30.43418],[-97.94888,30.43249],[-97.94994,30.43124],[-97.95122,30.429],[-97.95187,30.42671],[-97.95216,30.42396],[-97.95195,30.42164],[-97.95125,30.41978],[-97.94869,30.41605],[-97.94611,30.41306],[-97.94234,30.40804],[-97.94083,30.40417],[-97.94053,30.40255],[-97.94056,30.4009],[-97.94126,30.3987],[-97.94303,30.39575],[-97.944,30.39466],[-97.94515,30.39406],[-97.94747,30.3937],[-97.96629,30.39401],[-97.97068,30.39324],[-97.97268,30.39246],[-97.97619,30.3901],[-97.97805,30.38842],[-97.98248,30.38338],[-97.98959,30.37747],[-97.99059,30.37749],[-97.99259,30.37691],[-97.99864,30.37468],[-97.99863,30.37447],[-98.00739,30.37188],[-98.00911,30.37116],[-98.01182,30.37048],[-98.01481,30.37048]]]},"properties":{"zip_code":"78734","county":"Travis"}}]}