{"type":"FeatureCollection","features":[{"type":"Feature","geometry":{"type":"Polygon","coordinates":[[[-97.79683,30.34999],[-97.7915,30.34628],[-97.7883,30.34356],[-97.78623,30.34092],[-97.78105,30.33223],[-97.77975,30.33054],[-97.7765,30.32384],[-97.77607,30.32218],[-97.77612,30.32092],[-97.77566,30.31803],[-97.77588,30.31361],[-97.77383,30.3126],[-97.7716,30.31316],[-97.77015,30.31413],[-97.76904,30.31453],[-97.76728,30.31361],[-97.764,30.3187],[-97.7687,30.32105],[-97.76378,30.32735],[-97.76013,30.32555],[-97.75956,30.32641],[-97.75865,30.326],[-97.75815,30.32458],[-97.75705,30.32407],[-97.75632,30.3202],[-97.75691,30.3135],[-97.75764,30.30904],[-97.75464,30.30857],[-97.75449,30.30904],[-97.75248,30.30857],[-97.75261,30.3081],[-97.75074,30.30725],[-97.748,30.30722],[-97.74877,30.30875],[-97.7489,30.30952],[-97.74897,30.3109],[-97.74861,30.3126],[-97.74899,30.31352],[-97.74925,30.31567],[-97.74888,30.31712],[-97.74921,30.31776],[-97.74911,30.31876],[-97.74934,30.32021],[-97.74926,30.32086],[-97.74892,30.32095],[-97.74591,30.32006],[-97.74517,30.321],[-97.7459,30.32311],[-97.74589,30.32553],[-97.74699,30.32748],[-97.74698,30.32955],[-97.74635,30.33057],[-97.74741,30.33186],[-97.74897,30.33293],[-97.74975,30.3345],[-97.752,30.33472],[-97.75528,30.33641],[-97.7549,30.3379],[-97.74961,30.34874],[-97.74884,30.35172],[-97.74799,30.3516],[-97.74342,30.3613],[-97.74521,30.3613],[-97.7467,30.3617],[-97.74945,30.36382],[-97.75057,30.36537],[-97.75313,30.36696],[-97.75412,30.36786],[-97.75527,30.36574],[-97.75597,30.36607],[-97.75565,30.36663],[-97.75687,30.36705],[-97.75729,30.36686],[-97.75935,30.36816],[-97.759,30.36863],[-97.75741,30.3675],[-97.75703,30.36816],[-97.75873,30.36899],[-97.75842,30.36944],[-97.75682,30.36843],[-97.75654,30.36892],[-97.75819,30.36979],[-97.75726,30.37146],[-97.75784,30.37185],[-97.75982,30.3707],[-97.76056,30.37065],[-97.76171,30.36893],[-97.76557,30.37066],[-97.76604,30.36995],[-97.76732,30.37021],[-97.76821,30.37086],[-97.76877,30.37164],[-97.76909,30.37272],[-97.76827,30.37385],[-97.76813,30.37559],[-97.76722,30.37599],[-97.76665,30.37689],[-97.7666,30.37737],[-97.76702,30.37778],[-97.76676,30.37838],[-97.76768,30.37936],[-97.76701,30.37961],[-97.767,30.38122],[-97.76739,30.38165],[-97.76848,30.38203],[-97.76874,30.38243],[-97.77048,30.38269],[-97.77041,30.38382],[-97.77006,30.38458],[-97.77051,30.38728],[-97.77133,30.38919],[-97.77199,30.38998],[-97.77278,30.39048],[-97.7738,30.39083],[-97.77493,30.39039],[-97.77419,30.38973],[-97.77393,30.3885],[-97.77323,30.38709],[-97.77157,30.3858],[-97.77131,30.38449],[-97.77156,30.38324],[-97.77141,30.38276],[-97.7745,30.38118],[-97.77827,30.37806],[-97.78062,30.37892],[-97.7816,30.3788],[-97.78369,30.37763],[-97.78413,30.37699],[-97.78445,30.37545],[-97.78467,30.37266],[-97.78815,30.36975],[-97.79444,30.37269],[-97.79496,30.37191],[-97.79032,30.36967],[-97.79084,30.36892],[-97.78943,30.36815],[-97.78988,30.36713],[-97.79042,30.36245],[-97.79108,30.35991],[-97.79191,30.35806],[-97.79683,30.34999]]]},"properties":{"zip_code":"78731","county":"Travis"}}]}