{"type":"FeatureCollection","features":[{"type":"Feature","geometry":{"type":"Polygon","coordinates":[[[-97.93405,30.33645],[-97.93469,30.3357],[-97.93399,30.3314],[-97.93009,30.3285],[-97.92469,30.326],[-97.91789,30.3266],[-97.91489,30.3278],[-97.90919,30.3316],[-97.89989,30.3399],[-97.89691,30.34089],[-97.89814,30.34159],[-97.89347,30.3429],[-97.88884,30.3437],[-97.89002,30.34415],[-97.88978,30.34456],[-97.89,30.34507],[-97.88986,30.34577],[-97.89027,30.34663],[-97.8892,30.3465],[-97.88301,30.35586],[-97.88273,30.35617],[-97.88207,30.35592],[-97.87943,30.36008],[-97.88405,30.36235],[-97.87827,30.37112],[-97.87509,30.3704],[-97.87436,30.37075],[-97.87243,30.36932],[-97.8716,30.36956],[-97.87029,30.37179],[-97.87393,30.37437],[-97.87371,30.37463],[-97.86366,30.38567],[-97.84933,30.39438],[-97.8502,30.39536],[-97.85097,30.39552],[-97.85148,30.39597],[-97.85155,30.39655],[-97.85114,30.39712],[-97.84949,30.39735],[-97.85253,30.40234],[-97.85402,30.40378],[-97.85629,30.40529],[-97.85625,30.40483],[-97.85692,30.40459],[-97.85957,30.40513],[-97.86005,30.40562],[-97.86076,30.40553],[-97.86103,30.40575],[-97.8616,30.40556],[-97.86215,30.40595],[-97.86349,30.40582],[-97.86408,30.40702],[-97.86493,30.40716],[-97.86549,30.40817],[-97.86651,30.40907],[-97.86622,30.41013],[-97.86689,30.41096],[-97.86749,30.41125],[-97.86761,30.41184],[-97.86839,30.41297],[-97.86772,30.41396],[-97.86761,30.41453],[-97.86852,30.41496],[-97.86866,30.41552],[-97.86956,30.41625],[-97.86986,30.41686],[-97.86994,30.41776],[-97.86904,30.41719],[-97.86912,30.41914],[-97.86948,30.42023],[-97.87247,30.4245],[-97.87265,30.42545],[-97.8728,30.42552],[-97.87422,30.42335],[-97.8771,30.42342],[-97.8775,30.42618],[-97.87877,30.42705],[-97.87868,30.42902],[-97.87982,30.42898],[-97.88008,30.42739],[-97.8817,30.42588],[-97.88324,30.42773],[-97.88521,30.42645],[-97.88643,30.42651],[-97.89516,30.4248],[-97.91109,30.42221],[-97.90654,30.41169],[-97.90084,30.40076],[-97.89995,30.39639],[-97.89922,30.39478],[-97.89998,30.39424],[-97.90539,30.39277],[-97.91109,30.39049],[-97.9134,30.38827],[-97.91448,30.38478],[-97.91433,30.3758],[-97.91349,30.3622],[-97.91679,30.3544],[-97.93405,30.33645]]]},"properties":{"zip_code":"78732","county":"Travis"}}]}