{"type":"FeatureCollection","features":[{"type":"Feature","geometry":{"type":"Polygon","coordinates":[[[-97.92697,30.29461],[-97.92693,30.29286],[-97.92644,30.29213],[-97.92384,30.29122],[-97.92115,30.29088],[-97.91924,30.28991],[-97.91847,30.28892],[-97.91763,30.28918],[-97.91662,30.2865],[-97.91689,30.28166],[-97.91648,30.27984],[-97.91279,30.27275],[-97.91,30.26873],[-97.90934,30.26736],[-97.90724,30.26013],[-97.90448,30.25721],[-97.90712,30.25511],[-97.90562,30.25452],[-97.90471,30.25487],[-97.90415,30.25426],[-97.90507,30.2528],[-97.90192,30.25295],[-97.90153,30.25212],[-97.90117,30.2521],[-97.90097,30.25164],[-97.90036,30.25138],[-97.90035,30.25103],[-97.89977,30.25063],[-97.89932,30.24974],[-97.89806,30.24925],[-97.89677,30.24774],[-97.89603,30.24768],[-97.8957,30.24842],[-97.89481,30.24911],[-97.89426,30.24989],[-97.88683,30.2462],[-97.88472,30.2446],[-97.88682,30.24482],[-97.88686,30.24417],[-97.88611,30.24347],[-97.88543,30.24344],[-97.88602,30.24243],[-97.88335,30.24082],[-97.88394,30.23976],[-97.88287,30.23901],[-97.88195,30.2404],[-97.88144,30.24017],[-97.88102,30.23948],[-97.88028,30.23988],[-97.87725,30.23574],[-97.87578,30.23469],[-97.87316,30.23398],[-97.8675,30.23408],[-97.86603,30.23389],[-97.86478,30.23406],[-97.86064,30.2353],[-97.85917,30.23529],[-97.85773,30.23495],[-97.85211,30.2352],[-97.85218,30.23445],[-97.85147,30.23425],[-97.8457,30.2338],[-97.84619,30.23639],[-97.84046,30.23679],[-97.82851,30.23666],[-97.82554,30.23598],[-97.8198,30.23345],[-97.81833,30.23327],[-97.81842,30.23264],[-97.81151,30.23301],[-97.80709,30.23157],[-97.80512,30.23131],[-97.80353,30.23148],[-97.80291,30.23252],[-97.8052,30.2324],[-97.80673,30.23274],[-97.80625,30.23349],[-97.80607,30.23526],[-97.80704,30.23524],[-97.80729,30.23561],[-97.80575,30.23749],[-97.80821,30.2385],[-97.80723,30.23997],[-97.80739,30.24013],[-97.80814,30.24046],[-97.80891,30.23981],[-97.80968,30.23954],[-97.81047,30.23991],[-97.81087,30.24077],[-97.81066,30.24259],[-97.81097,30.24433],[-97.81239,30.24708],[-97.8137,30.25155],[-97.81559,30.25302],[-97.81917,30.25453],[-97.82179,30.2566],[-97.82244,30.25754],[-97.82363,30.26056],[-97.82361,30.26191],[-97.82308,30.26314],[-97.82301,30.2645],[-97.82391,30.26792],[-97.82496,30.26969],[-97.82613,30.26998],[-97.83071,30.27001],[-97.83119,30.27045],[-97.8314,30.2711],[-97.83412,30.27403],[-97.83801,30.27555],[-97.83987,30.27563],[-97.8415,30.27446],[-97.84225,30.27361],[-97.84365,30.27306],[-97.84433,30.27356],[-97.84538,30.27535],[-97.84596,30.27574],[-97.84641,30.27725],[-97.84757,30.2785],[-97.84845,30.27918],[-97.84973,30.27944],[-97.85112,30.28064],[-97.85183,30.28166],[-97.85238,30.28191],[-97.85254,30.28292],[-97.85202,30.28422],[-97.85067,30.28561],[-97.84785,30.2872],[-97.84682,30.28819],[-97.845,30.289],[-97.8438,30.2899],[-97.84321,30.29057],[-97.84296,30.29235],[-97.84339,30.29275],[-97.8448,30.29284],[-97.84557,30.29194],[-97.84718,30.29107],[-97.85001,30.29149],[-97.85085,30.29208],[-97.8511,30.29325],[-97.8516,30.29396],[-97.85213,30.29706],[-97.8526,30.29792],[-97.85266,30.30009],[-97.85315,30.30213],[-97.85292,30.30289],[-97.85353,30.30412],[-97.85428,30.30465],[-97.85595,30.30501],[-97.85709,30.3046],[-97.85767,30.3031],[-97.85785,30.30023],[-97.85858,30.29832],[-97.86007,30.29707],[-97.86133,30.29675],[-97.86224,30.29692],[-97.86284,30.29738],[-97.86445,30.2998],[-97.86451,30.30051],[-97.86412,30.30168],[-97.8643,30.30286],[-97.86553,30.30515],[-97.86664,30.30635],[-97.86778,30.30679],[-97.86872,30.30655],[-97.8691,30.30625],[-97.86939,30.3054],[-97.86911,30.30455],[-97.86843,30.30365],[-97.86858,30.30182],[-97.86807,30.30158],[-97.86801,30.30108],[-97.86937,30.29862],[-97.87044,30.29733],[-97.8713,30.29713],[-97.87327,30.29732],[-97.87465,30.29832],[-97.87624,30.29899],[-97.8784,30.29831],[-97.87926,30.29766],[-97.88017,30.2962],[-97.88128,30.29571],[-97.88152,30.29378],[-97.88013,30.29085],[-97.88055,30.2901],[-97.88062,30.28911],[-97.88032,30.28863],[-97.88187,30.28692],[-97.88266,30.2865],[-97.88369,30.28663],[-97.885,30.2878],[-97.88613,30.28919],[-97.88621,30.2899],[-97.88741,30.293],[-97.88829,30.29431],[-97.8892,30.29525],[-97.89061,30.29568],[-97.89164,30.29541],[-97.89688,30.29025],[-97.89797,30.28962],[-97.9007,30.28926],[-97.90214,30.29184],[-97.90201,30.29229],[-97.90034,30.29408],[-97.89815,30.29542],[-97.89698,30.29693],[-97.89729,30.29791],[-97.89788,30.29866],[-97.9027,30.30262],[-97.90401,30.30341],[-97.90714,30.30459],[-97.90866,30.30659],[-97.90968,30.30708],[-97.91072,30.30699],[-97.91164,30.30661],[-97.9127,30.30514],[-97.91568,30.30338],[-97.9174,30.3028],[-97.91842,30.30196],[-97.91918,30.30071],[-97.91921,30.29907],[-97.92027,30.29772],[-97.92306,30.29608],[-97.92407,30.29598],[-97.92475,30.29635],[-97.92603,30.29628],[-97.92681,30.29574],[-97.92697,30.29461]]]},"properties":{"zip_code":"78735","county":"Travis"}}]}