{"type":"FeatureCollection","features":[{"type":"Feature","geometry":{"type":"Polygon","coordinates":[[[-98.0297,30.24284],[-98.02968,30.24239],[-98.02893,30.2413],[-98.02692,30.23979],[-98.0264,30.23865],[-98.02633,30.2375],[-98.02268,30.23566],[-98.0195,30.23659],[-98.014,30.23611],[-98.01292,30.23853],[-98.0118,30.23923],[-98.01083,30.24034],[-98.00954,30.23942],[-98.00731,30.23628],[-98.00475,30.23395],[-98.00166,30.23244],[-97.9999,30.23251],[-97.98259,30.22015],[-97.98273,30.22057],[-97.9832,30.22091],[-97.98238,30.22127],[-97.982,30.22199],[-97.9815,30.22231],[-97.98155,30.2228],[-97.98247,30.22329],[-97.98175,30.22424],[-97.98153,30.22529],[-97.98022,30.225],[-97.97943,30.22432],[-97.9779,30.22429],[-97.97619,30.2228],[-97.97393,30.22149],[-97.97291,30.21992],[-97.97151,30.22223],[-97.96725,30.2201],[-97.96317,30.22644],[-97.95911,30.2246],[-97.95704,30.22329],[-97.95591,30.22199],[-97.95932,30.21982],[-97.95882,30.21902],[-97.95677,30.2181],[-97.9548,30.21817],[-97.95406,30.21734],[-97.95323,30.2188],[-97.95257,30.21945],[-97.95222,30.2203],[-97.95307,30.22078],[-97.95331,30.22331],[-97.93812,30.2296],[-97.9358,30.23027],[-97.92598,30.23197],[-97.92957,30.22613],[-97.92486,30.22397],[-97.9241,30.22331],[-97.92345,30.22344],[-97.92312,30.22395],[-97.92178,30.22381],[-97.9209,30.22326],[-97.91837,30.22342],[-97.91867,30.22461],[-97.91966,30.22563],[-97.91977,30.22808],[-97.92063,30.22998],[-97.9205,30.23156],[-97.92137,30.23277],[-97.91108,30.2345],[-97.90852,30.23422],[-97.89421,30.22994],[-97.8883,30.2292],[-97.8926,30.222],[-97.88484,30.21853],[-97.88294,30.22145],[-97.88196,30.22099],[-97.88049,30.22282],[-97.87764,30.22145],[-97.87703,30.22245],[-97.87849,30.22318],[-97.87772,30.22439],[-97.87721,30.22439],[-97.87576,30.22351],[-97.87346,30.22255],[-97.87309,30.22258],[-97.87242,30.2234],[-97.87169,30.22376],[-97.87201,30.22425],[-97.87293,30.22387],[-97.87394,30.22429],[-97.87344,30.22512],[-97.87424,30.22543],[-97.8749,30.22462],[-97.87592,30.22533],[-97.87624,30.22476],[-97.87807,30.22515],[-97.8785,30.22547],[-97.87864,30.22572],[-97.87694,30.22639],[-97.87766,30.22752],[-97.87717,30.22833],[-97.87774,30.22874],[-97.87929,30.23078],[-97.8753,30.23317],[-97.87261,30.23394],[-97.87458,30.23422],[-97.87659,30.23517],[-97.87834,30.2371],[-97.88028,30.23988],[-97.88102,30.23948],[-97.88144,30.24017],[-97.88195,30.2404],[-97.88287,30.23901],[-97.88394,30.23976],[-97.88335,30.24082],[-97.88602,30.24243],[-97.88543,30.24344],[-97.88611,30.24347],[-97.88686,30.24417],[-97.88682,30.24482],[-97.88472,30.2446],[-97.88683,30.2462],[-97.89426,30.24989],[-97.89481,30.24911],[-97.8957,30.24842],[-97.89603,30.24768],[-97.89677,30.24774],[-97.89806,30.24925],[-97.89932,30.24974],[-97.89977,30.25063],[-97.90035,30.25103],[-97.90036,30.25138],[-97.90097,30.25164],[-97.90117,30.2521],[-97.90153,30.25212],[-97.90192,30.25295],[-97.90507,30.2528],[-97.90415,30.25426],[-97.90471,30.25487],[-97.90562,30.25452],[-97.90712,30.25511],[-97.90448,30.25721],[-97.90724,30.26013],[-97.90934,30.26736],[-97.91,30.26873],[-97.91279,30.27275],[-97.91648,30.27984],[-97.91689,30.28166],[-97.91662,30.2865],[-97.91763,30.28918],[-97.91847,30.28892],[-97.91877,30.28778],[-97.91934,30.28754],[-97.92031,30.28768],[-97.92181,30.28858],[-97.92288,30.28894],[-97.92486,30.28852],[-97.92603,30.28714],[-97.92582,30.28635],[-97.92481,30.28561],[-97.92462,30.28447],[-97.92479,30.28322],[-97.9258,30.28217],[-97.92619,30.28206],[-97.92924,30.28344],[-97.92913,30.28214],[-97.92724,30.28096],[-97.9306,30.27644],[-97.93071,30.2767],[-97.92961,30.27811],[-97.92961,30.27887],[-97.93187,30.28173],[-97.93371,30.28135],[-97.93253,30.27999],[-97.93229,30.27927],[-97.9324,30.27769],[-97.93269,30.27735],[-97.93361,30.2774],[-97.93563,30.27818],[-97.93956,30.28096],[-97.94047,30.28107],[-97.94209,30.28089],[-97.94317,30.27983],[-97.94284,30.27882],[-97.94228,30.27815],[-97.94191,30.27653],[-97.94211,30.27614],[-97.94368,30.27518],[-97.9459,30.27651],[-97.94751,30.27683],[-97.94992,30.2763],[-97.95187,30.27555],[-97.95226,30.27593],[-97.95432,30.27606],[-97.95513,30.27646],[-97.95737,30.27696],[-97.95965,30.276],[-97.96048,30.27507],[-97.96026,30.27341],[-97.9598,30.27293],[-97.95842,30.27255],[-97.95706,30.2718],[-97.9565,30.27092],[-97.95649,30.27033],[-97.95619,30.26992],[-97.95627,30.2695],[-97.95713,30.26918],[-97.95831,30.26921],[-97.95986,30.26954],[-97.9627,30.27091],[-97.9649,30.27117],[-97.96558,30.2705],[-97.96624,30.26844],[-97.96588,30.26679],[-97.96655,30.26542],[-97.96692,30.26524],[-97.96918,30.26473],[-97.97046,30.26549],[-97.97196,30.26747],[-97.97272,30.26916],[-97.97361,30.27004],[-97.97391,30.27114],[-97.97443,30.27188],[-97.97505,30.27234],[-97.97591,30.27245],[-97.97688,30.27204],[-97.97752,30.27068],[-97.97714,30.26813],[-97.97748,30.26691],[-97.97957,30.26498],[-97.98073,30.26518],[-97.98179,30.26585],[-97.98295,30.26739],[-97.98225,30.26999],[-97.98238,30.27164],[-97.98359,30.27293],[-97.98489,30.27342],[-97.9861,30.27229],[-97.98664,30.27135],[-97.98692,30.2707],[-97.98692,30.26926],[-97.98822,30.26745],[-97.99079,30.26712],[-97.99192,30.26823],[-97.99263,30.26739],[-97.99411,30.26781],[-97.99613,30.26605],[-97.99605,30.26511],[-97.99539,30.26421],[-97.99472,30.26382],[-97.99323,30.26364],[-97.99263,30.26334],[-97.99219,30.26297],[-97.99223,30.2621],[-97.99281,30.26165],[-97.99419,30.26136],[-97.99524,30.26186],[-97.99619,30.26198],[-97.99745,30.26154],[-97.99778,30.25992],[-97.99746,30.25879],[-97.99677,30.25786],[-97.99681,30.25746],[-97.99845,30.25623],[-97.9989,30.25538],[-98.00209,30.25519],[-98.00304,30.25483],[-98.0035,30.25413],[-98.0036,30.25329],[-98.00359,30.25254],[-98.00312,30.25184],[-98.00308,30.25117],[-98.00328,30.25095],[-98.00517,30.25009],[-98.0078,30.25009],[-98.00941,30.24962],[-98.0114,30.24862],[-98.01265,30.24955],[-98.01681,30.25006],[-98.01768,30.24997],[-98.01816,30.24944],[-98.01908,30.24943],[-98.01993,30.2488],[-98.02033,30.24985],[-98.02176,30.25018],[-98.02307,30.25245],[-98.02546,30.25386],[-98.02691,30.25143],[-98.02849,30.24759],[-98.02856,30.24605],[-98.02758,30.24592],[-98.02911,30.24491],[-98.0297,30.24284]]]},"properties":{"zip_code":"78736","county":"Travis"}}]}