{"type":"FeatureCollection","features":[{"type":"Feature","geometry":{"type":"Polygon","coordinates":[[[-98.03754,30.22908],[-98.03749,30.22854],[-98.03668,30.22705],[-98.03613,30.22739],[-98.03484,30.22717],[-98.03442,30.22756],[-98.03158,30.22632],[-98.03026,30.2262],[-98.0302,30.22598],[-98.0307,30.22546],[-98.0299,30.22477],[-98.03066,30.22447],[-98.03089,30.22397],[-98.03064,30.2238],[-98.03013,30.22222],[-98.02696,30.22226],[-98.02696,30.221],[-98.02655,30.22096],[-98.02489,30.21579],[-98.02432,30.21496],[-98.02286,30.21561],[-98.02247,30.21504],[-98.02371,30.21448],[-98.02296,30.21181],[-98.02262,30.21164],[-98.02252,30.21065],[-98.02132,30.21011],[-98.01949,30.20837],[-98.01781,30.20791],[-98.01727,30.2067],[-98.01634,30.20713],[-98.0155,30.20536],[-98.01522,30.20359],[-98.0142,30.20154],[-98.01277,30.19683],[-98.0049,30.19631],[-98.00027,30.19637],[-97.99739,30.19684],[-97.99731,30.19631],[-97.99788,30.19434],[-97.99723,30.19241],[-97.99753,30.19186],[-97.99991,30.1903],[-98.00035,30.18943],[-98.00064,30.18846],[-98.00073,30.18599],[-98.00188,30.18185],[-98.00229,30.17886],[-98.00298,30.17664],[-98.00448,30.17404],[-98.005,30.17224],[-98.00781,30.16859],[-98.00841,30.16692],[-98.00861,30.16041],[-98.00892,30.15756],[-98.00898,30.15507],[-98.00878,30.15347],[-97.99527,30.15375],[-97.99405,30.15296],[-97.99348,30.15105],[-97.99246,30.14993],[-97.99057,30.1488],[-97.98599,30.14685],[-97.98278,30.14808],[-97.97747,30.1506],[-97.97422,30.15122],[-97.97222,30.1523],[-97.97204,30.12839],[-97.95654,30.12851],[-97.95663,30.12081],[-97.91551,30.15487],[-97.9188,30.15783],[-97.91762,30.15794],[-97.91772,30.15848],[-97.91859,30.15919],[-97.91862,30.16312],[-97.91786,30.16526],[-97.9243,30.17281],[-97.92647,30.1727],[-97.92807,30.17304],[-97.92927,30.17451],[-97.92875,30.1784],[-97.92888,30.18571],[-97.9287,30.18693],[-97.92652,30.19067],[-97.92351,30.1945],[-97.91837,30.20244],[-97.91756,30.20317],[-97.91594,30.20377],[-97.914,30.20311],[-97.91511,30.20113],[-97.91437,30.1998],[-97.91397,30.1971],[-97.911,30.19561],[-97.90922,30.19568],[-97.90654,30.19686],[-97.90506,30.19897],[-97.90274,30.1977],[-97.90052,30.2011],[-97.89216,30.19702],[-97.8878,30.20389],[-97.88838,30.20478],[-97.88689,30.20537],[-97.88933,30.20861],[-97.89245,30.21172],[-97.89292,30.21246],[-97.89331,30.21386],[-97.89346,30.21676],[-97.89433,30.21829],[-97.89322,30.22106],[-97.8883,30.2292],[-97.89421,30.22994],[-97.90936,30.23444],[-97.91218,30.23441],[-97.92137,30.23277],[-97.9205,30.23156],[-97.92063,30.22998],[-97.91977,30.22808],[-97.91966,30.22563],[-97.91867,30.22461],[-97.91837,30.22342],[-97.9209,30.22326],[-97.92178,30.22381],[-97.92312,30.22395],[-97.92345,30.22344],[-97.9241,30.22331],[-97.92486,30.22397],[-97.92957,30.22613],[-97.92598,30.23197],[-97.9358,30.23027],[-97.93812,30.2296],[-97.95331,30.22331],[-97.95307,30.22078],[-97.95222,30.2203],[-97.95257,30.21945],[-97.95323,30.2188],[-97.95406,30.21734],[-97.9548,30.21817],[-97.95677,30.2181],[-97.95882,30.21902],[-97.95932,30.21982],[-97.95591,30.22199],[-97.95704,30.22329],[-97.95911,30.2246],[-97.96317,30.22644],[-97.96725,30.2201],[-97.97151,30.22223],[-97.97291,30.21992],[-97.97393,30.22149],[-97.97619,30.2228],[-97.9779,30.22429],[-97.97943,30.22432],[-97.98022,30.225],[-97.98153,30.22529],[-97.98175,30.22424],[-97.98247,30.22329],[-97.98155,30.2228],[-97.9815,30.22231],[-97.982,30.22199],[-97.98238,30.22127],[-97.9832,30.22091],[-97.98273,30.22057],[-97.98259,30.22015],[-97.9999,30.23251],[-98.00166,30.23244],[-98.00475,30.23395],[-98.00731,30.23628],[-98.00954,30.23942],[-98.01083,30.24034],[-98.0118,30.23923],[-98.01292,30.23853],[-98.014,30.23611],[-98.0195,30.23659],[-98.02268,30.23566],[-98.02363,30.23601],[-98.0246,30.23673],[-98.02655,30.23672],[-98.02797,30.2378],[-98.0284,30.23782],[-98.03256,30.23704],[-98.03316,30.23652],[-98.03336,30.23583],[-98.03241,30.23333],[-98.03266,30.23245],[-98.03408,30.23168],[-98.03513,30.23175],[-98.03563,30.23156],[-98.03701,30.23022],[-98.03754,30.22908]]]},"properties":{"zip_code":"78737","county":"Hays"}}]}