{"type":"FeatureCollection","features":[{"type":"Feature","geometry":{"type":"Polygon","coordinates":[[[-98.07471,30.29103],[-98.06819,30.28822],[-98.06482,30.2865],[-98.06288,30.28582],[-98.06131,30.28592],[-98.05721,30.28691],[-98.0518,30.28761],[-98.04973,30.28863],[-98.04946,30.28807],[-98.04791,30.28905],[-98.0462,30.28871],[-98.04395,30.28986],[-98.04196,30.28991],[-98.04162,30.28877],[-98.04101,30.28786],[-98.03984,30.2873],[-98.03843,30.28751],[-98.0372,30.28703],[-98.03674,30.2866],[-98.03642,30.28577],[-98.03711,30.28559],[-98.03801,30.28575],[-98.03835,30.2853],[-98.03897,30.2852],[-98.03887,30.28492],[-98.04025,30.28432],[-98.02657,30.26074],[-98.03067,30.25451],[-98.02671,30.25169],[-98.02546,30.25386],[-98.02307,30.25245],[-98.02176,30.25018],[-98.02033,30.24985],[-98.01997,30.24881],[-98.01908,30.24943],[-98.01816,30.24944],[-98.01768,30.24997],[-98.01681,30.25006],[-98.01265,30.24955],[-98.0114,30.24862],[-98.00941,30.24962],[-98.0078,30.25009],[-98.00517,30.25009],[-98.00316,30.25104],[-98.00314,30.25196],[-98.00359,30.25254],[-98.00361,30.25316],[-98.0035,30.25413],[-98.00304,30.25483],[-98.00209,30.25519],[-97.9989,30.25538],[-97.99845,30.25623],[-97.99681,30.25746],[-97.99677,30.25786],[-97.99746,30.25879],[-97.99778,30.25992],[-97.99745,30.26154],[-97.99619,30.26198],[-97.99524,30.26186],[-97.99419,30.26136],[-97.99281,30.26165],[-97.99223,30.2621],[-97.99219,30.26297],[-97.99263,30.26334],[-97.99323,30.26364],[-97.99472,30.26382],[-97.99539,30.26421],[-97.99605,30.26511],[-97.99613,30.26605],[-97.99411,30.26781],[-97.99263,30.26739],[-97.99192,30.26823],[-97.99079,30.26712],[-97.98822,30.26745],[-97.98692,30.26926],[-97.98692,30.2707],[-97.98664,30.27135],[-97.9861,30.27229],[-97.98489,30.27342],[-97.98359,30.27293],[-97.98238,30.27164],[-97.98225,30.26999],[-97.98295,30.26739],[-97.98205,30.26611],[-97.98118,30.26542],[-97.98006,30.26494],[-97.97957,30.26498],[-97.97748,30.26691],[-97.97714,30.26813],[-97.97752,30.27068],[-97.97688,30.27204],[-97.97573,30.27245],[-97.97458,30.27206],[-97.97391,30.27114],[-97.97361,30.27004],[-97.97272,30.26916],[-97.97147,30.26679],[-97.97046,30.26549],[-97.96912,30.26472],[-97.96664,30.26533],[-97.9663,30.2658],[-97.96587,30.26684],[-97.96621,30.26857],[-97.96555,30.27055],[-97.96487,30.27118],[-97.9627,30.27091],[-97.95923,30.2694],[-97.95722,30.26917],[-97.95633,30.26943],[-97.95619,30.26992],[-97.95696,30.2717],[-97.95785,30.27231],[-97.95989,30.27298],[-97.96046,30.27389],[-97.96049,30.275],[-97.96022,30.2755],[-97.95965,30.276],[-97.95768,30.2769],[-97.95513,30.27646],[-97.95432,30.27606],[-97.95246,30.27598],[-97.95187,30.27555],[-97.94845,30.2767],[-97.94682,30.27677],[-97.94531,30.27625],[-97.94368,30.27518],[-97.94211,30.27614],[-97.94191,30.27653],[-97.94231,30.27822],[-97.94321,30.27962],[-97.94223,30.28083],[-97.93962,30.28098],[-97.93585,30.27829],[-97.93361,30.2774],[-97.93274,30.27735],[-97.9324,30.27769],[-97.93229,30.27927],[-97.93253,30.27999],[-97.93371,30.28135],[-97.93187,30.28173],[-97.92961,30.27887],[-97.92961,30.27811],[-97.93071,30.2767],[-97.9306,30.27644],[-97.92724,30.28096],[-97.92913,30.28214],[-97.92924,30.28344],[-97.92619,30.28206],[-97.9258,30.28217],[-97.92479,30.28322],[-97.92462,30.28447],[-97.92481,30.28561],[-97.92582,30.28635],[-97.92603,30.28714],[-97.92486,30.28852],[-97.92288,30.28894],[-97.91973,30.28753],[-97.91887,30.28768],[-97.91852,30.28832],[-97.91848,30.28901],[-97.91883,30.28954],[-97.92102,30.29083],[-97.9224,30.29118],[-97.92384,30.29122],[-97.92648,30.29216],[-97.92695,30.29302],[-97.92695,30.29546],[-97.92677,30.29579],[-97.92569,30.29637],[-97.92465,30.29633],[-97.92407,30.29598],[-97.92306,30.29608],[-97.92027,30.29772],[-97.91921,30.29907],[-97.91918,30.30071],[-97.9185,30.30188],[-97.9174,30.3028],[-97.91568,30.30338],[-97.9127,30.30514],[-97.91131,30.30679],[-97.91005,30.30709],[-97.90927,30.30693],[-97.90866,30.30659],[-97.90713,30.30471],[-97.90682,30.30939],[-97.90887,30.30983],[-97.90894,30.31018],[-97.91075,30.31105],[-97.90951,30.3129],[-97.91067,30.31544],[-97.91043,30.31721],[-97.91079,30.31947],[-97.91169,30.32108],[-97.90738,30.32777],[-97.90835,30.33016],[-97.90909,30.32984],[-97.90941,30.33045],[-97.91124,30.32886],[-97.91759,30.3259],[-97.92066,30.32494],[-97.92068,30.32553],[-97.92259,30.32549],[-97.92256,30.32619],[-97.92469,30.326],[-97.93009,30.3285],[-97.93399,30.3314],[-97.93469,30.3357],[-97.93405,30.33645],[-97.93565,30.33687],[-97.93662,30.33655],[-97.93585,30.33777],[-97.93668,30.33916],[-97.93774,30.33957],[-97.93821,30.33949],[-97.9386,30.33881],[-97.9388,30.33748],[-97.93919,30.33748],[-97.94086,30.33927],[-97.94369,30.33944],[-97.94403,30.33977],[-97.94443,30.34088],[-97.9463,30.34229],[-97.94722,30.34261],[-97.94792,30.34224],[-97.94864,30.34227],[-97.95126,30.34413],[-97.95297,30.34316],[-97.95319,30.34275],[-97.95483,30.34248],[-97.95574,30.34319],[-97.95664,30.34288],[-97.95711,30.34233],[-97.95818,30.34205],[-97.95823,30.34128],[-97.95927,30.34047],[-97.95978,30.33969],[-97.96054,30.33959],[-97.96169,30.33894],[-97.96266,30.33707],[-97.96254,30.33564],[-97.96137,30.33396],[-97.96139,30.33321],[-97.96203,30.33248],[-97.96277,30.33215],[-97.96404,30.3324],[-97.96532,30.3321],[-97.96535,30.33186],[-97.96483,30.33137],[-97.96532,30.33077],[-97.9666,30.33005],[-97.96735,30.33112],[-97.96891,30.33454],[-97.97043,30.33436],[-97.97063,30.33641],[-97.97012,30.33775],[-97.97037,30.3388],[-97.96975,30.33881],[-97.96865,30.3409],[-97.9731,30.34337],[-97.97326,30.343],[-97.97308,30.34265],[-97.97355,30.34243],[-97.97398,30.34265],[-97.97487,30.34162],[-97.97462,30.33947],[-97.97535,30.33967],[-97.97529,30.33986],[-97.97569,30.3402],[-97.97821,30.34031],[-97.97705,30.34511],[-97.97682,30.34523],[-97.97717,30.34794],[-97.97688,30.35143],[-97.97873,30.35155],[-97.9798,30.35191],[-97.9795,30.35384],[-97.98013,30.35387],[-97.98256,30.35511],[-97.98256,30.35737],[-97.98639,30.35527],[-97.98722,30.35534],[-97.98865,30.35594],[-97.98955,30.35584],[-97.99022,30.35516],[-97.99188,30.35239],[-97.99339,30.35157],[-97.99394,30.35156],[-97.99577,30.35266],[-97.99626,30.35698],[-97.99675,30.3577],[-97.99746,30.35754],[-97.99756,30.3579],[-97.99941,30.35977],[-97.99911,30.36008],[-97.99948,30.36037],[-98.00108,30.35949],[-98.00147,30.3589],[-98.0014,30.35859],[-98.00041,30.35787],[-98.00055,30.3577],[-98.00196,30.35784],[-98.00259,30.3584],[-98.00322,30.35855],[-98.00227,30.35761],[-98.00179,30.35681],[-98.00173,30.35611],[-98.00251,30.35616],[-98.00271,30.35711],[-98.00328,30.35752],[-98.00395,30.35748],[-98.0045,30.35712],[-98.00475,30.35738],[-98.00451,30.3579],[-98.0054,30.35804],[-98.00607,30.35769],[-98.00502,30.35612],[-98.00487,30.35547],[-98.00519,30.35564],[-98.00545,30.35626],[-98.00843,30.35884],[-98.00806,30.36109],[-98.0087,30.36178],[-98.0084,30.3625],[-98.00852,30.36292],[-98.0089,30.36312],[-98.00995,30.36295],[-98.00997,30.36391],[-98.01021,30.36358],[-98.01078,30.36416],[-98.01055,30.36534],[-98.01117,30.36519],[-98.01167,30.36594],[-98.0136,30.36676],[-98.0142,30.36611],[-98.0148,30.36652],[-98.01563,30.36798],[-98.01635,30.36775],[-98.01711,30.36804],[-98.01755,30.36768],[-98.01759,30.3669],[-98.01858,30.36631],[-98.0182,30.36584],[-98.01812,30.36497],[-98.01902,30.36375],[-98.01913,30.36298],[-98.01868,30.36217],[-98.01911,30.3623],[-98.01985,30.36141],[-98.01929,30.36033],[-98.01898,30.35869],[-98.02012,30.35555],[-98.02061,30.35483],[-98.02035,30.35381],[-98.022,30.35161],[-98.02213,30.35084],[-98.02406,30.35075],[-98.02454,30.35094],[-98.02376,30.35097],[-98.0233,30.35125],[-98.0225,30.3525],[-98.02355,30.35319],[-98.02559,30.35392],[-98.02583,30.3537],[-98.02566,30.35407],[-98.02191,30.3538],[-98.02148,30.35586],[-98.02342,30.35592],[-98.02467,30.3557],[-98.02517,30.35611],[-98.02657,30.35618],[-98.02624,30.3559],[-98.02636,30.3546],[-98.02842,30.35551],[-98.03004,30.35444],[-98.02831,30.35302],[-98.02818,30.34986],[-98.02739,30.34458],[-98.02621,30.34294],[-98.02595,30.34291],[-98.02697,30.33948],[-98.02688,30.33869],[-98.02611,30.3379],[-98.0243,30.33733],[-98.02353,30.33614],[-98.02387,30.33454],[-98.02371,30.33323],[-98.02438,30.33162],[-98.02452,30.3315],[-98.02557,30.33235],[-98.02747,30.33322],[-98.02982,30.33501],[-98.03281,30.33664],[-98.03568,30.33883],[-98.03742,30.33723],[-98.04018,30.33692],[-98.0406,30.33627],[-98.04044,30.33554],[-98.04072,30.33494],[-98.04237,30.33507],[-98.0429,30.3349],[-98.04357,30.33368],[-98.04385,30.33039],[-98.0437,30.3296],[-98.04295,30.32846],[-98.0428,30.32696],[-98.04314,30.32666],[-98.04408,30.32655],[-98.04348,30.32579],[-98.04353,30.3255],[-98.04479,30.32602],[-98.04528,30.32573],[-98.04508,30.32489],[-98.04354,30.32254],[-98.04424,30.32239],[-98.04593,30.3228],[-98.04683,30.3226],[-98.04841,30.32081],[-98.05011,30.32022],[-98.05119,30.31918],[-98.05291,30.31805],[-98.05387,30.31674],[-98.05565,30.31612],[-98.05584,30.31572],[-98.05581,30.31422],[-98.05624,30.31381],[-98.0562,30.31282],[-98.05659,30.31257],[-98.0563,30.31083],[-98.05734,30.31022],[-98.05865,30.30865],[-98.05825,30.30699],[-98.05699,30.30631],[-98.05657,30.30551],[-98.05726,30.30431],[-98.05711,30.30284],[-98.05845,30.3018],[-98.05809,30.30073],[-98.06036,30.30044],[-98.06388,30.29934],[-98.06428,30.29837],[-98.06477,30.29801],[-98.06622,30.29799],[-98.06741,30.29754],[-98.06898,30.2976],[-98.06975,30.29713],[-98.07053,30.29727],[-98.07131,30.29666],[-98.07186,30.29654],[-98.07232,30.29573],[-98.07305,30.29537],[-98.07297,30.29458],[-98.07379,30.29336],[-98.07368,30.29307],[-98.07453,30.29259],[-98.07471,30.29103]]]},"properties":{"zip_code":"78738","county":"Travis"}}]}