{"type":"FeatureCollection","features":[{"type":"Feature","geometry":{"type":"Polygon","coordinates":[[[-97.80419,30.11903],[-97.80435,30.11863],[-97.79198,30.1128],[-97.78515,30.1129],[-97.78529,30.11277],[-97.78179,30.11265],[-97.75626,30.1004],[-97.74927,30.1115],[-97.74975,30.11199],[-97.74878,30.1135],[-97.74539,30.11192],[-97.74439,30.11425],[-97.73809,30.11227],[-97.73267,30.10969],[-97.73093,30.11194],[-97.72784,30.11029],[-97.7309,30.10558],[-97.72638,30.10292],[-97.73228,30.09359],[-97.72394,30.08909],[-97.72292,30.08885],[-97.71818,30.09625],[-97.7252,30.09959],[-97.72453,30.09995],[-97.72435,30.10057],[-97.72345,30.10164],[-97.72357,30.10201],[-97.72485,30.10289],[-97.72443,30.10302],[-97.72331,30.10242],[-97.72204,30.10101],[-97.71058,30.09548],[-97.71484,30.08884],[-97.71464,30.08853],[-97.71147,30.08844],[-97.71255,30.08709],[-97.7138,30.08631],[-97.71659,30.08536],[-97.71805,30.08513],[-97.72032,30.08374],[-97.72119,30.08266],[-97.72219,30.0823],[-97.72464,30.08342],[-97.72726,30.08423],[-97.72744,30.08513],[-97.7283,30.08594],[-97.72839,30.08656],[-97.72879,30.08712],[-97.72948,30.08757],[-97.72962,30.08724],[-97.73042,30.08733],[-97.73146,30.08684],[-97.73192,30.0859],[-97.73249,30.0861],[-97.73305,30.08602],[-97.73305,30.0856],[-97.73505,30.0856],[-97.73522,30.08396],[-97.73093,30.08206],[-97.72752,30.08125],[-97.72483,30.08117],[-97.71044,30.08245],[-97.69884,30.08083],[-97.69819,30.08031],[-97.6961,30.08048],[-97.69335,30.08107],[-97.69337,30.08194],[-97.69296,30.08207],[-97.69318,30.08963],[-97.68592,30.09637],[-97.69322,30.10323],[-97.69437,30.10203],[-97.69506,30.1154],[-97.69354,30.11579],[-97.69246,30.11678],[-97.69375,30.11745],[-97.6935,30.11867],[-97.69231,30.12065],[-97.69302,30.121],[-97.69079,30.12446],[-97.69521,30.12663],[-97.69383,30.12879],[-97.68939,30.12667],[-97.68898,30.12731],[-97.68806,30.12788],[-97.68697,30.129],[-97.68614,30.12915],[-97.68494,30.12897],[-97.68425,30.12957],[-97.67872,30.13829],[-97.68798,30.14268],[-97.68858,30.14271],[-97.69167,30.14184],[-97.69974,30.14559],[-97.70841,30.13188],[-97.70944,30.13238],[-97.70999,30.13151],[-97.70895,30.13102],[-97.71019,30.12898],[-97.71657,30.13211],[-97.71673,30.13245],[-97.71518,30.13502],[-97.71531,30.13542],[-97.71485,30.1352],[-97.71403,30.13651],[-97.71483,30.13692],[-97.71605,30.13577],[-97.7163,30.13588],[-97.7158,30.1367],[-97.71683,30.13715],[-97.71731,30.13635],[-97.71872,30.137],[-97.71813,30.13796],[-97.71844,30.13812],[-97.71827,30.13837],[-97.71942,30.13894],[-97.71753,30.142],[-97.71928,30.14281],[-97.72192,30.13855],[-97.72293,30.13976],[-97.72298,30.14044],[-97.72323,30.14057],[-97.72299,30.14103],[-97.72338,30.14197],[-97.72371,30.14244],[-97.72419,30.14247],[-97.72438,30.14294],[-97.7235,30.14388],[-97.72351,30.14534],[-97.7239,30.14591],[-97.72529,30.14657],[-97.72411,30.14845],[-97.73013,30.15134],[-97.72816,30.15438],[-97.73476,30.1575],[-97.73486,30.15797],[-97.73573,30.1585],[-97.73597,30.15894],[-97.73599,30.15978],[-97.73633,30.1606],[-97.73599,30.16214],[-97.73617,30.16264],[-97.74163,30.16555],[-97.74606,30.15849],[-97.7494,30.16013],[-97.74977,30.15956],[-97.75096,30.16017],[-97.75172,30.15886],[-97.7486,30.15729],[-97.74922,30.15621],[-97.75239,30.15783],[-97.7574,30.15877],[-97.75884,30.15846],[-97.75956,30.15784],[-97.76034,30.15617],[-97.76194,30.15655],[-97.76481,30.15189],[-97.77033,30.15328],[-97.77268,30.15411],[-97.77394,30.15512],[-97.77528,30.15746],[-97.77586,30.15768],[-97.77842,30.1574],[-97.77921,30.1571],[-97.7801,30.15635],[-97.78038,30.15504],[-97.78089,30.15512],[-97.78125,30.1546],[-97.7825,30.15427],[-97.78306,30.15511],[-97.78348,30.15511],[-97.78418,30.15575],[-97.78391,30.15621],[-97.78418,30.15666],[-97.78644,30.15594],[-97.78988,30.1575],[-97.79121,30.15291],[-97.7915,30.15282],[-97.79556,30.14092],[-97.80419,30.11903]]]},"properties":{"zip_code":"78747","county":"Travis"}}]}