{"type":"FeatureCollection","features":[{"type":"Feature","geometry":{"type":"Polygon","coordinates":[[[-97.86197,30.1463],[-97.86208,30.14599],[-97.86181,30.14613],[-97.86099,30.14566],[-97.86161,30.14473],[-97.86172,30.144],[-97.86095,30.14316],[-97.85973,30.14262],[-97.85859,30.14169],[-97.8574,30.14122],[-97.85544,30.14142],[-97.85296,30.14011],[-97.85022,30.13954],[-97.84969,30.13979],[-97.84962,30.14037],[-97.84931,30.14068],[-97.84814,30.14071],[-97.84725,30.14045],[-97.84661,30.14103],[-97.84749,30.14204],[-97.84694,30.14258],[-97.84699,30.14444],[-97.84627,30.14362],[-97.84542,30.14338],[-97.84391,30.14359],[-97.84367,30.14323],[-97.84378,30.1427],[-97.84265,30.1427],[-97.84067,30.14148],[-97.83779,30.14045],[-97.8314,30.14058],[-97.83161,30.13981],[-97.83063,30.13955],[-97.8303,30.14056],[-97.82364,30.14066],[-97.81889,30.14188],[-97.81334,30.14206],[-97.81118,30.14437],[-97.81042,30.1448],[-97.80966,30.14487],[-97.80156,30.14283],[-97.80356,30.13961],[-97.8038,30.13882],[-97.80659,30.13516],[-97.80708,30.13285],[-97.80772,30.13259],[-97.81041,30.13325],[-97.81093,30.13198],[-97.81187,30.13066],[-97.81249,30.12761],[-97.81174,30.12544],[-97.8114,30.10631],[-97.81345,30.10402],[-97.8146,30.10191],[-97.81616,30.10243],[-97.81775,30.1024],[-97.81828,30.10352],[-97.81763,30.10377],[-97.81768,30.10515],[-97.81869,30.10392],[-97.81931,30.10382],[-97.82077,30.1041],[-97.81325,30.09868],[-97.80734,30.1114],[-97.80435,30.11863],[-97.7952,30.14191],[-97.79246,30.14965],[-97.78926,30.16031],[-97.78795,30.16348],[-97.78594,30.16697],[-97.79096,30.16726],[-97.78964,30.17431],[-97.78877,30.17429],[-97.78528,30.17295],[-97.78198,30.1834],[-97.78486,30.18293],[-97.78623,30.18327],[-97.78899,30.18267],[-97.78948,30.18284],[-97.78973,30.18248],[-97.79119,30.18299],[-97.79119,30.18321],[-97.79264,30.18294],[-97.79305,30.18326],[-97.79267,30.18388],[-97.79301,30.18426],[-97.79437,30.18537],[-97.79519,30.18562],[-97.7981,30.18555],[-97.80049,30.1858],[-97.81206,30.1855],[-97.81371,30.18571],[-97.81527,30.18553],[-97.8174,30.18645],[-97.8186,30.18443],[-97.81958,30.18489],[-97.81843,30.18676],[-97.82067,30.18782],[-97.82095,30.18745],[-97.82291,30.18836],[-97.82257,30.18891],[-97.82535,30.19033],[-97.827,30.18778],[-97.83011,30.18929],[-97.83047,30.19004],[-97.83146,30.19005],[-97.84235,30.19534],[-97.85324,30.17824],[-97.85646,30.17867],[-97.85678,30.17817],[-97.85932,30.17846],[-97.85836,30.17712],[-97.85932,30.17574],[-97.85862,30.1755],[-97.85752,30.17578],[-97.85499,30.17541],[-97.85778,30.17109],[-97.8593,30.16998],[-97.86015,30.16846],[-97.86035,30.16742],[-97.85999,30.15541],[-97.85911,30.15572],[-97.85758,30.15386],[-97.85486,30.14848],[-97.85874,30.14719],[-97.85936,30.14743],[-97.86,30.1457],[-97.86197,30.1463]]]},"properties":{"zip_code":"78748","county":"Travis"}}]}