{"type":"FeatureCollection","features":[{"type":"Feature","geometry":{"type":"Polygon","coordinates":[[[-97.7915,30.15282],[-97.79121,30.15291],[-97.78988,30.1575],[-97.78644,30.15594],[-97.78418,30.15666],[-97.78391,30.15621],[-97.78418,30.15575],[-97.78348,30.15511],[-97.78306,30.15511],[-97.7825,30.15427],[-97.78125,30.1546],[-97.78089,30.15512],[-97.78038,30.15504],[-97.7801,30.15635],[-97.77921,30.1571],[-97.77623,30.15774],[-97.77528,30.15746],[-97.77394,30.15512],[-97.77268,30.15411],[-97.77033,30.15328],[-97.76481,30.15189],[-97.76194,30.15655],[-97.76034,30.15617],[-97.75956,30.15784],[-97.75884,30.15846],[-97.7574,30.15877],[-97.75239,30.15783],[-97.74922,30.15621],[-97.7486,30.15729],[-97.75172,30.15886],[-97.75096,30.16017],[-97.74977,30.15956],[-97.7494,30.16013],[-97.74606,30.15849],[-97.74163,30.16555],[-97.73617,30.16264],[-97.73599,30.16214],[-97.73633,30.1606],[-97.73599,30.15978],[-97.73597,30.15894],[-97.73573,30.1585],[-97.73486,30.15797],[-97.73476,30.1575],[-97.72816,30.15438],[-97.73013,30.15134],[-97.72411,30.14845],[-97.72529,30.14657],[-97.7239,30.14591],[-97.72351,30.14534],[-97.7235,30.14388],[-97.72438,30.14294],[-97.72419,30.14247],[-97.72371,30.14244],[-97.72338,30.14197],[-97.72299,30.14103],[-97.72323,30.14057],[-97.72298,30.14044],[-97.72293,30.13976],[-97.72192,30.13855],[-97.71928,30.14281],[-97.71753,30.142],[-97.71942,30.13894],[-97.71827,30.13837],[-97.71844,30.13812],[-97.71813,30.13796],[-97.71872,30.137],[-97.71731,30.13635],[-97.71683,30.13715],[-97.7158,30.1367],[-97.7163,30.13588],[-97.71605,30.13577],[-97.71483,30.13692],[-97.71403,30.13651],[-97.71485,30.1352],[-97.71531,30.13542],[-97.71518,30.13502],[-97.71673,30.13245],[-97.71657,30.13211],[-97.71019,30.12898],[-97.70895,30.13102],[-97.70999,30.13151],[-97.70944,30.13238],[-97.70841,30.13188],[-97.69974,30.14559],[-97.69673,30.14419],[-97.69696,30.14765],[-97.69667,30.15144],[-97.69626,30.15147],[-97.69265,30.15704],[-97.69386,30.15856],[-97.69348,30.15971],[-97.69424,30.15988],[-97.69299,30.16425],[-97.69276,30.16414],[-97.69007,30.17372],[-97.6892,30.17349],[-97.68866,30.17575],[-97.68922,30.17669],[-97.68889,30.17785],[-97.68812,30.17818],[-97.68669,30.1781],[-97.68512,30.1773],[-97.68404,30.17641],[-97.68459,30.17578],[-97.68434,30.17536],[-97.68154,30.17503],[-97.68264,30.17515],[-97.68271,30.17848],[-97.6876,30.18257],[-97.68752,30.18284],[-97.68775,30.183],[-97.68529,30.19185],[-97.68375,30.20163],[-97.68348,30.20511],[-97.6833,30.22195],[-97.68421,30.22165],[-97.69037,30.21792],[-97.68992,30.2169],[-97.69185,30.21596],[-97.69394,30.21446],[-97.69495,30.21318],[-97.69621,30.21345],[-97.69668,30.21287],[-97.69738,30.21294],[-97.69772,30.21256],[-97.6979,30.21293],[-97.69819,30.21298],[-97.69817,30.21248],[-97.69902,30.2126],[-97.69925,30.21201],[-97.69976,30.21224],[-97.70045,30.21173],[-97.70119,30.21186],[-97.70164,30.21167],[-97.70187,30.21199],[-97.70273,30.21214],[-97.70294,30.21189],[-97.70349,30.21215],[-97.70471,30.21176],[-97.70613,30.21184],[-97.70964,30.21072],[-97.71166,30.21081],[-97.71271,30.21154],[-97.71234,30.21234],[-97.71251,30.21243],[-97.73508,30.21535],[-97.73573,30.21421],[-97.74924,30.21522],[-97.74923,30.21557],[-97.75193,30.21561],[-97.7573,30.20707],[-97.77234,30.18815],[-97.78625,30.16698],[-97.78594,30.16697],[-97.78795,30.16348],[-97.78926,30.16031],[-97.7915,30.15282]]]},"properties":{"zip_code":"78744","county":"Travis"}}]}