{"type":"FeatureCollection","features":[{"type":"Feature","geometry":{"type":"Polygon","coordinates":[[[-97.69128,30.24518],[-97.69067,30.24282],[-97.68953,30.24145],[-97.68905,30.24186],[-97.68791,30.24035],[-97.68263,30.23123],[-97.68285,30.2304],[-97.68266,30.22997],[-97.679,30.22384],[-97.67653,30.22263],[-97.67661,30.22235],[-97.66892,30.21862],[-97.66658,30.22082],[-97.66878,30.22249],[-97.67031,30.22117],[-97.67108,30.22229],[-97.67118,30.22295],[-97.67223,30.22378],[-97.67287,30.22341],[-97.67337,30.22384],[-97.67264,30.22503],[-97.67393,30.22622],[-97.67322,30.22677],[-97.67191,30.22569],[-97.67109,30.22553],[-97.67003,30.22661],[-97.66852,30.22557],[-97.66686,30.22533],[-97.6659,30.22632],[-97.66585,30.22668],[-97.66637,30.22722],[-97.66627,30.22749],[-97.66588,30.22758],[-97.66355,30.22704],[-97.66355,30.22679],[-97.66169,30.22526],[-97.65849,30.22829],[-97.65918,30.22681],[-97.65878,30.22491],[-97.65743,30.22136],[-97.655,30.2179],[-97.65405,30.21823],[-97.65701,30.22162],[-97.65867,30.22613],[-97.65862,30.22738],[-97.65768,30.22871],[-97.65546,30.23059],[-97.65357,30.23304],[-97.65167,30.23378],[-97.65046,30.23461],[-97.65014,30.23523],[-97.64774,30.23641],[-97.64552,30.23655],[-97.64202,30.23765],[-97.63615,30.23883],[-97.63315,30.2399],[-97.63262,30.24089],[-97.63044,30.24268],[-97.62663,30.24832],[-97.6259,30.24983],[-97.62579,30.25233],[-97.62623,30.25511],[-97.62863,30.256],[-97.63186,30.25569],[-97.63503,30.25584],[-97.6387,30.25652],[-97.64025,30.25644],[-97.64126,30.25679],[-97.6417,30.25756],[-97.64165,30.259],[-97.64141,30.2596],[-97.64155,30.26115],[-97.64182,30.26184],[-97.64272,30.26252],[-97.6457,30.26327],[-97.64771,30.2631],[-97.6499,30.26245],[-97.65339,30.26216],[-97.65653,30.26229],[-97.65817,30.26206],[-97.65936,30.26133],[-97.66157,30.26094],[-97.66193,30.26042],[-97.66791,30.25662],[-97.66923,30.2561],[-97.67127,30.25477],[-97.67167,30.25431],[-97.67162,30.25298],[-97.67273,30.25126],[-97.67598,30.24883],[-97.68246,30.24629],[-97.68787,30.24581],[-97.68915,30.24598],[-97.69001,30.24566],[-97.69029,30.24579],[-97.69128,30.24518]]]},"properties":{"zip_code":"78742","county":"Travis"}}]}