{"type":"FeatureCollection","features":[{"type":"Feature","geometry":{"type":"Polygon","coordinates":[[[-97.8691,30.31239],[-97.86927,30.31204],[-97.86837,30.31032],[-97.86866,30.3087],[-97.86832,30.30674],[-97.86769,30.30677],[-97.86642,30.30622],[-97.86485,30.30409],[-97.86433,30.30296],[-97.86412,30.30168],[-97.86451,30.29996],[-97.86251,30.29707],[-97.86184,30.29682],[-97.86088,30.29683],[-97.86007,30.29707],[-97.85877,30.29806],[-97.85785,30.30023],[-97.85767,30.3031],[-97.85716,30.30449],[-97.85614,30.30499],[-97.85505,30.30489],[-97.85353,30.30412],[-97.85292,30.30289],[-97.85315,30.30213],[-97.85266,30.30009],[-97.8526,30.29792],[-97.85183,30.29604],[-97.8516,30.29396],[-97.8511,30.29325],[-97.85101,30.29232],[-97.85068,30.2919],[-97.85001,30.29149],[-97.84718,30.29107],[-97.84557,30.29194],[-97.8448,30.29284],[-97.84314,30.29262],[-97.84299,30.29175],[-97.84333,30.29042],[-97.8447,30.28919],[-97.84682,30.28819],[-97.84785,30.2872],[-97.85067,30.28561],[-97.8521,30.2841],[-97.85254,30.28292],[-97.85238,30.28191],[-97.85183,30.28166],[-97.85112,30.28064],[-97.84973,30.27944],[-97.84845,30.27918],[-97.84757,30.2785],[-97.84641,30.27725],[-97.84596,30.27574],[-97.84538,30.27535],[-97.84433,30.27356],[-97.84365,30.27306],[-97.84225,30.27361],[-97.8415,30.27446],[-97.83987,30.27563],[-97.83801,30.27555],[-97.83412,30.27403],[-97.8314,30.2711],[-97.83119,30.27045],[-97.83071,30.27001],[-97.82613,30.26998],[-97.82496,30.26969],[-97.82391,30.26792],[-97.82301,30.2645],[-97.82308,30.26314],[-97.82361,30.26191],[-97.82363,30.26056],[-97.82259,30.25783],[-97.82179,30.2566],[-97.81917,30.25453],[-97.81559,30.25302],[-97.81366,30.2515],[-97.81239,30.24708],[-97.81097,30.24433],[-97.81066,30.24259],[-97.81087,30.24077],[-97.81013,30.23961],[-97.80942,30.23958],[-97.80877,30.2399],[-97.80587,30.24292],[-97.80303,30.24447],[-97.80094,30.24525],[-97.79849,30.24518],[-97.79718,30.24484],[-97.79558,30.24388],[-97.79338,30.2431],[-97.79226,30.24185],[-97.78986,30.2421],[-97.78894,30.2432],[-97.7887,30.24446],[-97.7889,30.2456],[-97.78948,30.2464],[-97.79217,30.24783],[-97.79348,30.24804],[-97.79602,30.24767],[-97.79668,30.24815],[-97.79677,30.24875],[-97.79614,30.25259],[-97.79572,30.25343],[-97.79453,30.25407],[-97.79089,30.25519],[-97.78517,30.25751],[-97.78458,30.2581],[-97.78419,30.25928],[-97.78555,30.26039],[-97.78501,30.26099],[-97.78371,30.26159],[-97.7824,30.26178],[-97.78088,30.26255],[-97.7796,30.26288],[-97.77811,30.26284],[-97.77544,30.26356],[-97.77151,30.2636],[-97.76934,30.2641],[-97.76761,30.2641],[-97.76592,30.26467],[-97.76066,30.26753],[-97.76671,30.26989],[-97.76968,30.27162],[-97.77278,30.27489],[-97.77666,30.27754],[-97.78035,30.2805],[-97.78427,30.28431],[-97.78534,30.28615],[-97.7856,30.28819],[-97.78553,30.28981],[-97.78592,30.29092],[-97.78588,30.29166],[-97.78526,30.29316],[-97.78557,30.2936],[-97.78598,30.29738],[-97.78387,30.30064],[-97.7805,30.30444],[-97.77787,30.30835],[-97.77588,30.31361],[-97.77566,30.31803],[-97.77612,30.32092],[-97.77607,30.32218],[-97.7765,30.32384],[-97.77975,30.33054],[-97.78105,30.33223],[-97.78623,30.34092],[-97.7883,30.34356],[-97.7915,30.34628],[-97.79674,30.34995],[-97.80009,30.35159],[-97.80238,30.35217],[-97.80407,30.35228],[-97.80569,30.35202],[-97.80694,30.3515],[-97.80951,30.34915],[-97.81244,30.34414],[-97.81425,30.34182],[-97.8246,30.33011],[-97.83064,30.32523],[-97.83137,30.32496],[-97.83588,30.32392],[-97.83859,30.32401],[-97.84072,30.32471],[-97.84267,30.32622],[-97.84403,30.32951],[-97.84436,30.33091],[-97.84445,30.33625],[-97.84519,30.3404],[-97.84617,30.34034],[-97.84501,30.32945],[-97.84458,30.32808],[-97.84268,30.3252],[-97.8438,30.32467],[-97.84407,30.32439],[-97.84404,30.32405],[-97.84215,30.32177],[-97.84135,30.32003],[-97.84149,30.31881],[-97.84261,30.31789],[-97.84302,30.31719],[-97.8436,30.31373],[-97.8453,30.31172],[-97.84559,30.31012],[-97.84834,30.31059],[-97.85105,30.31266],[-97.85843,30.31578],[-97.86076,30.31766],[-97.86256,30.31826],[-97.86697,30.31758],[-97.86666,30.31699],[-97.86711,30.31653],[-97.86828,30.31369],[-97.86884,30.314],[-97.8691,30.31239]]]},"properties":{"zip_code":"78746","county":"Travis"}}]}