{"type":"FeatureCollection","features":[{"type":"Feature","geometry":{"type":"Polygon","coordinates":[[[-97.75193,30.21561],[-97.74923,30.21557],[-97.74924,30.21522],[-97.73573,30.21421],[-97.73508,30.21535],[-97.71251,30.21243],[-97.71234,30.21234],[-97.71271,30.21154],[-97.71166,30.21081],[-97.70964,30.21072],[-97.70613,30.21184],[-97.70471,30.21176],[-97.70349,30.21215],[-97.70294,30.21189],[-97.70273,30.21214],[-97.70187,30.21199],[-97.70164,30.21167],[-97.70119,30.21186],[-97.70045,30.21173],[-97.69976,30.21224],[-97.69925,30.21201],[-97.69902,30.2126],[-97.69817,30.21248],[-97.69819,30.21298],[-97.6979,30.21293],[-97.69772,30.21256],[-97.69738,30.21294],[-97.69668,30.21287],[-97.69621,30.21345],[-97.69495,30.21318],[-97.69394,30.21446],[-97.69185,30.21596],[-97.68992,30.2169],[-97.69037,30.21792],[-97.68421,30.22165],[-97.6833,30.22195],[-97.68329,30.22244],[-97.68136,30.22299],[-97.67927,30.22318],[-97.67768,30.22289],[-97.67661,30.22235],[-97.67647,30.22251],[-97.6793,30.22415],[-97.68281,30.23027],[-97.68263,30.23123],[-97.68791,30.24035],[-97.68905,30.24186],[-97.68953,30.24145],[-97.69067,30.24282],[-97.69128,30.24518],[-97.69348,30.24541],[-97.69498,30.24531],[-97.69838,30.24631],[-97.69958,30.24691],[-97.70048,30.24871],[-97.70188,30.2502],[-97.70528,30.25061],[-97.71351,30.25043],[-97.71594,30.24982],[-97.71786,30.24861],[-97.7226,30.24681],[-97.72376,30.2466],[-97.72978,30.24811],[-97.7343,30.25016],[-97.73599,30.25061],[-97.73503,30.24586],[-97.73504,30.24496],[-97.73547,30.24356],[-97.74745,30.2233],[-97.74391,30.21963],[-97.74376,30.2187],[-97.74397,30.21633],[-97.75129,30.21657],[-97.75193,30.21561]]]},"properties":{"zip_code":"78741","county":"Travis"}}]}