{"type":"FeatureCollection","features":[{"type":"Feature","geometry":{"type":"Polygon","coordinates":[[[-97.89433,30.21829],[-97.89346,30.21676],[-97.89331,30.21386],[-97.89292,30.21246],[-97.89245,30.21172],[-97.88933,30.20861],[-97.88689,30.20537],[-97.88838,30.20478],[-97.8878,30.20389],[-97.88879,30.20238],[-97.88791,30.20245],[-97.88591,30.20097],[-97.88337,30.19997],[-97.88273,30.19916],[-97.88177,30.1967],[-97.88129,30.19638],[-97.88032,30.19657],[-97.87983,30.19605],[-97.87934,30.19598],[-97.87572,30.198],[-97.87474,30.19809],[-97.87383,30.19786],[-97.86968,30.19588],[-97.86762,30.19589],[-97.86592,30.19506],[-97.86552,30.19464],[-97.86574,30.19337],[-97.86621,30.19247],[-97.866,30.19084],[-97.86491,30.19025],[-97.86367,30.19061],[-97.86258,30.19047],[-97.86078,30.18826],[-97.86128,30.18691],[-97.86217,30.1859],[-97.86296,30.18546],[-97.86288,30.18504],[-97.86387,30.18369],[-97.86385,30.18306],[-97.86332,30.18178],[-97.86182,30.18023],[-97.86138,30.18014],[-97.8595,30.17866],[-97.8584,30.17738],[-97.85932,30.17846],[-97.85678,30.17817],[-97.85646,30.17867],[-97.85324,30.17824],[-97.84235,30.19534],[-97.84467,30.19634],[-97.84739,30.19642],[-97.84905,30.19726],[-97.8488,30.19774],[-97.84528,30.20216],[-97.84432,30.20169],[-97.84355,30.20188],[-97.84311,30.20104],[-97.84128,30.20023],[-97.84052,30.20174],[-97.83883,30.20086],[-97.8372,30.20344],[-97.83778,30.20411],[-97.83693,30.20552],[-97.83689,30.20602],[-97.83592,30.20556],[-97.83356,30.20934],[-97.83199,30.21139],[-97.83288,30.21157],[-97.8342,30.21127],[-97.83306,30.21298],[-97.83228,30.21343],[-97.83109,30.21282],[-97.82527,30.22216],[-97.82795,30.22326],[-97.82767,30.22374],[-97.82823,30.224],[-97.82854,30.22351],[-97.82906,30.22372],[-97.8286,30.22446],[-97.82813,30.22439],[-97.82477,30.22987],[-97.82352,30.22927],[-97.82057,30.23377],[-97.82554,30.23598],[-97.82788,30.23657],[-97.84046,30.23679],[-97.84619,30.23639],[-97.8457,30.2338],[-97.85147,30.23425],[-97.85218,30.23445],[-97.85211,30.2352],[-97.85808,30.23496],[-97.85968,30.23535],[-97.86064,30.2353],[-97.86478,30.23406],[-97.86603,30.23389],[-97.8675,30.23408],[-97.87322,30.23386],[-97.87572,30.23297],[-97.87929,30.23078],[-97.87774,30.22874],[-97.87717,30.22833],[-97.87766,30.22752],[-97.87694,30.22639],[-97.87864,30.22572],[-97.8785,30.22547],[-97.87807,30.22515],[-97.87624,30.22476],[-97.87592,30.22533],[-97.8749,30.22462],[-97.87424,30.22543],[-97.87344,30.22512],[-97.87394,30.22429],[-97.87293,30.22387],[-97.87201,30.22425],[-97.87169,30.22376],[-97.87242,30.2234],[-97.87309,30.22258],[-97.87396,30.2227],[-97.87721,30.22439],[-97.87772,30.22439],[-97.87849,30.22318],[-97.87703,30.22245],[-97.87764,30.22145],[-97.88049,30.22282],[-97.88196,30.22099],[-97.88294,30.22145],[-97.88484,30.21853],[-97.8926,30.222],[-97.89322,30.22106],[-97.89433,30.21829]]]},"properties":{"zip_code":"78749","county":"Travis"}}]}