{"type":"FeatureCollection","features":[{"type":"Feature","geometry":{"type":"Polygon","coordinates":[[[-97.8488,30.19774],[-97.84905,30.19726],[-97.84739,30.19642],[-97.84467,30.19634],[-97.84366,30.19601],[-97.83287,30.19068],[-97.83146,30.19005],[-97.83047,30.19004],[-97.83011,30.18929],[-97.827,30.18778],[-97.82535,30.19033],[-97.82257,30.18891],[-97.82291,30.18836],[-97.82095,30.18745],[-97.82067,30.18782],[-97.81843,30.18676],[-97.81958,30.18489],[-97.8186,30.18443],[-97.8174,30.18645],[-97.81527,30.18553],[-97.81371,30.18571],[-97.81206,30.1855],[-97.80049,30.1858],[-97.7981,30.18555],[-97.79519,30.18562],[-97.79437,30.18537],[-97.79301,30.18426],[-97.79267,30.18388],[-97.79305,30.18326],[-97.79264,30.18294],[-97.79119,30.18321],[-97.79119,30.18299],[-97.78973,30.18248],[-97.78948,30.18284],[-97.78899,30.18267],[-97.78623,30.18327],[-97.78486,30.18293],[-97.78198,30.1834],[-97.78528,30.17295],[-97.78877,30.17429],[-97.78964,30.17431],[-97.79096,30.16726],[-97.78625,30.16698],[-97.77234,30.18815],[-97.7573,30.20707],[-97.75193,30.21561],[-97.75293,30.2159],[-97.75399,30.21659],[-97.75412,30.21623],[-97.76969,30.22368],[-97.76883,30.22507],[-97.76999,30.22567],[-97.76947,30.22652],[-97.77071,30.22708],[-97.77296,30.22761],[-97.77949,30.22768],[-97.78017,30.22659],[-97.7816,30.22714],[-97.7814,30.22747],[-97.78465,30.22782],[-97.78616,30.22848],[-97.7861,30.22885],[-97.78834,30.2299],[-97.78852,30.22964],[-97.79002,30.23035],[-97.79087,30.22899],[-97.7928,30.22991],[-97.79196,30.23127],[-97.79621,30.23334],[-97.7969,30.23387],[-97.79656,30.23404],[-97.79791,30.23552],[-97.80249,30.24469],[-97.80597,30.24285],[-97.80814,30.24046],[-97.80723,30.23997],[-97.80821,30.2385],[-97.80575,30.23749],[-97.80729,30.23561],[-97.80704,30.23524],[-97.80607,30.23526],[-97.80625,30.23349],[-97.80673,30.23274],[-97.8052,30.2324],[-97.80291,30.23252],[-97.80353,30.23148],[-97.80637,30.23139],[-97.81151,30.23301],[-97.81842,30.23264],[-97.81833,30.23327],[-97.81938,30.23335],[-97.82057,30.23377],[-97.82352,30.22927],[-97.82477,30.22987],[-97.82813,30.22439],[-97.8286,30.22446],[-97.82906,30.22372],[-97.82854,30.22351],[-97.82823,30.224],[-97.82767,30.22374],[-97.82795,30.22326],[-97.82527,30.22216],[-97.83109,30.21282],[-97.83228,30.21343],[-97.83306,30.21298],[-97.8342,30.21127],[-97.83288,30.21157],[-97.83199,30.21139],[-97.83356,30.20934],[-97.83592,30.20556],[-97.83689,30.20602],[-97.83693,30.20552],[-97.83778,30.20411],[-97.8372,30.20344],[-97.83883,30.20086],[-97.84052,30.20174],[-97.84128,30.20023],[-97.84311,30.20104],[-97.84355,30.20188],[-97.84432,30.20169],[-97.84528,30.20216],[-97.8488,30.19774]]]},"properties":{"zip_code":"78745","county":"Travis"}}]}