{"type":"FeatureCollection","features":[{"type":"Feature","geometry":{"type":"Polygon","coordinates":[[[-97.7276,30.32853],[-97.72688,30.32638],[-97.72604,30.32572],[-97.72539,30.32463],[-97.72456,30.32392],[-97.72273,30.32311],[-97.71956,30.32242],[-97.71537,30.32042],[-97.71462,30.32031],[-97.71258,30.32046],[-97.70714,30.32213],[-97.70565,30.32235],[-97.69539,30.32147],[-97.69505,30.32187],[-97.69849,30.32221],[-97.69807,30.32404],[-97.69723,30.32395],[-97.69525,30.32445],[-97.69364,30.32399],[-97.69414,30.32295],[-97.69206,30.32194],[-97.68915,30.32213],[-97.68908,30.32149],[-97.68488,30.32186],[-97.68429,30.32197],[-97.68454,30.32206],[-97.68457,30.32301],[-97.68348,30.32305],[-97.6825,30.32451],[-97.68126,30.32418],[-97.68089,30.3232],[-97.67323,30.32572],[-97.67596,30.32763],[-97.67889,30.32922],[-97.67879,30.32946],[-97.67829,30.32925],[-97.67583,30.33319],[-97.67741,30.3341],[-97.6769,30.33469],[-97.67707,30.3352],[-97.67725,30.33483],[-97.6782,30.33419],[-97.67823,30.3336],[-97.67929,30.33253],[-97.67998,30.33241],[-97.68015,30.33347],[-97.6855,30.33284],[-97.68605,30.33311],[-97.68622,30.33284],[-97.69318,30.33604],[-97.69227,30.33752],[-97.69256,30.33852],[-97.69441,30.33799],[-97.69531,30.33707],[-97.70055,30.33957],[-97.69858,30.3422],[-97.70123,30.34358],[-97.70199,30.34269],[-97.70265,30.3435],[-97.70362,30.3428],[-97.70665,30.34503],[-97.70571,30.34639],[-97.70834,30.34753],[-97.70916,30.34639],[-97.71105,30.34712],[-97.71195,30.34775],[-97.7121,30.34749],[-97.71244,30.34781],[-97.71735,30.34016],[-97.71882,30.34091],[-97.71879,30.34109],[-97.72055,30.34082],[-97.72192,30.34719],[-97.72251,30.34711],[-97.72164,30.34267],[-97.72269,30.3409],[-97.72099,30.3403],[-97.7209,30.33975],[-97.72156,30.33952],[-97.72176,30.33907],[-97.7215,30.33765],[-97.71955,30.3367],[-97.72371,30.33012],[-97.72483,30.33067],[-97.72548,30.32963],[-97.72612,30.32988],[-97.72704,30.32871],[-97.72741,30.32889],[-97.7276,30.32853]]]},"properties":{"zip_code":"78752","county":"Travis"}}]}