{"type":"FeatureCollection","features":[{"type":"Feature","geometry":{"type":"Polygon","coordinates":[[[-97.83903,30.39225],[-97.83519,30.39208],[-97.83499,30.39302],[-97.83423,30.39403],[-97.83111,30.39494],[-97.83037,30.39329],[-97.83094,30.39181],[-97.82731,30.38982],[-97.81825,30.38342],[-97.81798,30.38558],[-97.81028,30.3852],[-97.80768,30.38926],[-97.80717,30.38817],[-97.8071,30.38661],[-97.80594,30.38617],[-97.80549,30.38527],[-97.80406,30.38449],[-97.80441,30.38336],[-97.80376,30.38253],[-97.80359,30.37971],[-97.80437,30.3779],[-97.80466,30.37651],[-97.80459,30.37553],[-97.80406,30.37466],[-97.80428,30.37366],[-97.80306,30.37102],[-97.80082,30.36806],[-97.79751,30.36585],[-97.79555,30.36298],[-97.79298,30.3601],[-97.79226,30.35955],[-97.79135,30.35929],[-97.79053,30.36186],[-97.78988,30.36713],[-97.78943,30.36815],[-97.79084,30.36892],[-97.79032,30.36967],[-97.79496,30.37191],[-97.79444,30.37269],[-97.78815,30.36975],[-97.78467,30.37266],[-97.78445,30.37545],[-97.78413,30.37699],[-97.78369,30.37763],[-97.7816,30.3788],[-97.78062,30.37892],[-97.77827,30.37806],[-97.7745,30.38118],[-97.77141,30.38276],[-97.77156,30.38324],[-97.77131,30.38449],[-97.77157,30.3858],[-97.77323,30.38709],[-97.77393,30.3885],[-97.77419,30.38973],[-97.7748,30.39029],[-97.77771,30.38942],[-97.7784,30.3897],[-97.7788,30.38924],[-97.78344,30.39144],[-97.78266,30.39273],[-97.78107,30.39192],[-97.78055,30.39276],[-97.78163,30.39329],[-97.7801,30.39396],[-97.77997,30.39432],[-97.77936,30.39403],[-97.77895,30.39415],[-97.77894,30.3946],[-97.77929,30.39485],[-97.78052,30.39525],[-97.78217,30.39622],[-97.78294,30.39623],[-97.78311,30.3965],[-97.78363,30.39657],[-97.78528,30.39627],[-97.78864,30.39445],[-97.7889,30.39408],[-97.81167,30.40499],[-97.80405,30.41712],[-97.80648,30.41767],[-97.80575,30.41877],[-97.80345,30.41781],[-97.80205,30.41774],[-97.80005,30.41844],[-97.79879,30.41858],[-97.79656,30.41961],[-97.79379,30.42007],[-97.79381,30.42099],[-97.79455,30.42184],[-97.7931,30.42278],[-97.79087,30.42325],[-97.78818,30.42246],[-97.78606,30.42284],[-97.78544,30.42328],[-97.78496,30.42405],[-97.78515,30.42598],[-97.78471,30.42709],[-97.78327,30.42815],[-97.78182,30.42982],[-97.77931,30.43134],[-97.77829,30.43163],[-97.7784,30.43241],[-97.77922,30.43419],[-97.77809,30.4345],[-97.77833,30.43491],[-97.77635,30.4356],[-97.77552,30.43682],[-97.77013,30.43408],[-97.76921,30.43456],[-97.7758,30.43774],[-97.77904,30.43979],[-97.77788,30.4404],[-97.77839,30.44172],[-97.77515,30.44273],[-97.77757,30.44433],[-97.77904,30.44384],[-97.77886,30.44334],[-97.77991,30.443],[-97.78018,30.44332],[-97.78188,30.44204],[-97.78245,30.44267],[-97.7831,30.44238],[-97.78408,30.44302],[-97.78143,30.44496],[-97.78141,30.44555],[-97.7801,30.44653],[-97.78523,30.45036],[-97.79067,30.44873],[-97.79199,30.45548],[-97.79283,30.45781],[-97.79217,30.45802],[-97.79636,30.46835],[-97.81062,30.46389],[-97.8117,30.46647],[-97.81433,30.46563],[-97.81371,30.46418],[-97.81585,30.46354],[-97.8156,30.46293],[-97.81623,30.46267],[-97.81603,30.46224],[-97.82,30.46091],[-97.82259,30.46276],[-97.82124,30.46173],[-97.82419,30.45887],[-97.82323,30.45817],[-97.82562,30.456],[-97.82606,30.45585],[-97.82398,30.45429],[-97.81988,30.45035],[-97.81798,30.4502],[-97.81527,30.44918],[-97.81339,30.44723],[-97.81223,30.44689],[-97.81438,30.44359],[-97.81447,30.44266],[-97.81507,30.44187],[-97.81565,30.44242],[-97.81632,30.44153],[-97.81679,30.44152],[-97.81775,30.4429],[-97.81851,30.44348],[-97.81878,30.44271],[-97.81825,30.44225],[-97.81756,30.44073],[-97.81628,30.44003],[-97.81511,30.43878],[-97.81413,30.43683],[-97.81398,30.43467],[-97.8145,30.43336],[-97.81412,30.4323],[-97.81481,30.43135],[-97.81576,30.43113],[-97.81595,30.4304],[-97.81577,30.43007],[-97.81462,30.4295],[-97.81455,30.42864],[-97.81504,30.42811],[-97.81478,30.42742],[-97.81405,30.42673],[-97.81466,30.4254],[-97.81468,30.42458],[-97.81358,30.4229],[-97.81144,30.42209],[-97.80964,30.42225],[-97.80915,30.42172],[-97.8087,30.42177],[-97.80789,30.42129],[-97.80792,30.41975],[-97.80807,30.4191],[-97.80875,30.41891],[-97.81084,30.41936],[-97.81445,30.41864],[-97.81756,30.4165],[-97.82006,30.41594],[-97.82111,30.41535],[-97.82262,30.41298],[-97.8224,30.41232],[-97.82254,30.41163],[-97.82345,30.41017],[-97.82319,30.4093],[-97.82327,30.40776],[-97.82399,30.40645],[-97.8248,30.4057],[-97.82619,30.40505],[-97.82624,30.40425],[-97.82712,30.40392],[-97.82737,30.40355],[-97.82926,30.40282],[-97.83045,30.40198],[-97.83139,30.40198],[-97.83192,30.40107],[-97.83193,30.40031],[-97.83262,30.39912],[-97.83284,30.39824],[-97.83438,30.39683],[-97.8366,30.39585],[-97.83673,30.39479],[-97.83773,30.39418],[-97.8389,30.39272],[-97.83903,30.39225]]]},"properties":{"zip_code":"78750","county":"Travis"}}]}