{"type":"FeatureCollection","features":[{"type":"Feature","geometry":{"type":"Polygon","coordinates":[[[-97.7373,30.30407],[-97.73764,30.30349],[-97.73584,30.3026],[-97.73607,30.30223],[-97.73569,30.30203],[-97.7353,30.30225],[-97.73424,30.30175],[-97.73446,30.30144],[-97.73364,30.30106],[-97.73395,30.30072],[-97.72341,30.29564],[-97.72329,30.29579],[-97.72293,30.29562],[-97.72272,30.29596],[-97.72083,30.29505],[-97.72104,30.29473],[-97.72013,30.29428],[-97.71023,30.30992],[-97.70868,30.31285],[-97.70771,30.3162],[-97.70686,30.3222],[-97.71258,30.32046],[-97.71537,30.32042],[-97.71956,30.32242],[-97.72383,30.3235],[-97.72518,30.32441],[-97.72633,30.32596],[-97.72662,30.3255],[-97.72698,30.32567],[-97.7272,30.32535],[-97.72819,30.32582],[-97.72898,30.32453],[-97.72843,30.32424],[-97.72885,30.32358],[-97.72981,30.32403],[-97.73118,30.32194],[-97.73187,30.32226],[-97.73354,30.31942],[-97.73113,30.31826],[-97.73218,30.3167],[-97.73582,30.31535],[-97.73757,30.31346],[-97.73298,30.31084],[-97.7373,30.30407]]]},"properties":{"zip_code":"78751","county":"Travis"}}]}