{"type":"FeatureCollection","features":[{"type":"Feature","geometry":{"type":"Polygon","coordinates":[[[-97.68645,30.34055],[-97.68727,30.33926],[-97.68332,30.33734],[-97.68605,30.33311],[-97.6855,30.33284],[-97.68015,30.33347],[-97.67998,30.33241],[-97.67943,30.3325],[-97.67863,30.33305],[-97.67819,30.3337],[-97.6782,30.33419],[-97.67725,30.33483],[-97.67707,30.3352],[-97.6769,30.33469],[-97.67741,30.3341],[-97.67583,30.33319],[-97.67829,30.32925],[-97.67879,30.32946],[-97.67889,30.32922],[-97.67596,30.32763],[-97.67323,30.32572],[-97.66956,30.32693],[-97.66428,30.32796],[-97.6443,30.3295],[-97.644,30.32954],[-97.64407,30.33042],[-97.62896,30.33148],[-97.62744,30.33383],[-97.62549,30.33293],[-97.62635,30.33163],[-97.62418,30.33176],[-97.6243,30.33115],[-97.62322,30.33093],[-97.62281,30.33236],[-97.61663,30.34185],[-97.61713,30.34083],[-97.61677,30.33875],[-97.61593,30.33763],[-97.61454,30.33657],[-97.61332,30.33608],[-97.61168,30.33601],[-97.61053,30.33569],[-97.60941,30.33457],[-97.60772,30.33502],[-97.60764,30.33474],[-97.60517,30.33537],[-97.59174,30.34041],[-97.59383,30.34424],[-97.59539,30.345],[-97.5948,30.34594],[-97.595,30.34781],[-97.59476,30.34959],[-97.59343,30.35265],[-97.59777,30.34616],[-97.60226,30.34837],[-97.59802,30.35496],[-97.60037,30.35624],[-97.5999,30.35669],[-97.60158,30.35873],[-97.60225,30.36035],[-97.60115,30.36069],[-97.59897,30.36059],[-97.59667,30.35976],[-97.59626,30.3599],[-97.59523,30.36098],[-97.59478,30.3611],[-97.59224,30.36012],[-97.59158,30.36014],[-97.59042,30.36071],[-97.58806,30.3593],[-97.58538,30.36337],[-97.58479,30.36466],[-97.58365,30.36977],[-97.58849,30.37059],[-97.59327,30.37287],[-97.59778,30.36593],[-97.60313,30.36848],[-97.60498,30.36565],[-97.60647,30.3668],[-97.60785,30.36747],[-97.61304,30.36859],[-97.61205,30.37212],[-97.60848,30.37801],[-97.60927,30.37838],[-97.61092,30.3758],[-97.61356,30.37702],[-97.61442,30.3757],[-97.61416,30.37472],[-97.61445,30.37429],[-97.61778,30.37583],[-97.62372,30.36818],[-97.62266,30.36804],[-97.62193,30.36683],[-97.62111,30.36626],[-97.62086,30.36566],[-97.62048,30.36579],[-97.62009,30.3655],[-97.6199,30.36521],[-97.62119,30.36501],[-97.61882,30.3627],[-97.61866,30.36204],[-97.62287,30.35544],[-97.61911,30.35367],[-97.62358,30.3468],[-97.63012,30.34984],[-97.63089,30.35046],[-97.6338,30.35124],[-97.63298,30.35133],[-97.63326,30.35179],[-97.63278,30.35271],[-97.63354,30.35334],[-97.63379,30.35436],[-97.63556,30.35584],[-97.63078,30.36015],[-97.6272,30.36953],[-97.62432,30.3736],[-97.6261,30.37452],[-97.6219,30.3806],[-97.62049,30.37967],[-97.62098,30.38017],[-97.62086,30.38053],[-97.62115,30.38087],[-97.62158,30.38058],[-97.62227,30.38129],[-97.62171,30.38282],[-97.62309,30.38313],[-97.62394,30.38301],[-97.62479,30.38337],[-97.62482,30.38439],[-97.62552,30.38464],[-97.62567,30.38495],[-97.6254,30.38525],[-97.62545,30.38577],[-97.62615,30.38597],[-97.62649,30.38564],[-97.62686,30.38624],[-97.62688,30.38682],[-97.62646,30.38659],[-97.6259,30.38689],[-97.62676,30.38743],[-97.62667,30.38766],[-97.62723,30.38778],[-97.6275,30.38838],[-97.62828,30.38914],[-97.62828,30.39026],[-97.6301,30.39065],[-97.63142,30.3919],[-97.63196,30.39278],[-97.63207,30.3937],[-97.63268,30.39509],[-97.63376,30.39652],[-97.63708,30.39841],[-97.63709,30.39886],[-97.63506,30.40203],[-97.6385,30.40375],[-97.64656,30.39118],[-97.64946,30.38519],[-97.65,30.38531],[-97.65028,30.38438],[-97.65125,30.38362],[-97.65269,30.38194],[-97.6546,30.38095],[-97.65497,30.38042],[-97.65599,30.37972],[-97.65701,30.37989],[-97.65829,30.37915],[-97.65874,30.37864],[-97.6587,30.37831],[-97.65941,30.37836],[-97.6597,30.37815],[-97.65871,30.37736],[-97.66019,30.37552],[-97.66126,30.37477],[-97.6655,30.37271],[-97.66651,30.37167],[-97.66879,30.36783],[-97.66862,30.36247],[-97.67443,30.35344],[-97.67583,30.35393],[-97.67735,30.35155],[-97.67773,30.3516],[-97.67778,30.35115],[-97.67853,30.3501],[-97.67804,30.34971],[-97.68013,30.34645],[-97.67959,30.34552],[-97.67982,30.34519],[-97.67969,30.3446],[-97.67983,30.34453],[-97.68082,30.34597],[-97.68256,30.34627],[-97.68298,30.34516],[-97.68483,30.34225],[-97.68645,30.34055]],[[-97.60989,30.34227],[-97.61061,30.34263],[-97.60586,30.35008],[-97.60231,30.34827],[-97.60714,30.34089],[-97.60989,30.34227]]]},"properties":{"zip_code":"78754","county":"Travis"}}]}