{"type":"FeatureCollection","features":[{"type":"Feature","geometry":{"type":"Polygon","coordinates":[[[-97.75516,30.33695],[-97.75528,30.33641],[-97.75501,30.33623],[-97.75237,30.33486],[-97.75088,30.33448],[-97.74918,30.33461],[-97.746,30.33579],[-97.74191,30.3351],[-97.74164,30.33625],[-97.74051,30.33501],[-97.73892,30.33442],[-97.73871,30.33475],[-97.73658,30.33375],[-97.73676,30.33338],[-97.73465,30.33233],[-97.7343,30.33268],[-97.73135,30.33128],[-97.73112,30.33168],[-97.72878,30.33057],[-97.7295,30.32989],[-97.72818,30.32924],[-97.7276,30.32853],[-97.72741,30.32889],[-97.72704,30.32871],[-97.72612,30.32988],[-97.72548,30.32963],[-97.72483,30.33067],[-97.72371,30.33012],[-97.71955,30.3367],[-97.7215,30.33765],[-97.72176,30.33907],[-97.72156,30.33952],[-97.7209,30.33975],[-97.72099,30.3403],[-97.72269,30.3409],[-97.72164,30.34267],[-97.72251,30.34711],[-97.72192,30.34719],[-97.72055,30.34082],[-97.71879,30.34109],[-97.71882,30.34091],[-97.71735,30.34016],[-97.71308,30.34684],[-97.71398,30.34801],[-97.71767,30.34991],[-97.71664,30.35028],[-97.71539,30.35216],[-97.71626,30.35261],[-97.71588,30.3533],[-97.71852,30.35464],[-97.71713,30.35666],[-97.71582,30.35694],[-97.71675,30.36041],[-97.71759,30.36035],[-97.71927,30.36129],[-97.71909,30.36202],[-97.71922,30.3628],[-97.71738,30.36323],[-97.71836,30.36741],[-97.71959,30.36964],[-97.72087,30.37073],[-97.73178,30.37593],[-97.73618,30.37868],[-97.74084,30.36745],[-97.74192,30.36793],[-97.74398,30.3613],[-97.74345,30.36119],[-97.74799,30.3516],[-97.74884,30.35172],[-97.74961,30.34874],[-97.7549,30.3379],[-97.75516,30.33695]]]},"properties":{"zip_code":"78757","county":"Travis"}}]}