{"type":"FeatureCollection","features":[{"type":"Feature","geometry":{"type":"Polygon","coordinates":[[[-97.74975,30.3345],[-97.74897,30.33293],[-97.74741,30.33186],[-97.74637,30.33064],[-97.74698,30.32955],[-97.74699,30.32748],[-97.74589,30.32553],[-97.7459,30.32311],[-97.74516,30.32119],[-97.74546,30.32045],[-97.74591,30.32006],[-97.74846,30.32089],[-97.74926,30.32086],[-97.74921,30.31776],[-97.74888,30.31712],[-97.74925,30.31567],[-97.74899,30.31352],[-97.74861,30.3126],[-97.74897,30.3109],[-97.74883,30.30891],[-97.748,30.30722],[-97.74638,30.30671],[-97.74311,30.3052],[-97.73663,30.31469],[-97.73547,30.31553],[-97.73218,30.3167],[-97.73146,30.31776],[-97.73113,30.31826],[-97.73354,30.31942],[-97.73187,30.32226],[-97.73118,30.32194],[-97.72981,30.32403],[-97.72885,30.32358],[-97.72843,30.32424],[-97.72898,30.32453],[-97.72819,30.32582],[-97.7272,30.32535],[-97.72698,30.32567],[-97.72662,30.3255],[-97.72633,30.32596],[-97.72712,30.32674],[-97.72787,30.32893],[-97.7295,30.32989],[-97.72878,30.33057],[-97.73112,30.33168],[-97.73135,30.33128],[-97.7343,30.33268],[-97.73465,30.33233],[-97.73676,30.33338],[-97.73658,30.33375],[-97.73871,30.33475],[-97.73892,30.33442],[-97.74051,30.33501],[-97.74164,30.33625],[-97.74191,30.3351],[-97.746,30.33579],[-97.74975,30.3345]]]},"properties":{"zip_code":"78756","county":"Travis"}}]}