{"type":"FeatureCollection","features":[{"type":"Feature","geometry":{"type":"Polygon","coordinates":[[[-97.73618,30.37868],[-97.73178,30.37593],[-97.72087,30.37073],[-97.71936,30.36936],[-97.71836,30.36741],[-97.71738,30.36323],[-97.71922,30.3628],[-97.71909,30.36202],[-97.71927,30.36129],[-97.71759,30.36035],[-97.71675,30.36041],[-97.71582,30.35694],[-97.71713,30.35666],[-97.71852,30.35464],[-97.71588,30.3533],[-97.71626,30.35261],[-97.71539,30.35216],[-97.71664,30.35028],[-97.71767,30.34991],[-97.71398,30.34801],[-97.71308,30.34684],[-97.71049,30.35006],[-97.70564,30.35335],[-97.70839,30.35477],[-97.70855,30.35507],[-97.70689,30.35611],[-97.70443,30.35496],[-97.70407,30.35452],[-97.70011,30.35765],[-97.70145,30.35831],[-97.70157,30.35951],[-97.70108,30.36104],[-97.70119,30.3619],[-97.70025,30.3625],[-97.69975,30.36252],[-97.69899,30.36401],[-97.69991,30.36444],[-97.69893,30.3641],[-97.69828,30.36497],[-97.69823,30.36546],[-97.69931,30.36582],[-97.69963,30.36655],[-97.69842,30.36599],[-97.69549,30.37073],[-97.69476,30.37107],[-97.69301,30.37017],[-97.68768,30.37954],[-97.69351,30.38238],[-97.69279,30.38378],[-97.69232,30.38355],[-97.6919,30.38432],[-97.68637,30.38193],[-97.68515,30.38456],[-97.68787,30.38574],[-97.68638,30.38725],[-97.68604,30.38816],[-97.6854,30.38898],[-97.68494,30.39041],[-97.6844,30.39079],[-97.68418,30.39135],[-97.68343,30.39165],[-97.68333,30.39238],[-97.68283,30.39299],[-97.68084,30.39433],[-97.68052,30.39512],[-97.68138,30.39554],[-97.68196,30.39641],[-97.6805,30.39625],[-97.68006,30.39744],[-97.68034,30.39772],[-97.6817,30.39803],[-97.68099,30.39946],[-97.68156,30.39973],[-97.68173,30.4009],[-97.68043,30.39939],[-97.6794,30.39915],[-97.67908,30.40282],[-97.67817,30.4079],[-97.68142,30.40895],[-97.69325,30.4145],[-97.70156,30.41864],[-97.70519,30.42103],[-97.70821,30.4179],[-97.70841,30.41798],[-97.71004,30.41603],[-97.71045,30.41489],[-97.71094,30.41089],[-97.71308,30.40973],[-97.71609,30.40906],[-97.71565,30.40698],[-97.71569,30.40573],[-97.71866,30.40023],[-97.71997,30.40062],[-97.71883,30.40342],[-97.71891,30.40471],[-97.72113,30.40418],[-97.72157,30.4054],[-97.72308,30.40485],[-97.72384,30.40336],[-97.72463,30.40361],[-97.72515,30.40434],[-97.72805,30.40209],[-97.72785,30.3997],[-97.72868,30.39603],[-97.72967,30.39425],[-97.73618,30.37868]]]},"properties":{"zip_code":"78758","county":"Travis"}}]}