{"type":"FeatureCollection","features":[{"type":"Feature","geometry":{"type":"Polygon","coordinates":[[[-97.80834,30.41048],[-97.81167,30.40499],[-97.7889,30.39408],[-97.78864,30.39445],[-97.78528,30.39627],[-97.78363,30.39657],[-97.78311,30.3965],[-97.78294,30.39623],[-97.78217,30.39622],[-97.78052,30.39525],[-97.7794,30.3949],[-97.77894,30.3946],[-97.77895,30.39415],[-97.77936,30.39403],[-97.77997,30.39432],[-97.7801,30.39396],[-97.78163,30.39329],[-97.78055,30.39276],[-97.78107,30.39192],[-97.78266,30.39273],[-97.78344,30.39144],[-97.7788,30.38924],[-97.7784,30.3897],[-97.77771,30.38942],[-97.77703,30.38953],[-97.7748,30.39029],[-97.77493,30.39039],[-97.77408,30.39081],[-97.77321,30.39071],[-97.7719,30.3899],[-97.77092,30.3885],[-97.77032,30.38648],[-97.77006,30.38458],[-97.77041,30.38382],[-97.77048,30.38269],[-97.76874,30.38243],[-97.76848,30.38203],[-97.76739,30.38165],[-97.767,30.38122],[-97.76701,30.37961],[-97.76768,30.37936],[-97.76676,30.37838],[-97.76702,30.37778],[-97.7666,30.37737],[-97.76665,30.37689],[-97.76722,30.37599],[-97.76813,30.37559],[-97.76827,30.37385],[-97.76909,30.37272],[-97.76877,30.37164],[-97.76821,30.37086],[-97.76732,30.37021],[-97.76604,30.36995],[-97.76557,30.37066],[-97.76171,30.36893],[-97.76056,30.37065],[-97.75982,30.3707],[-97.75784,30.37185],[-97.75726,30.37146],[-97.75819,30.36979],[-97.75654,30.36892],[-97.75682,30.36843],[-97.75842,30.36944],[-97.75873,30.36899],[-97.75703,30.36816],[-97.75741,30.3675],[-97.759,30.36863],[-97.75935,30.36816],[-97.75729,30.36686],[-97.75687,30.36705],[-97.75565,30.36663],[-97.75597,30.36607],[-97.75527,30.36574],[-97.75412,30.36786],[-97.75313,30.36696],[-97.75057,30.36537],[-97.74945,30.36382],[-97.74691,30.36183],[-97.74581,30.3614],[-97.74398,30.3613],[-97.74192,30.36793],[-97.74084,30.36745],[-97.72967,30.39425],[-97.72868,30.39603],[-97.72785,30.3997],[-97.72805,30.40209],[-97.72515,30.40434],[-97.72463,30.40361],[-97.72384,30.40336],[-97.72308,30.40485],[-97.72157,30.4054],[-97.72113,30.40418],[-97.71891,30.40471],[-97.71883,30.40342],[-97.71997,30.40062],[-97.71866,30.40023],[-97.71569,30.40573],[-97.71565,30.40698],[-97.71609,30.40906],[-97.71308,30.40973],[-97.71094,30.41089],[-97.71032,30.41541],[-97.70978,30.41644],[-97.70841,30.41798],[-97.71569,30.42153],[-97.72204,30.41163],[-97.72346,30.41184],[-97.72626,30.41173],[-97.72686,30.41244],[-97.72849,30.4134],[-97.72871,30.41487],[-97.72922,30.4152],[-97.72939,30.41614],[-97.72955,30.41615],[-97.72952,30.41562],[-97.72997,30.41544],[-97.72987,30.41513],[-97.73057,30.41412],[-97.73026,30.41376],[-97.73034,30.4132],[-97.73086,30.41351],[-97.73158,30.4125],[-97.7384,30.41577],[-97.73862,30.41536],[-97.74108,30.41654],[-97.74168,30.41567],[-97.74297,30.41628],[-97.74212,30.41755],[-97.74544,30.41911],[-97.7467,30.41907],[-97.74721,30.42157],[-97.74767,30.42262],[-97.74843,30.42356],[-97.74975,30.42461],[-97.75361,30.42651],[-97.75234,30.4284],[-97.75115,30.42907],[-97.75141,30.4295],[-97.75212,30.42898],[-97.75322,30.42949],[-97.75476,30.42967],[-97.7581,30.43099],[-97.75804,30.43291],[-97.76606,30.43241],[-97.76973,30.4342],[-97.77013,30.43408],[-97.77552,30.43682],[-97.77635,30.4356],[-97.77833,30.43491],[-97.77809,30.4345],[-97.77922,30.43419],[-97.7784,30.43241],[-97.77829,30.43163],[-97.77931,30.43134],[-97.78182,30.42982],[-97.78327,30.42815],[-97.78471,30.42709],[-97.78515,30.42598],[-97.78496,30.42405],[-97.78544,30.42328],[-97.78606,30.42284],[-97.78818,30.42246],[-97.79087,30.42325],[-97.7931,30.42278],[-97.79455,30.42184],[-97.79381,30.42099],[-97.79379,30.42007],[-97.79656,30.41961],[-97.79879,30.41858],[-97.80005,30.41844],[-97.80205,30.41774],[-97.80345,30.41781],[-97.80575,30.41877],[-97.80648,30.41767],[-97.80405,30.41712],[-97.80834,30.41048]]]},"properties":{"zip_code":"78759","county":"Travis"}}]}