{"type":"FeatureCollection","features":[{"type":"Feature","geometry":{"type":"Polygon","coordinates":[[[-97.71241,30.34786],[-97.7121,30.34749],[-97.71195,30.34775],[-97.71105,30.34712],[-97.70916,30.34639],[-97.70834,30.34753],[-97.70571,30.34639],[-97.70665,30.34503],[-97.70362,30.3428],[-97.70265,30.3435],[-97.70199,30.34269],[-97.70123,30.34358],[-97.69858,30.3422],[-97.70055,30.33957],[-97.69531,30.33707],[-97.69441,30.33799],[-97.69256,30.33852],[-97.69227,30.33752],[-97.69318,30.33604],[-97.68622,30.33284],[-97.68332,30.33734],[-97.68727,30.33926],[-97.686,30.34121],[-97.68483,30.34225],[-97.68298,30.34516],[-97.68256,30.34627],[-97.68082,30.34597],[-97.67983,30.34453],[-97.67969,30.3446],[-97.67982,30.34519],[-97.67959,30.34552],[-97.68013,30.34645],[-97.67804,30.34971],[-97.67853,30.3501],[-97.67778,30.35115],[-97.67773,30.3516],[-97.67735,30.35155],[-97.67583,30.35393],[-97.67443,30.35344],[-97.66862,30.36247],[-97.66879,30.36783],[-97.66651,30.37167],[-97.6655,30.37271],[-97.66126,30.37477],[-97.66019,30.37552],[-97.65871,30.37736],[-97.6597,30.37815],[-97.65941,30.37836],[-97.6587,30.37831],[-97.65874,30.37864],[-97.65829,30.37915],[-97.65701,30.37989],[-97.65599,30.37972],[-97.65497,30.38042],[-97.6546,30.38095],[-97.65269,30.38194],[-97.65125,30.38362],[-97.65028,30.38438],[-97.65,30.38531],[-97.64946,30.38519],[-97.64656,30.39118],[-97.64449,30.39463],[-97.63786,30.40444],[-97.63786,30.40473],[-97.6417,30.4065],[-97.64101,30.40687],[-97.64202,30.40799],[-97.6423,30.40889],[-97.64678,30.40956],[-97.64776,30.41048],[-97.64544,30.41417],[-97.64609,30.41424],[-97.64624,30.41333],[-97.64858,30.4096],[-97.64959,30.41046],[-97.65074,30.41218],[-97.65199,30.41296],[-97.64833,30.41877],[-97.64787,30.4184],[-97.64755,30.41874],[-97.64565,30.41929],[-97.64719,30.42038],[-97.64553,30.42313],[-97.64671,30.42371],[-97.64788,30.42474],[-97.64683,30.42631],[-97.6467,30.42854],[-97.64807,30.42858],[-97.64999,30.42928],[-97.65099,30.4277],[-97.65658,30.43041],[-97.6567,30.43021],[-97.65699,30.42937],[-97.65706,30.42575],[-97.65737,30.42438],[-97.65669,30.42341],[-97.65107,30.42028],[-97.65368,30.41674],[-97.65395,30.41626],[-97.65391,30.41511],[-97.65456,30.41436],[-97.65639,30.41653],[-97.65877,30.4184],[-97.66501,30.42145],[-97.66492,30.42496],[-97.66512,30.42295],[-97.66577,30.42182],[-97.66873,30.42334],[-97.66524,30.42885],[-97.66618,30.42948],[-97.67006,30.43019],[-97.67118,30.42431],[-97.67659,30.42686],[-97.67761,30.4258],[-97.67727,30.42559],[-97.67733,30.42434],[-97.67633,30.42396],[-97.67602,30.42303],[-97.67654,30.42266],[-97.67659,30.42238],[-97.67824,30.42151],[-97.67921,30.42019],[-97.67905,30.41982],[-97.67808,30.41943],[-97.67811,30.41876],[-97.67911,30.41768],[-97.67953,30.41663],[-97.67937,30.41588],[-97.68005,30.41514],[-97.68035,30.4144],[-97.68008,30.41331],[-97.68044,30.41273],[-97.68035,30.41146],[-97.68072,30.41069],[-97.68061,30.41038],[-97.68103,30.4101],[-97.68138,30.40902],[-97.67927,30.40812],[-97.67817,30.4079],[-97.67908,30.40282],[-97.6794,30.39915],[-97.68043,30.39939],[-97.68173,30.4009],[-97.68156,30.39973],[-97.68099,30.39946],[-97.6817,30.39803],[-97.68034,30.39772],[-97.68006,30.39744],[-97.6805,30.39625],[-97.68196,30.39641],[-97.68138,30.39554],[-97.68052,30.39512],[-97.68077,30.3945],[-97.68283,30.39299],[-97.68333,30.39238],[-97.68343,30.39165],[-97.68418,30.39135],[-97.6844,30.39079],[-97.68494,30.39041],[-97.6854,30.38898],[-97.68604,30.38816],[-97.68638,30.38725],[-97.68787,30.38574],[-97.68515,30.38456],[-97.68586,30.38316],[-97.68574,30.38304],[-97.68637,30.38193],[-97.6919,30.38432],[-97.69232,30.38355],[-97.69279,30.38378],[-97.69351,30.38238],[-97.68768,30.37954],[-97.69301,30.37017],[-97.69476,30.37107],[-97.69549,30.37073],[-97.69842,30.36599],[-97.69963,30.36655],[-97.69935,30.36586],[-97.69821,30.36534],[-97.69893,30.3641],[-97.69984,30.36453],[-97.69899,30.36401],[-97.69944,30.36345],[-97.69964,30.36266],[-97.70119,30.3619],[-97.70108,30.36104],[-97.70157,30.35951],[-97.70146,30.3584],[-97.70011,30.35765],[-97.70039,30.35727],[-97.70407,30.35452],[-97.70443,30.35496],[-97.70689,30.35611],[-97.70855,30.35507],[-97.70839,30.35477],[-97.70564,30.35335],[-97.71049,30.35006],[-97.71241,30.34786]]]},"properties":{"zip_code":"78753","county":"Travis"}}]}