{"type":"FeatureCollection","features":[{"type":"Feature","geometry":{"type":"Polygon","coordinates":[[[-96.73544,29.80213],[-96.73327,29.7996],[-96.73082,29.79873],[-96.72434,29.78528],[-96.70448,29.80674],[-96.67293,29.8431],[-96.6768,29.84495],[-96.67944,29.84904],[-96.67778,29.85116],[-96.67897,29.85245],[-96.67863,29.85559],[-96.68223,29.85688],[-96.68363,29.85555],[-96.69495,29.86327],[-96.69635,29.86227],[-96.69483,29.86064],[-96.69946,29.8574],[-96.69882,29.85589],[-96.7005,29.85217],[-96.70214,29.85145],[-96.70342,29.85241],[-96.70242,29.85676],[-96.70326,29.85676],[-96.70609,29.85341],[-96.70952,29.85609],[-96.71142,29.85658],[-96.71134,29.85458],[-96.71482,29.8529],[-96.71465,29.84991],[-96.71199,29.84236],[-96.70961,29.84093],[-96.71216,29.83807],[-96.71052,29.83652],[-96.71144,29.83594],[-96.7148,29.82834],[-96.71489,29.82576],[-96.73086,29.80734],[-96.73327,29.80572],[-96.73544,29.80213]]]},"properties":{"zip_code":"78938","county":"Fayette"}}]}