{"type":"FeatureCollection","features":[{"type":"Feature","geometry":{"type":"Polygon","coordinates":[[[-96.79273,30.14773],[-96.79202,30.14401],[-96.79247,30.12624],[-96.79158,30.1252],[-96.79111,30.12206],[-96.78843,30.12119],[-96.78864,30.11869],[-96.78527,30.11622],[-96.78714,30.11358],[-96.78646,30.10868],[-96.78417,30.10723],[-96.77913,30.11177],[-96.77526,30.113],[-96.77154,30.11057],[-96.76794,30.10482],[-96.75891,30.10116],[-96.75788,30.09807],[-96.74806,30.10237],[-96.7425,30.10035],[-96.73875,30.09642],[-96.73641,30.09848],[-96.73514,30.10098],[-96.73164,30.10357],[-96.72804,30.10845],[-96.72522,30.10969],[-96.7249,30.11157],[-96.72317,30.11217],[-96.72235,30.1115],[-96.72101,30.11233],[-96.72043,30.11579],[-96.71543,30.11927],[-96.71564,30.12134],[-96.71751,30.12223],[-96.71626,30.12385],[-96.69748,30.10804],[-96.6914,30.10785],[-96.68548,30.10299],[-96.68325,30.10218],[-96.66867,30.11577],[-96.65589,30.10578],[-96.64985,30.11136],[-96.63674,30.10114],[-96.63357,30.10418],[-96.63367,30.10614],[-96.64065,30.12058],[-96.65311,30.12999],[-96.64748,30.14452],[-96.6459,30.14609],[-96.65149,30.15107],[-96.63342,30.15059],[-96.62994,30.15136],[-96.62931,30.15222],[-96.63281,30.15114],[-96.64696,30.16318],[-96.64416,30.1657],[-96.64236,30.16477],[-96.63792,30.17164],[-96.66691,30.19613],[-96.66147,30.19871],[-96.65654,30.19843],[-96.65304,30.20061],[-96.66171,30.20804],[-96.66276,30.21115],[-96.67222,30.22326],[-96.68268,30.2271],[-96.69144,30.23762],[-96.67736,30.24658],[-96.68058,30.25083],[-96.67884,30.25415],[-96.68296,30.25885],[-96.68527,30.25601],[-96.68432,30.25451],[-96.68456,30.25296],[-96.68584,30.25259],[-96.68453,30.25213],[-96.68523,30.25126],[-96.68425,30.25],[-96.68719,30.24802],[-96.69254,30.24855],[-96.69421,30.25042],[-96.69528,30.24934],[-96.69656,30.25007],[-96.69711,30.24899],[-96.70059,30.24955],[-96.70157,30.24733],[-96.70575,30.24586],[-96.70663,30.24463],[-96.70774,30.24539],[-96.71088,30.24545],[-96.71214,30.24633],[-96.71232,30.24763],[-96.71442,30.24728],[-96.71383,30.24851],[-96.71482,30.25105],[-96.71512,30.24962],[-96.71831,30.25051],[-96.72099,30.24822],[-96.72177,30.24846],[-96.72202,30.24682],[-96.72311,30.24593],[-96.72529,30.24691],[-96.72651,30.24379],[-96.72795,30.24346],[-96.72893,30.24414],[-96.72992,30.24314],[-96.73165,30.24389],[-96.73304,30.24195],[-96.73442,30.24153],[-96.73407,30.24021],[-96.73534,30.23966],[-96.73402,30.23871],[-96.73483,30.23829],[-96.73524,30.2365],[-96.73607,30.237],[-96.73704,30.23623],[-96.73612,30.23536],[-96.73721,30.23322],[-96.73697,30.23188],[-96.73863,30.23248],[-96.73848,30.23101],[-96.74254,30.227],[-96.74136,30.22637],[-96.74141,30.22339],[-96.74023,30.22403],[-96.73904,30.22235],[-96.74399,30.21731],[-96.74331,30.21449],[-96.74262,30.21439],[-96.74314,30.21319],[-96.74206,30.21343],[-96.74204,30.21211],[-96.7406,30.21215],[-96.74172,30.21064],[-96.74071,30.20886],[-96.74112,30.20769],[-96.73985,30.20682],[-96.74073,30.20574],[-96.73991,30.20315],[-96.7418,30.19979],[-96.74151,30.19743],[-96.76904,30.17829],[-96.76172,30.17162],[-96.74532,30.15949],[-96.7467,30.15823],[-96.73214,30.14702],[-96.73545,30.14739],[-96.74723,30.14417],[-96.75091,30.136],[-96.75646,30.12964],[-96.75981,30.13397],[-96.76591,30.13903],[-96.76694,30.13875],[-96.77302,30.14947],[-96.78067,30.1521],[-96.78497,30.1482],[-96.79062,30.15057],[-96.79108,30.14964],[-96.79204,30.15001],[-96.79273,30.14773]]]},"properties":{"zip_code":"78932","county":"Fayette"}}]}