{"type":"FeatureCollection","features":[{"type":"Feature","geometry":{"type":"Polygon","coordinates":[[[-96.82451,30.00257],[-96.81079,29.99027],[-96.80842,29.98917],[-96.80575,29.98941],[-96.81047,29.98434],[-96.80536,29.9797],[-96.8062,29.97901],[-96.80212,29.97606],[-96.7975,29.98022],[-96.79432,29.97756],[-96.79855,29.97381],[-96.79065,29.96727],[-96.78999,29.96806],[-96.7873,29.96608],[-96.78522,29.96559],[-96.78182,29.96844],[-96.77741,29.96498],[-96.77789,29.96432],[-96.76943,29.95826],[-96.77512,29.95207],[-96.77301,29.95016],[-96.77353,29.94963],[-96.7659,29.94428],[-96.77295,29.93847],[-96.75283,29.92234],[-96.75219,29.92468],[-96.7509,29.92587],[-96.75007,29.92545],[-96.74817,29.92626],[-96.7466,29.92544],[-96.74199,29.92635],[-96.74694,29.92491],[-96.7473,29.92388],[-96.74922,29.92335],[-96.74988,29.92222],[-96.74919,29.92142],[-96.75037,29.92037],[-96.73619,29.90851],[-96.73811,29.9054],[-96.73813,29.9029],[-96.73893,29.90197],[-96.74307,29.90326],[-96.74125,29.89738],[-96.74425,29.89494],[-96.74371,29.89108],[-96.74646,29.89177],[-96.74619,29.8883],[-96.74945,29.88898],[-96.74938,29.88676],[-96.74566,29.88649],[-96.73112,29.89539],[-96.75251,29.87567],[-96.74881,29.87146],[-96.75058,29.87066],[-96.74637,29.8669],[-96.78287,29.83334],[-96.7757,29.83174],[-96.76871,29.83198],[-96.763,29.83335],[-96.7598,29.83289],[-96.75828,29.83174],[-96.75734,29.82682],[-96.76071,29.82155],[-96.76048,29.81678],[-96.75922,29.81428],[-96.75939,29.8129],[-96.76117,29.81136],[-96.7595,29.80633],[-96.7579,29.80515],[-96.7546,29.8056],[-96.75216,29.80695],[-96.74664,29.81532],[-96.74275,29.81646],[-96.73985,29.81467],[-96.74016,29.80833],[-96.73563,29.8019],[-96.73504,29.80256],[-96.73327,29.80572],[-96.73086,29.80734],[-96.71489,29.82576],[-96.7148,29.82834],[-96.71144,29.83594],[-96.71052,29.83652],[-96.71216,29.83807],[-96.70961,29.84093],[-96.71199,29.84236],[-96.71465,29.84991],[-96.71482,29.8529],[-96.71134,29.85458],[-96.71142,29.85658],[-96.70952,29.85609],[-96.70609,29.85341],[-96.70326,29.85676],[-96.70242,29.85676],[-96.70342,29.85241],[-96.70214,29.85145],[-96.7005,29.85217],[-96.69882,29.85589],[-96.69946,29.8574],[-96.69483,29.86064],[-96.69635,29.86227],[-96.69495,29.86327],[-96.68363,29.85555],[-96.68223,29.85688],[-96.67867,29.85563],[-96.67897,29.85245],[-96.67778,29.85116],[-96.67948,29.84919],[-96.67702,29.84519],[-96.6753,29.84384],[-96.66749,29.84124],[-96.66663,29.83965],[-96.66416,29.83896],[-96.6621,29.84316],[-96.656,29.84423],[-96.65248,29.84353],[-96.64992,29.84195],[-96.64627,29.84147],[-96.64579,29.83805],[-96.64506,29.83749],[-96.63586,29.83727],[-96.63644,29.83862],[-96.63546,29.83961],[-96.63265,29.84732],[-96.62833,29.84698],[-96.62821,29.8523],[-96.62062,29.85247],[-96.62067,29.85892],[-96.6166,29.85876],[-96.61654,29.86494],[-96.60881,29.86525],[-96.60363,29.86703],[-96.59824,29.87557],[-96.59928,29.87862],[-96.59764,29.88092],[-96.59626,29.88103],[-96.59778,29.88335],[-96.5896,29.88187],[-96.58943,29.8832],[-96.58454,29.8833],[-96.58142,29.88483],[-96.58133,29.88707],[-96.56885,29.88725],[-96.56889,29.89042],[-96.54735,29.89089],[-96.54372,29.90103],[-96.54485,29.91685],[-96.54811,29.91674],[-96.54802,29.91379],[-96.55284,29.91338],[-96.55391,29.92274],[-96.55889,29.92291],[-96.55893,29.92078],[-96.5646,29.92067],[-96.56871,29.92391],[-96.55447,29.93709],[-96.55836,29.94328],[-96.59842,29.94908],[-96.61438,29.95029],[-96.60647,29.9549],[-96.60808,29.95835],[-96.60608,29.9601],[-96.60965,29.96293],[-96.60375,29.96578],[-96.5935,29.967],[-96.59095,29.96808],[-96.5776,29.97829],[-96.57812,29.98104],[-96.56617,29.99258],[-96.56363,29.98969],[-96.5422,30.01035],[-96.54197,30.01117],[-96.54416,30.01326],[-96.54626,30.01388],[-96.55016,30.01929],[-96.54862,30.02079],[-96.54791,30.02436],[-96.54578,30.02576],[-96.54629,30.02718],[-96.54513,30.02711],[-96.54457,30.0287],[-96.54338,30.02913],[-96.54386,30.03014],[-96.54308,30.03219],[-96.54698,30.03438],[-96.54839,30.03615],[-96.55316,30.03628],[-96.55398,30.03733],[-96.55506,30.03725],[-96.55546,30.0363],[-96.55713,30.03627],[-96.5588,30.03847],[-96.54963,30.04739],[-96.55115,30.04872],[-96.55214,30.05192],[-96.55664,30.05537],[-96.566,30.04736],[-96.56878,30.04671],[-96.56941,30.04503],[-96.58042,30.03456],[-96.5794,30.03283],[-96.58202,30.03013],[-96.58132,30.02794],[-96.58364,30.02642],[-96.58701,30.02663],[-96.58794,30.02517],[-96.59421,30.02825],[-96.59806,30.02316],[-96.60142,30.02762],[-96.6109,30.02831],[-96.61857,30.03406],[-96.62689,30.02596],[-96.62329,30.02285],[-96.62715,30.01877],[-96.62195,30.01449],[-96.64396,29.99357],[-96.65582,29.99473],[-96.66212,29.99675],[-96.66207,29.99829],[-96.65402,30.00551],[-96.64914,30.00689],[-96.65517,30.01144],[-96.65797,30.011],[-96.66711,30.00244],[-96.67248,30.0078],[-96.67672,30.00885],[-96.68083,30.01239],[-96.68579,30.00772],[-96.69651,30.01113],[-96.71024,29.99774],[-96.71239,29.99984],[-96.71234,30.00146],[-96.7145,30.00159],[-96.72202,29.99242],[-96.72558,29.98925],[-96.72592,29.98485],[-96.72923,29.98254],[-96.72715,29.98134],[-96.7327,29.97621],[-96.73751,29.97873],[-96.74209,29.97805],[-96.74224,29.97893],[-96.74889,29.98098],[-96.74996,29.97988],[-96.75109,29.98055],[-96.75601,29.97584],[-96.7615,29.98101],[-96.75842,29.98417],[-96.77106,29.98816],[-96.78124,29.99579],[-96.7779,29.99933],[-96.78378,30.00393],[-96.78299,30.00498],[-96.78638,30.00771],[-96.79708,29.99742],[-96.8014,29.99846],[-96.81894,30.01172],[-96.82432,30.00653],[-96.82212,30.0058],[-96.82227,30.00398],[-96.82451,30.00257]]]},"properties":{"zip_code":"78940","county":"Fayette"}}]}