{"type":"FeatureCollection","features":[{"type":"Feature","geometry":{"type":"Polygon","coordinates":[[[-97.26117,29.78769],[-97.26021,29.78571],[-97.25972,29.78373],[-97.25887,29.78396],[-97.25856,29.78461],[-97.24724,29.78472],[-97.24525,29.78433],[-97.24337,29.78298],[-97.23643,29.78153],[-97.23601,29.78183],[-97.23603,29.78438],[-97.23537,29.78566],[-97.22563,29.78585],[-97.22538,29.78061],[-97.25474,29.77717],[-97.25455,29.76719],[-97.2552,29.75943],[-97.25515,29.75482],[-97.25562,29.75334],[-97.25554,29.75057],[-97.24341,29.7505],[-97.24416,29.75231],[-97.24271,29.76069],[-97.24042,29.76049],[-97.23776,29.75944],[-97.23649,29.75847],[-97.233,29.75937],[-97.23058,29.75969],[-97.23066,29.75641],[-97.23128,29.75541],[-97.23199,29.75484],[-97.2313,29.75445],[-97.22714,29.75438],[-97.22538,29.75357],[-97.21871,29.74669],[-97.21626,29.74243],[-97.21443,29.74128],[-97.21181,29.74069],[-97.2117,29.73615],[-97.21018,29.7359],[-97.2101,29.73377],[-97.2093,29.69686],[-97.21052,29.69682],[-97.21038,29.68292],[-97.19147,29.6803],[-97.19123,29.6798],[-97.19095,29.66417],[-97.19169,29.6574],[-97.19176,29.65255],[-97.20613,29.65232],[-97.2186,29.6328],[-97.222,29.63422],[-97.22264,29.63415],[-97.22374,29.63502],[-97.231,29.63863],[-97.23148,29.63701],[-97.23232,29.63619],[-97.23262,29.63527],[-97.23533,29.63255],[-97.23585,29.63153],[-97.23553,29.62963],[-97.2367,29.62892],[-97.23659,29.62778],[-97.23902,29.62564],[-97.23951,29.62429],[-97.23908,29.62329],[-97.23936,29.62205],[-97.23836,29.62141],[-97.23783,29.6202],[-97.23798,29.61915],[-97.23738,29.61867],[-97.23742,29.61741],[-97.23862,29.61554],[-97.23838,29.61428],[-97.2388,29.61384],[-97.23884,29.61344],[-97.24317,29.61568],[-97.24292,29.6065],[-97.24317,29.60617],[-97.24238,29.60469],[-97.24205,29.59603],[-97.22912,29.5961],[-97.22922,29.61359],[-97.20803,29.61376],[-97.20235,29.60965],[-97.19451,29.60513],[-97.19187,29.60287],[-97.18432,29.59741],[-97.18332,29.59646],[-97.17768,29.58875],[-97.17675,29.58784],[-97.17521,29.5896],[-97.17389,29.59055],[-97.17218,29.59121],[-97.16992,29.59156],[-97.16944,29.5951],[-97.16712,29.60168],[-97.1669,29.60393],[-97.16665,29.60416],[-97.16582,29.60417],[-97.16576,29.60671],[-97.16472,29.60878],[-97.16716,29.60896],[-97.16721,29.60944],[-97.1484,29.62414],[-97.14264,29.6281],[-97.04938,29.62955],[-97.04921,29.63016],[-97.04894,29.63005],[-97.04068,29.63151],[-97.03983,29.63274],[-97.03694,29.63508],[-97.03552,29.63479],[-97.03179,29.63499],[-97.03215,29.65054],[-97.03537,29.65089],[-97.03598,29.65437],[-97.03946,29.65411],[-97.03984,29.67244],[-97.04631,29.67266],[-97.04636,29.67973],[-97.04847,29.67977],[-97.04845,29.7004],[-97.05211,29.7005],[-97.05225,29.70895],[-97.05288,29.71045],[-97.05298,29.72002],[-97.04863,29.72011],[-97.04909,29.73501],[-97.05457,29.73483],[-97.05465,29.74614],[-97.06065,29.74219],[-97.0615,29.74117],[-97.0619,29.74012],[-97.0667,29.74007],[-97.06527,29.74541],[-97.0569,29.77034],[-97.07266,29.77002],[-97.08481,29.76941],[-97.10173,29.76943],[-97.0994,29.77404],[-97.09896,29.78175],[-97.09863,29.78343],[-97.09472,29.79054],[-97.09497,29.79066],[-97.09523,29.79021],[-97.09775,29.79046],[-97.09838,29.79066],[-97.09967,29.79164],[-97.10373,29.79175],[-97.13194,29.79132],[-97.1327,29.79338],[-97.13411,29.79574],[-97.1355,29.79703],[-97.13607,29.79923],[-97.13848,29.80342],[-97.13885,29.80524],[-97.13889,29.80851],[-97.13958,29.81151],[-97.13898,29.81859],[-97.13769,29.82215],[-97.1369,29.834],[-97.13621,29.83558],[-97.14209,29.83549],[-97.14183,29.83398],[-97.14191,29.83143],[-97.14363,29.82985],[-97.14454,29.82979],[-97.14556,29.82981],[-97.14563,29.83013],[-97.14666,29.83005],[-97.14762,29.83134],[-97.14788,29.8328],[-97.14772,29.83369],[-97.14785,29.83541],[-97.15167,29.83536],[-97.15408,29.83565],[-97.15337,29.86233],[-97.15432,29.86212],[-97.15456,29.86238],[-97.16536,29.86529],[-97.16546,29.88295],[-97.17446,29.88289],[-97.17462,29.89599],[-97.19422,29.89571],[-97.1946,29.92013],[-97.19387,29.92217],[-97.18796,29.92993],[-97.18455,29.93712],[-97.18515,29.93772],[-97.1856,29.93777],[-97.18651,29.93847],[-97.18806,29.93838],[-97.1882,29.93898],[-97.18857,29.93903],[-97.18959,29.9391],[-97.19052,29.93877],[-97.19136,29.93932],[-97.19172,29.94012],[-97.21995,29.93968],[-97.21998,29.93491],[-97.21955,29.93263],[-97.22123,29.92359],[-97.22183,29.9217],[-97.22137,29.90243],[-97.22164,29.90228],[-97.2335,29.90228],[-97.23408,29.90203],[-97.23437,29.90159],[-97.23433,29.89904],[-97.23453,29.89885],[-97.24089,29.89869],[-97.24037,29.88213],[-97.24011,29.88189],[-97.23788,29.88182],[-97.2377,29.87321],[-97.23787,29.87173],[-97.23841,29.87121],[-97.24632,29.86852],[-97.24369,29.86516],[-97.24318,29.86341],[-97.239,29.85623],[-97.25839,29.83855],[-97.25403,29.83875],[-97.25312,29.84061],[-97.2504,29.84078],[-97.25027,29.84272],[-97.23729,29.84301],[-97.23707,29.83529],[-97.23207,29.8352],[-97.2272,29.82212],[-97.22658,29.82106],[-97.22614,29.80194],[-97.22684,29.80264],[-97.24227,29.80259],[-97.25994,29.80217],[-97.25957,29.79881],[-97.2593,29.79195],[-97.26032,29.79138],[-97.26061,29.78928],[-97.26117,29.78769]]]},"properties":{"zip_code":"78941","county":"Fayette"}}]}