{"type":"FeatureCollection","features":[{"type":"Feature","geometry":{"type":"Polygon","coordinates":[[[-96.86731,30.07946],[-96.86442,30.07711],[-96.86514,30.07587],[-96.86414,30.07466],[-96.86688,30.07272],[-96.8564,30.05487],[-96.86148,30.05083],[-96.86154,30.04767],[-96.86077,30.04699],[-96.85891,30.04782],[-96.85672,30.04768],[-96.84823,30.04377],[-96.83918,30.04358],[-96.83604,30.04233],[-96.83363,30.04049],[-96.8368,30.03607],[-96.83093,30.03127],[-96.83372,30.02824],[-96.81618,30.01434],[-96.81442,30.01587],[-96.81336,30.01515],[-96.80812,30.02019],[-96.8098,30.02133],[-96.78591,30.044],[-96.80289,30.05728],[-96.79718,30.06275],[-96.79444,30.06199],[-96.79195,30.06309],[-96.78692,30.05959],[-96.7833,30.06308],[-96.78016,30.0607],[-96.77535,30.06542],[-96.76881,30.06044],[-96.76665,30.06275],[-96.76084,30.06368],[-96.75913,30.06544],[-96.75565,30.06306],[-96.75237,30.06506],[-96.74521,30.05949],[-96.74399,30.06012],[-96.74163,30.05821],[-96.73106,30.06796],[-96.72501,30.06343],[-96.71968,30.06838],[-96.72142,30.0721],[-96.72421,30.07137],[-96.72774,30.07205],[-96.72937,30.0726],[-96.73151,30.07512],[-96.73322,30.07535],[-96.73339,30.08263],[-96.73149,30.08591],[-96.7369,30.08907],[-96.7379,30.09076],[-96.73743,30.09369],[-96.73877,30.0947],[-96.73896,30.09633],[-96.74097,30.09926],[-96.7425,30.10035],[-96.74843,30.10239],[-96.75788,30.09807],[-96.75891,30.10116],[-96.76794,30.10482],[-96.77154,30.11057],[-96.77526,30.113],[-96.77913,30.11177],[-96.78417,30.10723],[-96.78646,30.10868],[-96.78714,30.11358],[-96.78527,30.11622],[-96.78864,30.11869],[-96.78843,30.12119],[-96.79111,30.12206],[-96.79158,30.1252],[-96.79247,30.12624],[-96.79202,30.14401],[-96.79258,30.14883],[-96.79204,30.15001],[-96.79108,30.14964],[-96.79062,30.15057],[-96.78497,30.1482],[-96.78067,30.1521],[-96.77302,30.14947],[-96.76694,30.13875],[-96.76591,30.13903],[-96.75981,30.13397],[-96.75646,30.12964],[-96.75091,30.136],[-96.74723,30.14417],[-96.73545,30.14739],[-96.73214,30.14702],[-96.7467,30.15823],[-96.74532,30.15949],[-96.76172,30.17162],[-96.76904,30.17829],[-96.74151,30.19743],[-96.7418,30.19979],[-96.73991,30.20315],[-96.74073,30.20574],[-96.73985,30.20682],[-96.74112,30.20769],[-96.74071,30.20886],[-96.74172,30.21064],[-96.7406,30.21215],[-96.74204,30.21211],[-96.74206,30.21343],[-96.74314,30.21319],[-96.74262,30.21439],[-96.74331,30.21449],[-96.74399,30.21731],[-96.73904,30.22235],[-96.74023,30.22403],[-96.74141,30.22339],[-96.74136,30.22637],[-96.74254,30.227],[-96.73848,30.23101],[-96.73863,30.23248],[-96.73697,30.23188],[-96.73721,30.23322],[-96.73612,30.23536],[-96.73704,30.23623],[-96.73607,30.237],[-96.73524,30.2365],[-96.73483,30.23829],[-96.73402,30.23871],[-96.73534,30.23966],[-96.73407,30.24021],[-96.73448,30.24147],[-96.73304,30.24195],[-96.73165,30.24389],[-96.72992,30.24314],[-96.72893,30.24414],[-96.72795,30.24346],[-96.72651,30.24379],[-96.72529,30.24691],[-96.72311,30.24593],[-96.72202,30.24682],[-96.72177,30.24846],[-96.72099,30.24822],[-96.71831,30.25051],[-96.71512,30.24962],[-96.71482,30.25105],[-96.71383,30.24851],[-96.71442,30.24728],[-96.71232,30.24763],[-96.71214,30.24633],[-96.71088,30.24545],[-96.70774,30.24539],[-96.70663,30.24463],[-96.70575,30.24586],[-96.70157,30.24733],[-96.70059,30.24955],[-96.69711,30.24899],[-96.69656,30.25007],[-96.69528,30.24934],[-96.69439,30.25044],[-96.69269,30.24863],[-96.69104,30.24824],[-96.68899,30.24863],[-96.68727,30.248],[-96.68554,30.24895],[-96.68415,30.25037],[-96.6852,30.25105],[-96.68457,30.25219],[-96.68584,30.25252],[-96.68456,30.25296],[-96.68432,30.25451],[-96.68527,30.25601],[-96.68423,30.25795],[-96.68305,30.25815],[-96.68282,30.25894],[-96.67992,30.25898],[-96.67888,30.26323],[-96.67771,30.26387],[-96.67662,30.26672],[-96.67398,30.26611],[-96.67306,30.26747],[-96.67188,30.26743],[-96.67141,30.26851],[-96.67236,30.26905],[-96.67081,30.26937],[-96.66968,30.2715],[-96.66998,30.27387],[-96.66877,30.27568],[-96.66541,30.27779],[-96.66477,30.27737],[-96.6615,30.27875],[-96.66178,30.27998],[-96.66053,30.28108],[-96.66161,30.28132],[-96.66095,30.28205],[-96.65976,30.28185],[-96.6606,30.28269],[-96.65952,30.28259],[-96.66039,30.28491],[-96.65789,30.28778],[-96.65422,30.2875],[-96.65316,30.28981],[-96.65038,30.29076],[-96.65007,30.292],[-96.64568,30.29143],[-96.64421,30.29327],[-96.64223,30.29355],[-96.64204,30.29549],[-96.64059,30.29672],[-96.64239,30.29707],[-96.64294,30.29826],[-96.64353,30.29704],[-96.64457,30.29683],[-96.64825,30.29826],[-96.64849,30.30014],[-96.65038,30.29912],[-96.65157,30.30062],[-96.6524,30.30024],[-96.65212,30.29927],[-96.6543,30.29946],[-96.65465,30.30021],[-96.65898,30.29932],[-96.65972,30.29874],[-96.65896,30.29779],[-96.6609,30.29801],[-96.66336,30.29561],[-96.66563,30.29648],[-96.66579,30.29721],[-96.66784,30.29718],[-96.6681,30.29836],[-96.66934,30.29902],[-96.66883,30.29967],[-96.67043,30.30005],[-96.67061,30.30075],[-96.66941,30.30324],[-96.67122,30.30261],[-96.67129,30.30369],[-96.67297,30.30454],[-96.6738,30.30393],[-96.67522,30.30535],[-96.67339,30.30652],[-96.6735,30.30761],[-96.67598,30.30769],[-96.67792,30.30981],[-96.68243,30.30922],[-96.68347,30.31136],[-96.68388,30.31032],[-96.68549,30.3116],[-96.68685,30.31714],[-96.69468,30.32019],[-96.69934,30.32076],[-96.70144,30.31959],[-96.70283,30.32037],[-96.70725,30.31759],[-96.71007,30.31872],[-96.71171,30.31807],[-96.71217,30.3189],[-96.71636,30.32015],[-96.71791,30.31978],[-96.71846,30.31871],[-96.72172,30.31857],[-96.72137,30.31945],[-96.72504,30.32175],[-96.72581,30.32332],[-96.72675,30.32298],[-96.73077,30.32429],[-96.73161,30.32309],[-96.73279,30.32413],[-96.73217,30.32309],[-96.73337,30.32259],[-96.73444,30.32371],[-96.73441,30.32203],[-96.73778,30.32089],[-96.73651,30.31996],[-96.7372,30.31912],[-96.73844,30.3205],[-96.73885,30.31926],[-96.74034,30.31865],[-96.74153,30.31963],[-96.74439,30.31885],[-96.74577,30.31896],[-96.74619,30.31974],[-96.74698,30.31956],[-96.74687,30.31855],[-96.74851,30.31907],[-96.74922,30.31834],[-96.74994,30.31866],[-96.74978,30.31964],[-96.75195,30.31878],[-96.75332,30.31965],[-96.75358,30.32096],[-96.75474,30.32119],[-96.75696,30.31945],[-96.75765,30.32023],[-96.75876,30.3192],[-96.76243,30.31902],[-96.7643,30.32234],[-96.76638,30.32374],[-96.76694,30.32544],[-96.77013,30.32521],[-96.77232,30.32712],[-96.77592,30.32538],[-96.78004,30.32531],[-96.78328,30.32378],[-96.78397,30.32268],[-96.78566,30.32289],[-96.78651,30.32164],[-96.783,30.3161],[-96.78044,30.30695],[-96.77912,30.29557],[-96.7802,30.29281],[-96.78294,30.29516],[-96.79441,30.28604],[-96.78619,30.27856],[-96.80226,30.26388],[-96.79509,30.25723],[-96.80424,30.24973],[-96.8089,30.25053],[-96.80835,30.25303],[-96.80917,30.25424],[-96.80759,30.25554],[-96.82059,30.26683],[-96.81931,30.26866],[-96.82745,30.26342],[-96.81684,30.25454],[-96.82167,30.24998],[-96.81801,30.24683],[-96.81916,30.24539],[-96.81598,30.24277],[-96.82318,30.24214],[-96.83226,30.24295],[-96.8415,30.23503],[-96.84555,30.23647],[-96.84858,30.23554],[-96.8643,30.23532],[-96.86045,30.23055],[-96.85998,30.2286],[-96.85776,30.22857],[-96.84606,30.21919],[-96.83019,30.19539],[-96.81858,30.18261],[-96.81917,30.17225],[-96.81767,30.17083],[-96.82532,30.16338],[-96.81263,30.15908],[-96.81415,30.15788],[-96.81141,30.15506],[-96.81254,30.14931],[-96.81052,30.14672],[-96.82657,30.13167],[-96.81908,30.12502],[-96.82606,30.11543],[-96.82437,30.11305],[-96.82604,30.10442],[-96.83433,30.0965],[-96.83656,30.09672],[-96.83911,30.09431],[-96.8446,30.09853],[-96.84763,30.09845],[-96.86731,30.07946]]]},"properties":{"zip_code":"78946","county":"Lee"}}]}