{"type":"FeatureCollection","features":[{"type":"Feature","geometry":{"type":"Polygon","coordinates":[[[-97.08331,30.30518],[-97.08176,30.30119],[-97.07917,30.298],[-97.07408,30.29554],[-97.071,30.29126],[-97.05908,30.288],[-97.05832,30.28528],[-97.05956,30.28459],[-97.05813,30.28347],[-97.05959,30.28218],[-97.05856,30.28143],[-97.05843,30.27996],[-97.05544,30.27959],[-97.05576,30.27856],[-97.05413,30.27638],[-97.0499,30.27492],[-97.05096,30.27313],[-97.05445,30.27352],[-97.05355,30.27205],[-97.05463,30.27118],[-97.05366,30.26992],[-97.05429,30.26777],[-97.05817,30.26575],[-97.05923,30.26433],[-97.05795,30.25756],[-97.05676,30.25699],[-97.05287,30.25788],[-97.05033,30.25238],[-97.04324,30.24716],[-97.04047,30.24086],[-97.0351,30.23869],[-97.03148,30.23056],[-97.02074,30.2327],[-97.01643,30.22937],[-96.99217,30.23365],[-96.99257,30.24252],[-96.99036,30.2455],[-97.01144,30.26292],[-97.01063,30.27],[-97.03132,30.27742],[-97.03108,30.2785],[-97.03301,30.28322],[-97.02843,30.28483],[-97.02774,30.28352],[-97.02247,30.28583],[-97.0068,30.29036],[-97.00556,30.29587],[-97.00424,30.29816],[-97.00204,30.29981],[-97.00026,30.29955],[-96.99798,30.294],[-96.99428,30.29469],[-96.99484,30.29572],[-96.99428,30.29682],[-96.9884,30.29726],[-96.98763,30.29511],[-96.98452,30.29554],[-96.98479,30.29423],[-96.98305,30.29215],[-96.98806,30.28625],[-96.9921,30.28325],[-96.99812,30.2828],[-97.00008,30.28115],[-97.00261,30.28158],[-97.00539,30.28122],[-97.00606,30.28047],[-97.00836,30.2807],[-97.01063,30.27],[-97.00085,30.26827],[-96.98972,30.26919],[-96.97011,30.27235],[-96.94359,30.26903],[-96.94218,30.26359],[-96.9355,30.26341],[-96.93558,30.26524],[-96.93041,30.26438],[-96.93151,30.25906],[-96.92541,30.25823],[-96.92597,30.25519],[-96.92394,30.25492],[-96.92398,30.25302],[-96.92167,30.25264],[-96.92036,30.25929],[-96.91401,30.25739],[-96.91034,30.25686],[-96.90917,30.25753],[-96.89871,30.2487],[-96.88651,30.2664],[-96.89242,30.27163],[-96.89016,30.27669],[-96.89717,30.28256],[-96.89872,30.28273],[-96.90245,30.28579],[-96.90348,30.2858],[-96.90643,30.29219],[-96.9038,30.29476],[-96.90135,30.2957],[-96.90043,30.29761],[-96.8977,30.2987],[-96.89932,30.30269],[-96.89874,30.30521],[-96.89742,30.30691],[-96.8953,30.30698],[-96.89063,30.31073],[-96.89034,30.31174],[-96.89126,30.31193],[-96.89071,30.31415],[-96.89156,30.31417],[-96.89179,30.31637],[-96.88971,30.31729],[-96.88781,30.31944],[-96.88548,30.31978],[-96.87897,30.3232],[-96.88571,30.32859],[-96.88643,30.32782],[-96.90117,30.34016],[-96.90304,30.33973],[-96.90385,30.34051],[-96.89959,30.3457],[-96.90577,30.36057],[-96.90809,30.35931],[-96.90796,30.35849],[-96.91279,30.35611],[-96.92055,30.35636],[-96.92478,30.35856],[-96.92587,30.37074],[-96.92458,30.37871],[-96.92577,30.38359],[-96.93157,30.39384],[-96.93111,30.40877],[-96.93795,30.40672],[-96.93673,30.40368],[-96.94251,30.40193],[-96.94091,30.39843],[-96.94624,30.3963],[-96.94221,30.38596],[-96.94837,30.38322],[-96.97498,30.37455],[-96.97384,30.37288],[-96.97483,30.37189],[-96.97224,30.36566],[-96.97468,30.36474],[-96.97422,30.36368],[-96.97734,30.36261],[-96.97526,30.35782],[-96.97994,30.35635],[-96.97666,30.34776],[-96.97794,30.34664],[-96.98023,30.34559],[-96.98182,30.34763],[-96.98383,30.3452],[-96.98483,30.34561],[-96.98779,30.34897],[-96.986,30.35053],[-96.98663,30.35202],[-96.98582,30.35335],[-96.9879,30.35407],[-96.99206,30.34787],[-96.99554,30.35008],[-96.99806,30.34863],[-97.00375,30.34796],[-97.00457,30.35005],[-97.00719,30.35027],[-97.00817,30.34781],[-97.00655,30.34721],[-97.00734,30.34115],[-97.02822,30.33428],[-97.02451,30.32518],[-97.03545,30.3224],[-97.03465,30.32017],[-97.04063,30.31826],[-97.04339,30.31794],[-97.0437,30.31886],[-97.05101,30.31592],[-97.05139,30.31684],[-97.05604,30.31611],[-97.05054,30.30327],[-97.05157,30.30227],[-97.05345,30.30493],[-97.05788,30.30688],[-97.05857,30.30594],[-97.06029,30.30629],[-97.061,30.30445],[-97.06345,30.30354],[-97.06335,30.30166],[-97.06546,30.30175],[-97.06795,30.30065],[-97.06982,30.30095],[-97.07141,30.29919],[-97.0727,30.30061],[-97.07824,30.30263],[-97.07962,30.30185],[-97.08167,30.30595],[-97.08331,30.30518]]]},"properties":{"zip_code":"78948","county":"Lee"}}]}