{"type":"FeatureCollection","features":[{"type":"Feature","geometry":{"type":"Polygon","coordinates":[[[-97.19423,29.89678],[-97.19422,29.89571],[-97.17462,29.89599],[-97.17446,29.88289],[-97.16546,29.88295],[-97.16536,29.86529],[-97.15337,29.86233],[-97.15408,29.83565],[-97.14785,29.83541],[-97.14762,29.83134],[-97.14666,29.83005],[-97.14454,29.82979],[-97.14191,29.83143],[-97.14209,29.83549],[-97.13621,29.83558],[-97.13958,29.81151],[-97.13848,29.80342],[-97.13194,29.79132],[-97.10373,29.79175],[-97.09472,29.79054],[-97.09863,29.78343],[-97.0994,29.77404],[-97.10173,29.76943],[-97.0569,29.77034],[-97.0667,29.74007],[-97.0619,29.74012],[-97.06065,29.74219],[-97.05465,29.74614],[-97.05457,29.73483],[-97.04928,29.73507],[-97.04918,29.74732],[-97.02394,29.74785],[-97.02599,29.74809],[-97.02695,29.76705],[-97.01442,29.7672],[-97.01458,29.78029],[-97.01314,29.78043],[-97.01244,29.77845],[-97.01159,29.76958],[-97.00809,29.76965],[-97.00853,29.7615],[-96.99323,29.76162],[-96.99326,29.76405],[-96.9838,29.76463],[-96.98364,29.77713],[-96.98943,29.77735],[-96.98955,29.77929],[-96.99055,29.78023],[-96.99078,29.79004],[-96.99863,29.79019],[-96.9988,29.80183],[-96.99112,29.80694],[-96.9981,29.80719],[-96.99828,29.82077],[-96.99624,29.82126],[-96.99596,29.82239],[-96.99687,29.82274],[-96.99724,29.83152],[-96.99659,29.83269],[-97.00007,29.83445],[-97.0033,29.83777],[-97.00472,29.84274],[-97.00528,29.86448],[-97.00655,29.86294],[-97.00942,29.86251],[-97.00979,29.85974],[-97.00889,29.85736],[-97.00945,29.85527],[-97.01447,29.85322],[-97.01502,29.85438],[-97.01765,29.85468],[-97.01942,29.85136],[-97.02202,29.85086],[-97.02189,29.84921],[-97.02328,29.84772],[-97.02273,29.846],[-97.02423,29.84415],[-97.02626,29.8447],[-97.02747,29.84383],[-97.03698,29.84317],[-97.0333,29.85394],[-97.0324,29.86069],[-97.0297,29.87092],[-97.0334,29.87086],[-97.03404,29.87162],[-97.03575,29.88046],[-97.03409,29.89343],[-97.03659,29.90027],[-97.03724,29.90555],[-97.03796,29.90472],[-97.04721,29.90301],[-97.04839,29.90094],[-97.04884,29.8962],[-97.05154,29.8953],[-97.05675,29.88571],[-97.05969,29.88714],[-97.06058,29.88927],[-97.06076,29.88669],[-97.08649,29.88715],[-97.08758,29.89471],[-97.08797,29.89352],[-97.09062,29.89357],[-97.09286,29.89727],[-97.09183,29.89789],[-97.09176,29.90683],[-97.09,29.90685],[-97.09064,29.90999],[-97.0918,29.91161],[-97.09481,29.91256],[-97.09521,29.91715],[-97.0975,29.92191],[-97.09937,29.92326],[-97.14134,29.92338],[-97.14164,29.91954],[-97.12653,29.91978],[-97.12609,29.91649],[-97.12351,29.91595],[-97.12155,29.91721],[-97.12156,29.91173],[-97.1274,29.91134],[-97.12765,29.91352],[-97.13713,29.91331],[-97.13656,29.90922],[-97.14564,29.90883],[-97.15533,29.9107],[-97.15829,29.91447],[-97.162,29.91483],[-97.16182,29.91938],[-97.16583,29.92006],[-97.16382,29.92188],[-97.16403,29.92299],[-97.16535,29.92297],[-97.19423,29.89678]]]},"properties":{"zip_code":"78949","county":"Fayette"}}]}