{"type":"FeatureCollection","features":[{"type":"Feature","geometry":{"type":"MultiPolygon","coordinates":[[[[-97.06357,30.07664],[-97.0638,30.07619],[-97.06168,30.07614],[-97.06134,30.07582],[-97.0603,30.04205],[-97.0343,30.04239],[-97.02446,30.05144],[-97.01916,30.032],[-97.01111,30.03617],[-96.98714,30.04779],[-96.98438,30.04884],[-96.98319,30.0496],[-96.97093,30.06363],[-96.96897,30.06232],[-96.96661,30.05868],[-96.96631,30.05786],[-96.93491,30.07314],[-96.93427,30.07252],[-96.93235,30.06754],[-96.93103,30.06557],[-96.93136,30.06517],[-96.9369,30.06245],[-96.93776,30.06189],[-96.93826,30.06093],[-96.93892,30.06033],[-96.94081,30.0596],[-96.94126,30.05918],[-96.94149,30.05836],[-96.94125,30.05765],[-96.93964,30.05615],[-96.93911,30.05526],[-96.93879,30.05255],[-96.93919,30.05272],[-96.94094,30.05251],[-96.94756,30.05303],[-96.94978,30.05088],[-96.95345,30.04956],[-96.95401,30.04955],[-96.9561,30.05064],[-96.95582,30.04967],[-96.95411,30.04766],[-96.95349,30.04587],[-96.95024,30.04448],[-96.94986,30.04525],[-96.93546,30.03891],[-96.92512,30.04206],[-96.91928,30.04052],[-96.91525,30.04152],[-96.91466,30.04325],[-96.91397,30.04347],[-96.91423,30.05143],[-96.89915,30.05434],[-96.8853,30.058],[-96.88298,30.05888],[-96.88216,30.05894],[-96.86245,30.06503],[-96.86688,30.07272],[-96.86416,30.07456],[-96.86514,30.07587],[-96.86437,30.077],[-96.86729,30.0795],[-96.84763,30.09845],[-96.8446,30.09853],[-96.83911,30.09431],[-96.83656,30.09672],[-96.83602,30.09682],[-96.83502,30.09633],[-96.83433,30.0965],[-96.82604,30.10442],[-96.82437,30.11305],[-96.82451,30.11382],[-96.82604,30.11512],[-96.82606,30.11543],[-96.8247,30.11676],[-96.81908,30.12502],[-96.82657,30.13167],[-96.81816,30.13926],[-96.81863,30.1397],[-96.81052,30.14672],[-96.81114,30.14791],[-96.81218,30.14849],[-96.81254,30.14931],[-96.81228,30.15099],[-96.81238,30.1522],[-96.81146,30.1533],[-96.81141,30.15506],[-96.81241,30.15651],[-96.81415,30.15788],[-96.81307,30.15847],[-96.81263,30.15908],[-96.82131,30.16248],[-96.82532,30.16338],[-96.82346,30.16564],[-96.81767,30.17083],[-96.81917,30.17225],[-96.81858,30.18261],[-96.83019,30.19539],[-96.84606,30.21919],[-96.85776,30.22857],[-96.85839,30.22853],[-96.85889,30.22894],[-96.85944,30.22897],[-96.85998,30.2286],[-96.86025,30.22898],[-96.86045,30.23055],[-96.86237,30.23294],[-96.86243,30.23337],[-96.8631,30.23343],[-96.86359,30.2344],[-96.86424,30.23487],[-96.8643,30.23532],[-96.85859,30.23496],[-96.84858,30.23554],[-96.84555,30.23647],[-96.8415,30.23503],[-96.83434,30.24151],[-96.83226,30.24295],[-96.82901,30.2423],[-96.82318,30.24214],[-96.82,30.2422],[-96.81598,30.24277],[-96.81916,30.24539],[-96.81801,30.24683],[-96.82167,30.24998],[-96.81684,30.25454],[-96.82745,30.26342],[-96.81931,30.26866],[-96.81898,30.26835],[-96.82059,30.26683],[-96.80759,30.25554],[-96.80917,30.25424],[-96.80835,30.25303],[-96.8089,30.25053],[-96.80424,30.24973],[-96.79509,30.25723],[-96.80226,30.26388],[-96.78975,30.27509],[-96.78626,30.27842],[-96.78625,30.27873],[-96.79153,30.28323],[-96.79295,30.28379],[-96.79341,30.28475],[-96.7941,30.28534],[-96.79614,30.28624],[-96.79836,30.28778],[-96.80012,30.28948],[-96.80211,30.29097],[-96.80323,30.29137],[-96.80591,30.29035],[-96.8074,30.29038],[-96.81446,30.29623],[-96.8153,30.29642],[-96.81614,30.29759],[-96.81763,30.2985],[-96.81797,30.29918],[-96.81909,30.30005],[-96.81617,30.3031],[-96.81964,30.30611],[-96.81804,30.30782],[-96.81741,30.30884],[-96.81739,30.30933],[-96.81826,30.30987],[-96.81945,30.30948],[-96.81955,30.31035],[-96.82076,30.31056],[-96.82253,30.31013],[-96.82283,30.30976],[-96.82174,30.30884],[-96.82216,30.30857],[-96.82341,30.30887],[-96.82254,30.30767],[-96.82254,30.30729],[-96.82299,30.30726],[-96.82555,30.3091],[-96.82742,30.30914],[-96.82795,30.30871],[-96.82842,30.30869],[-96.82935,30.30898],[-96.83056,30.30988],[-96.83188,30.30979],[-96.83236,30.31011],[-96.8327,30.31098],[-96.83402,30.31215],[-96.83613,30.31231],[-96.83642,30.31251],[-96.83608,30.31318],[-96.83629,30.31348],[-96.83991,30.31398],[-96.8431,30.31265],[-96.84458,30.31281],[-96.84508,30.31332],[-96.84529,30.31396],[-96.84645,30.31396],[-96.84606,30.31474],[-96.84717,30.31559],[-96.84751,30.3166],[-96.84857,30.31724],[-96.84851,30.31783],[-96.84917,30.31902],[-96.84891,30.31962],[-96.8497,30.32015],[-96.84981,30.32067],[-96.8497,30.32095],[-96.84901,30.32129],[-96.84954,30.32271],[-96.8497,30.32427],[-96.85055,30.32503],[-96.85025,30.32592],[-96.85147,30.32526],[-96.85129,30.32335],[-96.8515,30.32322],[-96.8529,30.32384],[-96.85514,30.32439],[-96.85517,30.32498],[-96.85709,30.3253],[-96.85736,30.32604],[-96.8582,30.32691],[-96.8586,30.32681],[-96.85928,30.32611],[-96.85992,30.32677],[-96.86071,30.32695],[-96.8609,30.32686],[-96.86092,30.32535],[-96.8615,30.32542],[-96.86214,30.32611],[-96.86414,30.32533],[-96.86568,30.32563],[-96.86515,30.3248],[-96.86562,30.32466],[-96.86554,30.32361],[-96.86602,30.32315],[-96.86639,30.32315],[-96.86713,30.32402],[-96.86747,30.32404],[-96.86782,30.32354],[-96.86874,30.32306],[-96.86974,30.32393],[-96.86974,30.32443],[-96.87043,30.32457],[-96.87064,30.32524],[-96.87114,30.32528],[-96.87154,30.32475],[-96.87149,30.32434],[-96.87117,30.32411],[-96.87141,30.3237],[-96.87281,30.32368],[-96.8736,30.32427],[-96.8745,30.32347],[-96.87487,30.32272],[-96.87526,30.3226],[-96.87613,30.32285],[-96.87658,30.32258],[-96.87719,30.32334],[-96.8792,30.3232],[-96.88018,30.32251],[-96.88194,30.32198],[-96.88242,30.32146],[-96.88308,30.32132],[-96.88369,30.32079],[-96.88511,30.32043],[-96.88543,30.32024],[-96.88548,30.31978],[-96.88781,30.31944],[-96.8886,30.31846],[-96.88926,30.31811],[-96.88971,30.31729],[-96.89179,30.31637],[-96.89203,30.31589],[-96.89156,30.31417],[-96.89084,30.31424],[-96.89066,30.31387],[-96.89111,30.31312],[-96.89126,30.31193],[-96.89034,30.31174],[-96.89031,30.31137],[-96.89097,30.31023],[-96.89251,30.30892],[-96.89441,30.30833],[-96.89472,30.30746],[-96.8953,30.30698],[-96.89615,30.30668],[-96.89742,30.30691],[-96.89874,30.30521],[-96.89868,30.30393],[-96.89924,30.30319],[-96.89932,30.30269],[-96.8985,30.30168],[-96.89842,30.30001],[-96.8977,30.29891],[-96.89781,30.29855],[-96.90043,30.29761],[-96.90098,30.29607],[-96.90135,30.2957],[-96.90269,30.29495],[-96.9038,30.29476],[-96.90446,30.29387],[-96.90643,30.29219],[-96.90561,30.2915],[-96.90489,30.28791],[-96.90348,30.2858],[-96.90245,30.28579],[-96.89872,30.28273],[-96.89717,30.28256],[-96.89016,30.27669],[-96.89065,30.27586],[-96.89097,30.27399],[-96.89241,30.27261],[-96.89242,30.27163],[-96.88651,30.2664],[-96.88658,30.26598],[-96.89006,30.26109],[-96.89034,30.26104],[-96.89005,30.26083],[-96.89871,30.2487],[-96.90917,30.25753],[-96.91034,30.25686],[-96.91401,30.25739],[-96.91556,30.25767],[-96.91802,30.25866],[-96.92036,30.25929],[-96.92167,30.25264],[-96.92398,30.25302],[-96.92421,30.25322],[-96.92394,30.25492],[-96.92597,30.25519],[-96.92541,30.25823],[-96.93151,30.25906],[-96.93041,30.26438],[-96.93558,30.26524],[-96.9355,30.26341],[-96.94218,30.26359],[-96.94359,30.26903],[-96.95062,30.26953],[-96.97011,30.27235],[-96.97322,30.27148],[-96.97648,30.27138],[-96.97874,30.2707],[-96.98159,30.2705],[-96.98972,30.26919],[-97.00085,30.26827],[-97.00673,30.26895],[-97.01063,30.27],[-97.01144,30.26292],[-96.99036,30.2455],[-96.99257,30.24252],[-96.99217,30.23365],[-97.01643,30.22937],[-97.02074,30.2327],[-97.02492,30.23176],[-97.02171,30.22681],[-97.02074,30.2259],[-97.01949,30.22518],[-97.02356,30.21549],[-97.02563,30.21548],[-97.02788,30.2127],[-97.02847,30.21079],[-97.02674,30.21004],[-97.01813,30.20871],[-97.01907,30.20289],[-97.01864,30.19935],[-97.01502,30.19871],[-97.01586,30.19324],[-97.0075,30.19204],[-97.00836,30.18516],[-97.01136,30.18403],[-97.01978,30.18306],[-97.02805,30.18286],[-97.03193,30.18354],[-97.03208,30.18289],[-97.03357,30.18318],[-97.03375,30.18268],[-97.035,30.18195],[-97.03819,30.17899],[-97.03864,30.17839],[-97.03881,30.17763],[-97.03932,30.17726],[-97.04095,30.17695],[-97.04197,30.17753],[-97.04471,30.17647],[-97.04478,30.17598],[-97.04416,30.17428],[-97.04443,30.17357],[-97.04402,30.17223],[-97.05162,30.17094],[-97.04959,30.16231],[-97.04884,30.16235],[-97.04768,30.16049],[-97.05419,30.1598],[-97.04821,30.13795],[-97.0549,30.13783],[-97.05904,30.1381],[-97.06321,30.13802],[-97.06138,30.07936],[-97.06155,30.07888],[-97.06315,30.07734],[-97.06357,30.07664]]],[[[-97.03301,30.28322],[-97.03108,30.2785],[-97.03166,30.27764],[-97.03132,30.27742],[-97.02517,30.27525],[-97.02139,30.2742],[-97.01784,30.27228],[-97.01418,30.27144],[-97.01063,30.27],[-97.00961,30.27375],[-97.00836,30.2807],[-97.00606,30.28047],[-97.00539,30.28122],[-97.00261,30.28158],[-97.00149,30.28116],[-97.00008,30.28115],[-96.99868,30.28203],[-96.99812,30.2828],[-96.99644,30.28289],[-96.99565,30.28251],[-96.99362,30.28341],[-96.9921,30.28325],[-96.99024,30.28497],[-96.98799,30.28633],[-96.98667,30.2886],[-96.98428,30.29134],[-96.98312,30.29207],[-96.98296,30.29253],[-96.9833,30.29308],[-96.98477,30.29417],[-96.98452,30.29554],[-96.98581,30.29548],[-96.98686,30.29488],[-96.98763,30.29511],[-96.9884,30.29726],[-96.99164,30.29655],[-96.99341,30.29689],[-96.99428,30.29682],[-96.99484,30.29572],[-96.9941,30.29515],[-96.99428,30.29469],[-96.99758,30.29398],[-96.99842,30.29416],[-96.99898,30.29528],[-96.99964,30.29799],[-97.00026,30.29876],[-97.00026,30.29955],[-97.00096,30.29996],[-97.00165,30.29992],[-97.00424,30.29816],[-97.0049,30.29619],[-97.00556,30.29587],[-97.0068,30.29036],[-97.02206,30.28578],[-97.02247,30.28583],[-97.02349,30.28542],[-97.02352,30.28508],[-97.02774,30.28352],[-97.02843,30.28483],[-97.03301,30.28322]]]]},"properties":{"zip_code":"78942","county":"Lee"}}]}