{"type":"FeatureCollection","features":[{"type":"Feature","geometry":{"type":"Polygon","coordinates":[[[-97.23662,30.42376],[-97.23116,30.41081],[-97.2221,30.41369],[-97.21805,30.41064],[-97.21662,30.40844],[-97.2102,30.40616],[-97.20753,30.40691],[-97.2032,30.40985],[-97.20134,30.40994],[-97.20071,30.40955],[-97.20002,30.40458],[-97.19753,30.4011],[-97.19605,30.40094],[-97.19151,30.40318],[-97.18934,30.39813],[-97.1884,30.39265],[-97.18539,30.38567],[-97.18064,30.3867],[-97.17661,30.38424],[-97.17461,30.3839],[-97.15994,30.38725],[-97.1594,30.38337],[-97.1608,30.38226],[-97.15852,30.37672],[-97.16123,30.37534],[-97.15727,30.36605],[-97.16995,30.36205],[-97.16724,30.35677],[-97.16962,30.3561],[-97.1685,30.35295],[-97.16427,30.35421],[-97.16119,30.34753],[-97.16708,30.34562],[-97.16563,30.34173],[-97.17566,30.33878],[-97.17774,30.34236],[-97.19296,30.33787],[-97.19168,30.33262],[-97.13723,30.29629],[-97.13626,30.29677],[-97.13493,30.30026],[-97.13284,30.30112],[-97.13138,30.30343],[-97.12872,30.30333],[-97.12696,30.30151],[-97.12527,30.30225],[-97.12566,30.30354],[-97.12469,30.30541],[-97.11759,30.30603],[-97.11613,30.30578],[-97.11531,30.30461],[-97.11022,30.30532],[-97.10541,30.30848],[-97.10113,30.30972],[-97.09992,30.30901],[-97.09778,30.30383],[-97.09406,30.30408],[-97.08759,30.30215],[-97.08601,30.30279],[-97.08666,30.30387],[-97.08167,30.30595],[-97.07962,30.30185],[-97.07824,30.30263],[-97.0727,30.30061],[-97.07141,30.29919],[-97.06982,30.30095],[-97.06795,30.30065],[-97.06546,30.30175],[-97.06335,30.30166],[-97.06345,30.30354],[-97.061,30.30445],[-97.06029,30.30629],[-97.05857,30.30594],[-97.05788,30.30688],[-97.05345,30.30493],[-97.05157,30.30227],[-97.05054,30.30327],[-97.05604,30.31611],[-97.05139,30.31684],[-97.05101,30.31592],[-97.0437,30.31886],[-97.04339,30.31794],[-97.04063,30.31826],[-97.03465,30.32017],[-97.03545,30.3224],[-97.02451,30.32518],[-97.02822,30.33428],[-97.00734,30.34115],[-97.00655,30.34721],[-97.00817,30.34781],[-97.00719,30.35027],[-97.00457,30.35005],[-97.00375,30.34796],[-96.99806,30.34863],[-96.99554,30.35008],[-96.99206,30.34787],[-96.9879,30.35407],[-96.98579,30.35314],[-96.98663,30.35202],[-96.986,30.35053],[-96.98771,30.3487],[-96.98422,30.3452],[-96.98182,30.34763],[-96.98023,30.34559],[-96.97733,30.34708],[-96.97666,30.34776],[-96.97994,30.35635],[-96.97526,30.35782],[-96.97734,30.36261],[-96.97422,30.36368],[-96.97468,30.36474],[-96.97224,30.36566],[-96.97483,30.37189],[-96.97384,30.37288],[-96.97498,30.37455],[-96.94837,30.38322],[-96.94221,30.38596],[-96.94624,30.3963],[-96.94091,30.39843],[-96.94251,30.40193],[-96.93673,30.40368],[-96.93795,30.40672],[-96.93111,30.40877],[-96.93185,30.39603],[-96.9107,30.40285],[-96.9087,30.3985],[-96.88527,30.40661],[-96.88511,30.40763],[-96.88939,30.41768],[-96.8889,30.42037],[-96.88435,30.42015],[-96.88091,30.42203],[-96.87803,30.42258],[-96.87756,30.42434],[-96.87404,30.42439],[-96.87303,30.42695],[-96.87381,30.42765],[-96.87039,30.42961],[-96.87076,30.43101],[-96.86939,30.43339],[-96.86806,30.434],[-96.87068,30.4355],[-96.87214,30.43796],[-96.87248,30.43899],[-96.87081,30.44163],[-96.87239,30.44447],[-96.87711,30.44769],[-96.87727,30.44937],[-96.87601,30.4488],[-96.87397,30.44943],[-96.87541,30.45064],[-96.87721,30.45023],[-96.8763,30.45261],[-96.87483,30.45323],[-96.87584,30.45536],[-96.87467,30.45622],[-96.87487,30.45767],[-96.87811,30.45715],[-96.87968,30.45808],[-96.87875,30.45921],[-96.8808,30.45954],[-96.88135,30.46105],[-96.88396,30.46193],[-96.88464,30.46138],[-96.88406,30.46066],[-96.88592,30.45985],[-96.887,30.46026],[-96.88718,30.46185],[-96.89398,30.45987],[-96.89605,30.46042],[-96.89855,30.45928],[-96.89987,30.46039],[-96.89798,30.46117],[-96.90011,30.46192],[-96.89994,30.46303],[-96.90172,30.46432],[-96.90174,30.46657],[-96.90272,30.46737],[-96.90475,30.46658],[-96.90445,30.46817],[-96.902,30.46804],[-96.902,30.46946],[-96.90575,30.46988],[-96.90523,30.47051],[-96.9058,30.4722],[-96.90489,30.47208],[-96.90384,30.47372],[-96.90188,30.48181],[-96.8967,30.48408],[-96.89577,30.48701],[-96.89668,30.48827],[-96.89591,30.4892],[-96.89773,30.48993],[-96.89983,30.49564],[-96.89931,30.49704],[-96.90123,30.49921],[-96.90415,30.50089],[-96.90874,30.502],[-96.90621,30.50321],[-96.90449,30.50748],[-96.9043,30.50864],[-96.90609,30.51264],[-96.90401,30.51283],[-96.90334,30.51216],[-96.90223,30.5142],[-96.90279,30.51493],[-96.90464,30.5142],[-96.90666,30.51446],[-96.90593,30.51584],[-96.90462,30.5159],[-96.90424,30.51884],[-96.9056,30.51862],[-96.90618,30.517],[-96.90797,30.51737],[-96.90893,30.52012],[-96.90833,30.52147],[-96.90912,30.52271],[-96.91038,30.5231],[-96.9111,30.52251],[-96.91238,30.5235],[-96.9119,30.52744],[-96.91342,30.52848],[-96.91305,30.53003],[-96.91444,30.53037],[-96.91633,30.53577],[-96.91842,30.53719],[-96.91891,30.53924],[-96.92072,30.53999],[-96.9224,30.53967],[-96.92571,30.54348],[-96.92651,30.54339],[-96.92692,30.5422],[-96.92922,30.54451],[-96.92975,30.54316],[-96.93297,30.54292],[-96.93666,30.5448],[-96.93904,30.54479],[-96.93953,30.54661],[-96.94165,30.54634],[-96.94308,30.547],[-96.94292,30.54535],[-96.94533,30.54326],[-96.94709,30.54469],[-96.94896,30.54503],[-96.94819,30.54646],[-96.94891,30.5478],[-96.95095,30.54737],[-96.95191,30.54866],[-96.95439,30.54925],[-96.95644,30.55125],[-96.95643,30.55219],[-96.95945,30.55137],[-96.9619,30.55195],[-96.96363,30.5572],[-97.15522,30.45734],[-97.22302,30.43657],[-97.21823,30.42538],[-97.22369,30.42356],[-97.22109,30.41751],[-97.22191,30.41725],[-97.22388,30.41893],[-97.22647,30.41982],[-97.22811,30.41948],[-97.23003,30.41744],[-97.23125,30.41989],[-97.23339,30.42016],[-97.23419,30.42145],[-97.23387,30.42213],[-97.22988,30.42324],[-97.23176,30.42571],[-97.2357,30.42626],[-97.23662,30.42376]]]},"properties":{"zip_code":"78947","county":"Lee"}}]}