{"type":"FeatureCollection","features":[{"type":"Feature","geometry":{"type":"Polygon","coordinates":[[[-97.06911,30.04274],[-97.06875,30.04106],[-97.06707,30.03647],[-97.06717,30.03335],[-97.06804,30.03134],[-97.06797,30.02937],[-97.0681,30.02889],[-97.06854,30.02857],[-97.06853,30.02821],[-97.06542,30.02477],[-97.0643,30.02479],[-97.06339,30.0253],[-97.06219,30.02454],[-97.06062,30.02294],[-97.06031,30.02226],[-97.06151,30.02151],[-97.06226,30.0207],[-97.06248,30.01915],[-97.06221,30.01886],[-97.06282,30.01741],[-97.06261,30.01712],[-97.05771,30.01555],[-97.05724,30.01518],[-97.05687,30.01463],[-97.05666,30.01356],[-97.0574,30.01152],[-97.05724,30.0101],[-97.05635,30.00781],[-97.05595,30.00739],[-97.05538,30.00714],[-97.05469,30.00723],[-97.05414,30.00778],[-97.05314,30.00962],[-97.05224,30.00994],[-97.05158,30.00959],[-97.05129,30.00895],[-97.0518,30.0062],[-97.05151,30.00455],[-97.05206,30.00359],[-97.05209,30.00205],[-97.05135,30.00143],[-97.04859,30.00047],[-97.04825,29.99981],[-97.04731,29.99938],[-97.04717,29.99871],[-97.04797,29.99697],[-97.04947,29.99535],[-97.05076,29.99457],[-97.05086,29.9937],[-97.05179,29.99409],[-97.05218,29.99473],[-97.05331,29.99551],[-97.05947,29.99599],[-97.06,29.9956],[-97.05989,29.99506],[-97.05908,29.99418],[-97.05634,29.99228],[-97.05545,29.99187],[-97.05326,29.99148],[-97.05113,29.98948],[-97.05095,29.98767],[-97.05058,29.98696],[-97.0509,29.98579],[-97.0515,29.9857],[-97.0535,29.98639],[-97.05456,29.98593],[-97.05487,29.98541],[-97.05493,29.98481],[-97.05466,29.98442],[-97.0534,29.98398],[-97.05322,29.98357],[-97.05259,29.98002],[-97.05159,29.97864],[-97.05104,29.97839],[-97.05048,29.97846],[-97.05009,29.97947],[-97.0503,29.98096],[-97.04956,29.98311],[-97.04914,29.98352],[-97.04782,29.98414],[-97.047,29.98423],[-97.04637,29.9854],[-97.04589,29.98561],[-97.04449,29.98616],[-97.04243,29.98629],[-97.04081,29.98529],[-97.03624,29.98418],[-97.03453,29.98416],[-97.03464,29.98375],[-97.03131,29.98278],[-97.0284,29.98107],[-97.02492,29.97824],[-97.02036,29.97565],[-97.01987,29.975],[-97.01963,29.97413],[-97.0197,29.97303],[-97.02006,29.97237],[-97.02163,29.97177],[-97.02214,29.97112],[-97.02243,29.97063],[-97.02256,29.96852],[-97.02448,29.96574],[-97.02663,29.96443],[-97.02716,29.96377],[-97.02757,29.96285],[-97.02749,29.96188],[-97.02693,29.96114],[-97.0243,29.95956],[-97.02206,29.95949],[-97.01987,29.96059],[-97.01376,29.95956],[-97.01137,29.95873],[-97.00921,29.95929],[-97.00716,29.96109],[-97.00628,29.96252],[-97.00464,29.96687],[-97.00377,29.96779],[-97.00018,29.97003],[-96.99685,29.97091],[-96.99685,29.97033],[-96.99485,29.97039],[-96.99288,29.96996],[-96.99201,29.96881],[-96.99058,29.9682],[-96.98883,29.96846],[-96.98719,29.96925],[-96.98496,29.97198],[-96.98441,29.97411],[-96.98423,29.97801],[-96.98333,29.98085],[-96.98273,29.98145],[-96.98068,29.98243],[-96.9756,29.98329],[-96.97309,29.98329],[-96.96942,29.98419],[-96.96801,29.98413],[-96.96692,29.98301],[-96.96654,29.98217],[-96.96636,29.98059],[-96.9668,29.97804],[-96.96827,29.97545],[-96.96825,29.97355],[-96.9688,29.97138],[-96.97125,29.96453],[-96.971,29.96266],[-96.97026,29.96184],[-96.96929,29.96143],[-96.96787,29.96132],[-96.96271,29.96347],[-96.95848,29.96398],[-96.95631,29.96451],[-96.95594,29.96247],[-96.95511,29.9515],[-96.95489,29.94029],[-96.94887,29.93631],[-96.95091,29.93454],[-96.96824,29.93716],[-96.96889,29.93654],[-96.96816,29.93601],[-96.96849,29.93556],[-96.97537,29.92913],[-96.9756,29.92845],[-96.97553,29.92149],[-96.98269,29.91493],[-96.98414,29.9138],[-96.98415,29.9146],[-96.98444,29.91482],[-96.99168,29.9147],[-96.99581,29.91487],[-96.99543,29.90139],[-96.99556,29.90045],[-96.99583,29.90028],[-96.99789,29.89396],[-96.99785,29.88645],[-96.99804,29.88605],[-96.99835,29.87409],[-96.99921,29.87428],[-97.00026,29.87389],[-97.00075,29.87341],[-97.00149,29.87325],[-97.0018,29.87238],[-97.00262,29.87167],[-97.00336,29.87137],[-97.00346,29.87098],[-97.00289,29.87014],[-97.00199,29.86965],[-97.00197,29.8694],[-97.00265,29.86881],[-97.00436,29.86883],[-97.00478,29.86778],[-97.00433,29.86739],[-97.00352,29.86762],[-97.00273,29.86668],[-97.00273,29.8662],[-97.00331,29.86551],[-97.00528,29.86448],[-97.00531,29.8498],[-97.00464,29.8498],[-97.00472,29.84274],[-97.0033,29.83777],[-97.00257,29.8376],[-97.00166,29.83674],[-97.00028,29.83503],[-97.00007,29.83445],[-96.99722,29.83338],[-96.99659,29.83269],[-96.99724,29.83152],[-96.99702,29.83012],[-96.99687,29.82274],[-96.99596,29.82239],[-96.99624,29.82126],[-96.99808,29.82109],[-96.99828,29.82077],[-96.99811,29.80723],[-96.99785,29.80705],[-96.99171,29.80713],[-96.99112,29.80694],[-96.9988,29.80183],[-96.99864,29.79023],[-96.99842,29.79004],[-96.99078,29.79004],[-96.99055,29.78023],[-96.98955,29.77929],[-96.98937,29.77728],[-96.96679,29.77689],[-96.96654,29.77671],[-96.96667,29.77978],[-96.96266,29.77999],[-96.96281,29.7876],[-96.95629,29.7877],[-96.95276,29.7867],[-96.95211,29.78912],[-96.95227,29.79715],[-96.94715,29.79725],[-96.94575,29.7991],[-96.93929,29.79916],[-96.93809,29.79952],[-96.9367,29.79921],[-96.93107,29.79928],[-96.93088,29.80515],[-96.91701,29.80549],[-96.91696,29.80386],[-96.91651,29.80372],[-96.91634,29.80075],[-96.91015,29.80062],[-96.90998,29.79148],[-96.88834,29.79484],[-96.88828,29.79395],[-96.88668,29.79432],[-96.86371,29.79486],[-96.86244,29.79456],[-96.8615,29.79388],[-96.86099,29.793],[-96.86065,29.79081],[-96.85893,29.78913],[-96.84508,29.78939],[-96.84323,29.78916],[-96.84145,29.78841],[-96.84042,29.78894],[-96.82157,29.78952],[-96.82032,29.79015],[-96.81949,29.79118],[-96.81935,29.7933],[-96.81883,29.79453],[-96.81798,29.79526],[-96.81681,29.79565],[-96.79668,29.79607],[-96.79651,29.78856],[-96.79618,29.78651],[-96.79609,29.7837],[-96.79568,29.78167],[-96.79496,29.77996],[-96.79309,29.77751],[-96.78301,29.76897],[-96.78156,29.76707],[-96.76875,29.7673],[-96.769,29.77586],[-96.74125,29.78787],[-96.73828,29.78753],[-96.72886,29.79185],[-96.72841,29.79132],[-96.72824,29.7928],[-96.72798,29.79217],[-96.72797,29.79109],[-96.72596,29.78818],[-96.72757,29.79091],[-96.72745,29.7923],[-96.72856,29.79487],[-96.7304,29.79766],[-96.73082,29.79873],[-96.73327,29.7996],[-96.73516,29.80127],[-96.73698,29.8045],[-96.74016,29.80833],[-96.74047,29.80897],[-96.7404,29.81197],[-96.73985,29.81363],[-96.73985,29.81467],[-96.74032,29.81545],[-96.74124,29.81608],[-96.74275,29.81646],[-96.74354,29.81638],[-96.74664,29.81532],[-96.75088,29.80854],[-96.75216,29.80695],[-96.75361,29.8061],[-96.75692,29.80494],[-96.75905,29.80574],[-96.7595,29.80633],[-96.76093,29.80942],[-96.76117,29.81136],[-96.76072,29.81203],[-96.75939,29.8129],[-96.75922,29.81428],[-96.75944,29.81532],[-96.76048,29.81678],[-96.76071,29.82155],[-96.76026,29.82247],[-96.75855,29.82435],[-96.75734,29.82682],[-96.75731,29.82895],[-96.75775,29.83071],[-96.75791,29.83126],[-96.75872,29.83223],[-96.7598,29.83289],[-96.763,29.83335],[-96.76871,29.83198],[-96.77063,29.83208],[-96.77641,29.83174],[-96.77728,29.83183],[-96.77904,29.83256],[-96.78287,29.83334],[-96.7792,29.83698],[-96.74637,29.8669],[-96.75058,29.87066],[-96.75016,29.87105],[-96.74881,29.87146],[-96.75251,29.87567],[-96.73112,29.89539],[-96.74566,29.88649],[-96.74938,29.88676],[-96.74976,29.88733],[-96.74968,29.88869],[-96.74945,29.88898],[-96.74889,29.88901],[-96.74684,29.88793],[-96.74619,29.8883],[-96.74595,29.88878],[-96.74646,29.89177],[-96.74568,29.89199],[-96.74528,29.89124],[-96.74479,29.89092],[-96.74362,29.8912],[-96.74346,29.89245],[-96.74422,29.89378],[-96.74425,29.89494],[-96.74343,29.89593],[-96.74191,29.89659],[-96.74125,29.89738],[-96.74147,29.89889],[-96.74307,29.90191],[-96.74307,29.90326],[-96.74252,29.90361],[-96.74023,29.90202],[-96.73948,29.90182],[-96.73893,29.90197],[-96.73813,29.9029],[-96.73811,29.9054],[-96.73685,29.90714],[-96.73619,29.90851],[-96.73621,29.90896],[-96.75037,29.92037],[-96.74919,29.92142],[-96.74917,29.92163],[-96.74988,29.92222],[-96.74983,29.92268],[-96.74922,29.92335],[-96.7473,29.92388],[-96.74694,29.92491],[-96.74194,29.92606],[-96.74199,29.92635],[-96.7466,29.92544],[-96.74817,29.92626],[-96.74949,29.92603],[-96.75007,29.92545],[-96.75053,29.92587],[-96.7509,29.92587],[-96.75219,29.92468],[-96.75283,29.92234],[-96.77295,29.93847],[-96.77175,29.93943],[-96.77136,29.94007],[-96.77041,29.94056],[-96.7659,29.94428],[-96.77098,29.94826],[-96.77142,29.94788],[-96.77353,29.94963],[-96.77301,29.95016],[-96.77512,29.95207],[-96.77479,29.95278],[-96.77366,29.95392],[-96.77317,29.95478],[-96.76943,29.95826],[-96.77789,29.96432],[-96.77723,29.96465],[-96.77761,29.96489],[-96.77741,29.96498],[-96.78182,29.96844],[-96.78522,29.96559],[-96.7873,29.96608],[-96.78999,29.96806],[-96.79065,29.96727],[-96.79855,29.97381],[-96.79432,29.97756],[-96.7975,29.98022],[-96.80212,29.97606],[-96.8062,29.97901],[-96.80536,29.9797],[-96.80668,29.98073],[-96.80664,29.98116],[-96.81047,29.98434],[-96.80577,29.98901],[-96.80575,29.98941],[-96.80686,29.98915],[-96.80842,29.98917],[-96.80949,29.98949],[-96.81079,29.99027],[-96.8138,29.99272],[-96.81575,29.99525],[-96.8248,30.00238],[-96.82294,30.00375],[-96.82227,30.00398],[-96.8226,30.00483],[-96.82212,30.0058],[-96.82432,30.00653],[-96.81618,30.01434],[-96.83372,30.02824],[-96.83093,30.03127],[-96.8368,30.03607],[-96.83363,30.04049],[-96.83604,30.04233],[-96.83742,30.04314],[-96.83918,30.04358],[-96.84823,30.04377],[-96.85672,30.04768],[-96.85891,30.04782],[-96.86077,30.04699],[-96.86154,30.04767],[-96.86167,30.04835],[-96.86117,30.04956],[-96.86148,30.05083],[-96.8564,30.05487],[-96.85692,30.05579],[-96.85731,30.05569],[-96.86245,30.06503],[-96.88216,30.05894],[-96.88298,30.05888],[-96.8853,30.058],[-96.89915,30.05434],[-96.91423,30.05143],[-96.91397,30.04347],[-96.91466,30.04325],[-96.91525,30.04152],[-96.91928,30.04052],[-96.92512,30.04206],[-96.93546,30.03891],[-96.94986,30.04525],[-96.95024,30.04448],[-96.95349,30.04587],[-96.95411,30.04766],[-96.95588,30.04977],[-96.9561,30.05064],[-96.95373,30.04952],[-96.9501,30.05071],[-96.94756,30.05303],[-96.94094,30.05251],[-96.93919,30.05272],[-96.93879,30.05255],[-96.93911,30.05526],[-96.93964,30.05615],[-96.94125,30.05765],[-96.94149,30.05836],[-96.94126,30.05918],[-96.94081,30.0596],[-96.93892,30.06033],[-96.93826,30.06093],[-96.93776,30.06189],[-96.9369,30.06245],[-96.93136,30.06517],[-96.93103,30.06557],[-96.93235,30.06754],[-96.93427,30.07252],[-96.93491,30.07314],[-96.96631,30.05786],[-96.96661,30.05868],[-96.96897,30.06232],[-96.97093,30.06363],[-96.98319,30.0496],[-96.98438,30.04884],[-96.98714,30.04779],[-97.01111,30.03617],[-97.01916,30.032],[-97.02446,30.05144],[-97.0343,30.04239],[-97.0599,30.04193],[-97.0603,30.04205],[-97.06043,30.04285],[-97.06911,30.04274]]]},"properties":{"zip_code":"78945","county":"Fayette"}}]}