{"type":"FeatureCollection","features":[{"type":"Feature","geometry":{"type":"Polygon","coordinates":[[[-97.47774,29.82675],[-97.47605,29.8256],[-97.47033,29.82051],[-97.47036,29.81173],[-97.46767,29.81164],[-97.46576,29.80852],[-97.46131,29.8084],[-97.45953,29.80728],[-97.45784,29.80764],[-97.45684,29.80721],[-97.45615,29.80406],[-97.45667,29.80308],[-97.45662,29.80162],[-97.45714,29.80105],[-97.45584,29.79988],[-97.45491,29.79859],[-97.45421,29.79548],[-97.45423,29.79378],[-97.44958,29.79375],[-97.44711,29.79798],[-97.44694,29.79753],[-97.43717,29.7942],[-97.43722,29.79365],[-97.43843,29.79156],[-97.43838,29.79086],[-97.43257,29.78499],[-97.43099,29.78281],[-97.42984,29.78052],[-97.42935,29.78002],[-97.42574,29.77813],[-97.42146,29.77551],[-97.41831,29.7741],[-97.41732,29.77393],[-97.41654,29.77309],[-97.41933,29.76773],[-97.40946,29.75929],[-97.40947,29.75894],[-97.40906,29.75887],[-97.4032,29.75395],[-97.40188,29.75293],[-97.39832,29.7513],[-97.3972,29.74915],[-97.39591,29.7481],[-97.39575,29.74977],[-97.396,29.75057],[-97.39512,29.75416],[-97.39504,29.75543],[-97.39363,29.75527],[-97.39226,29.75441],[-97.39169,29.7544],[-97.39176,29.75506],[-97.39089,29.75795],[-97.39082,29.75883],[-97.38965,29.76209],[-97.38942,29.76172],[-97.3862,29.76029],[-97.38565,29.75948],[-97.38246,29.7584],[-97.38182,29.75833],[-97.38129,29.75859],[-97.38003,29.75966],[-97.378,29.75881],[-97.37629,29.75862],[-97.37612,29.7585],[-97.37624,29.75718],[-97.3759,29.75571],[-97.37483,29.75445],[-97.37488,29.75374],[-97.37567,29.75289],[-97.3363,29.77452],[-97.33724,29.77498],[-97.3387,29.77507],[-97.33982,29.77471],[-97.33986,29.77548],[-97.34082,29.776],[-97.3409,29.77665],[-97.34161,29.77722],[-97.34335,29.77731],[-97.34353,29.77827],[-97.34413,29.77912],[-97.3445,29.7807],[-97.34434,29.7813],[-97.34354,29.78241],[-97.34299,29.78495],[-97.34344,29.78549],[-97.34356,29.7862],[-97.34348,29.78859],[-97.34444,29.78963],[-97.34382,29.79218],[-97.34288,29.7934],[-97.34317,29.79447],[-97.34298,29.79523],[-97.34335,29.79887],[-97.34214,29.80062],[-97.33965,29.80085],[-97.33946,29.80114],[-97.33962,29.80268],[-97.33899,29.80339],[-97.33918,29.80467],[-97.33844,29.80554],[-97.33676,29.80914],[-97.33571,29.81036],[-97.33379,29.81143],[-97.33298,29.81153],[-97.33229,29.81208],[-97.33033,29.81628],[-97.32874,29.81552],[-97.32541,29.81298],[-97.32694,29.81091],[-97.3276,29.80835],[-97.32766,29.80408],[-97.32894,29.79789],[-97.32875,29.79754],[-97.32031,29.79411],[-97.3154,29.80411],[-97.31496,29.80596],[-97.31489,29.8087],[-97.3007,29.80321],[-97.29882,29.80273],[-97.29705,29.80595],[-97.29377,29.80654],[-97.239,29.85623],[-97.24318,29.86341],[-97.24369,29.86516],[-97.24632,29.86852],[-97.23805,29.87135],[-97.23772,29.87279],[-97.23788,29.88182],[-97.24011,29.88189],[-97.24037,29.88213],[-97.24107,29.90673],[-97.24223,29.90674],[-97.24407,29.90625],[-97.24479,29.90647],[-97.24563,29.9072],[-97.24793,29.90775],[-97.25682,29.90702],[-97.2568,29.90788],[-97.25709,29.9081],[-97.2656,29.90857],[-97.26634,29.90819],[-97.26666,29.90597],[-97.267,29.90581],[-97.26731,29.90758],[-97.26862,29.90988],[-97.26867,29.91197],[-97.26837,29.91363],[-97.26854,29.91487],[-97.26897,29.91556],[-97.26984,29.91621],[-97.27144,29.91656],[-97.27298,29.91741],[-97.27463,29.91923],[-97.27697,29.92061],[-97.28188,29.92258],[-97.28289,29.92267],[-97.28576,29.92456],[-97.28794,29.92487],[-97.28745,29.92813],[-97.29227,29.9287],[-97.29332,29.92927],[-97.28816,29.93192],[-97.2866,29.93229],[-97.28499,29.93214],[-97.28154,29.93059],[-97.27969,29.93025],[-97.26512,29.93116],[-97.26277,29.93189],[-97.26094,29.93312],[-97.26201,29.93438],[-97.26243,29.93797],[-97.2604,29.94795],[-97.27314,29.94993],[-97.2736,29.95094],[-97.27413,29.9508],[-97.27472,29.95016],[-97.27708,29.9505],[-97.27959,29.95154],[-97.2804,29.95097],[-97.28326,29.9514],[-97.28348,29.9512],[-97.28378,29.94963],[-97.28599,29.93721],[-97.29249,29.93803],[-97.29472,29.93479],[-97.29514,29.93522],[-97.30358,29.9393],[-97.30535,29.93656],[-97.31704,29.94237],[-97.31671,29.94377],[-97.32295,29.94708],[-97.32206,29.94868],[-97.3243,29.94954],[-97.32361,29.95141],[-97.32846,29.95379],[-97.32525,29.95922],[-97.32733,29.96021],[-97.32565,29.96307],[-97.34281,29.97151],[-97.3439,29.96785],[-97.34443,29.96789],[-97.34501,29.96735],[-97.34555,29.96736],[-97.34733,29.96839],[-97.34822,29.96853],[-97.34673,29.9673],[-97.34514,29.96492],[-97.34278,29.95905],[-97.34142,29.95717],[-97.34043,29.95518],[-97.34293,29.95573],[-97.34281,29.95542],[-97.34333,29.95452],[-97.35251,29.95907],[-97.35211,29.95878],[-97.35196,29.95816],[-97.35284,29.9564],[-97.35298,29.95493],[-97.35352,29.9539],[-97.35489,29.95303],[-97.35579,29.95174],[-97.35561,29.95133],[-97.35511,29.95112],[-97.35432,29.95131],[-97.35272,29.95111],[-97.35247,29.9501],[-97.35315,29.94862],[-97.35306,29.94821],[-97.35198,29.94721],[-97.35063,29.94651],[-97.35134,29.94236],[-97.35112,29.94069],[-97.35396,29.93936],[-97.35691,29.93699],[-97.35807,29.93696],[-97.35908,29.93663],[-97.35945,29.93623],[-97.36178,29.93663],[-97.36261,29.93616],[-97.36691,29.93497],[-97.36648,29.9341],[-97.36409,29.93207],[-97.36336,29.93087],[-97.36122,29.93027],[-97.35982,29.92863],[-97.36012,29.92785],[-97.36164,29.92678],[-97.36705,29.91812],[-97.37054,29.91976],[-97.37014,29.921],[-97.37344,29.92185],[-97.37344,29.9221],[-97.38357,29.92703],[-97.38407,29.92577],[-97.38319,29.92518],[-97.38303,29.92483],[-97.38362,29.92382],[-97.38471,29.92343],[-97.38451,29.92215],[-97.38741,29.92127],[-97.38989,29.91972],[-97.39116,29.91927],[-97.39198,29.91713],[-97.39177,29.91622],[-97.3912,29.91533],[-97.39133,29.91362],[-97.3948,29.91198],[-97.39621,29.91168],[-97.39667,29.91225],[-97.3971,29.91205],[-97.39783,29.90901],[-97.39753,29.9074],[-97.39689,29.90767],[-97.39685,29.90738],[-97.39744,29.90632],[-97.3985,29.90528],[-97.39838,29.90416],[-97.39863,29.90343],[-97.39945,29.90298],[-97.39896,29.90236],[-97.39914,29.901],[-97.40095,29.90064],[-97.40301,29.89826],[-97.40367,29.89694],[-97.40478,29.89617],[-97.40565,29.89511],[-97.40785,29.89521],[-97.40948,29.89445],[-97.41046,29.89362],[-97.41082,29.89371],[-97.4113,29.8932],[-97.4117,29.89197],[-97.41509,29.89159],[-97.41595,29.89188],[-97.417,29.89125],[-97.41803,29.89023],[-97.41946,29.88954],[-97.41997,29.88701],[-97.42009,29.88583],[-97.41992,29.88541],[-97.42594,29.87922],[-97.42068,29.87476],[-97.43219,29.8563],[-97.43675,29.85878],[-97.44611,29.86318],[-97.45159,29.86674],[-97.45972,29.85417],[-97.46022,29.85399],[-97.46082,29.8533],[-97.46441,29.84794],[-97.47774,29.82675]]]},"properties":{"zip_code":"78953","county":"Bastrop"}}]}