{"type":"FeatureCollection","features":[{"type":"Feature","geometry":{"type":"Polygon","coordinates":[[[-97.34295,29.97311],[-97.34281,29.97151],[-97.32565,29.96307],[-97.32733,29.96021],[-97.32525,29.95922],[-97.32846,29.95379],[-97.32361,29.95141],[-97.3243,29.94954],[-97.32206,29.94868],[-97.32295,29.94708],[-97.31671,29.94377],[-97.31704,29.94237],[-97.30535,29.93656],[-97.30358,29.9393],[-97.29514,29.93522],[-97.29472,29.93479],[-97.29249,29.93803],[-97.28599,29.93721],[-97.28378,29.94963],[-97.28348,29.9512],[-97.28326,29.9514],[-97.2804,29.95097],[-97.27959,29.95154],[-97.27708,29.9505],[-97.27472,29.95016],[-97.27413,29.9508],[-97.2736,29.95094],[-97.27314,29.94993],[-97.2604,29.94795],[-97.26243,29.93797],[-97.26201,29.93438],[-97.26094,29.93312],[-97.26277,29.93189],[-97.26512,29.93116],[-97.27969,29.93025],[-97.28154,29.93059],[-97.28499,29.93214],[-97.2866,29.93229],[-97.28816,29.93192],[-97.29332,29.92927],[-97.29227,29.9287],[-97.28745,29.92813],[-97.28794,29.92487],[-97.28576,29.92456],[-97.28289,29.92267],[-97.28188,29.92258],[-97.27697,29.92061],[-97.27463,29.91923],[-97.27298,29.91741],[-97.27144,29.91656],[-97.26984,29.91621],[-97.26897,29.91556],[-97.26854,29.91487],[-97.26837,29.91363],[-97.26867,29.91197],[-97.26862,29.90988],[-97.26731,29.90758],[-97.267,29.90581],[-97.26666,29.90597],[-97.26634,29.90819],[-97.2656,29.90857],[-97.25709,29.9081],[-97.2568,29.90788],[-97.25682,29.90702],[-97.24793,29.90775],[-97.24563,29.9072],[-97.24479,29.90647],[-97.24407,29.90625],[-97.24223,29.90674],[-97.24107,29.90673],[-97.24089,29.89869],[-97.23453,29.89885],[-97.23433,29.89904],[-97.23437,29.90159],[-97.23408,29.90203],[-97.2335,29.90228],[-97.22164,29.90228],[-97.22137,29.90243],[-97.22183,29.9217],[-97.22123,29.92359],[-97.21955,29.93263],[-97.21998,29.93491],[-97.21995,29.93968],[-97.19172,29.94012],[-97.19136,29.93932],[-97.19052,29.93877],[-97.18959,29.9391],[-97.1882,29.93898],[-97.18806,29.93838],[-97.18651,29.93847],[-97.1856,29.93777],[-97.18515,29.93772],[-97.18455,29.93712],[-97.18796,29.92993],[-97.19387,29.92217],[-97.19453,29.92051],[-97.19466,29.91933],[-97.19423,29.89678],[-97.16535,29.92297],[-97.16403,29.92299],[-97.16382,29.92188],[-97.16472,29.92081],[-97.16583,29.92006],[-97.16386,29.91957],[-97.16182,29.91938],[-97.16208,29.91903],[-97.16185,29.91787],[-97.162,29.91483],[-97.15829,29.91447],[-97.15533,29.9107],[-97.15242,29.91041],[-97.14935,29.90916],[-97.14564,29.90883],[-97.14456,29.90915],[-97.13656,29.90922],[-97.13667,29.91221],[-97.13713,29.91331],[-97.12765,29.91352],[-97.1274,29.91134],[-97.12156,29.91173],[-97.12155,29.91721],[-97.12214,29.9165],[-97.12351,29.91595],[-97.12465,29.91596],[-97.12609,29.91649],[-97.12644,29.91687],[-97.12653,29.91978],[-97.14164,29.91954],[-97.14183,29.92049],[-97.14134,29.92338],[-97.08582,29.92382],[-97.08576,29.93412],[-97.08657,29.93566],[-97.08795,29.93676],[-97.08894,29.93721],[-97.08947,29.93869],[-97.0906,29.93959],[-97.09099,29.94042],[-97.09132,29.94074],[-97.092,29.9408],[-97.09239,29.94154],[-97.09239,29.9427],[-97.09305,29.94387],[-97.09313,29.94467],[-97.0939,29.94667],[-97.09409,29.94929],[-97.09383,29.94974],[-97.09193,29.95078],[-97.09133,29.95145],[-97.09104,29.95218],[-97.09121,29.95334],[-97.08893,29.95323],[-97.08639,29.95381],[-97.08583,29.95309],[-97.08585,29.95709],[-97.07315,29.95969],[-97.0714,29.9603],[-97.0703,29.95993],[-97.06568,29.95986],[-97.06341,29.95893],[-97.06121,29.95879],[-97.05375,29.96214],[-97.05288,29.96325],[-97.0521,29.96382],[-97.04963,29.96476],[-97.04809,29.9659],[-97.04594,29.97105],[-97.04418,29.97287],[-97.04408,29.97393],[-97.04582,29.97746],[-97.04614,29.98141],[-97.04679,29.98343],[-97.04636,29.98475],[-97.04586,29.98529],[-97.04359,29.98595],[-97.04214,29.98576],[-97.0409,29.98501],[-97.03855,29.98418],[-97.03464,29.98375],[-97.03453,29.98416],[-97.03624,29.98418],[-97.03944,29.98487],[-97.04081,29.98529],[-97.04243,29.98629],[-97.04449,29.98616],[-97.04637,29.9854],[-97.047,29.98423],[-97.04858,29.98384],[-97.04956,29.98311],[-97.0503,29.98096],[-97.05009,29.97947],[-97.05048,29.97846],[-97.05104,29.97839],[-97.05204,29.97901],[-97.05277,29.9805],[-97.0534,29.98398],[-97.05466,29.98442],[-97.05493,29.98481],[-97.05456,29.98593],[-97.05382,29.98632],[-97.05282,29.9863],[-97.0515,29.9857],[-97.0509,29.98579],[-97.05058,29.98696],[-97.05095,29.98767],[-97.05113,29.98948],[-97.05326,29.99148],[-97.05545,29.99187],[-97.05634,29.99228],[-97.05908,29.99418],[-97.05989,29.99506],[-97.06,29.9956],[-97.05947,29.99599],[-97.05331,29.99551],[-97.05218,29.99473],[-97.05179,29.99409],[-97.05086,29.9937],[-97.05076,29.99457],[-97.04947,29.99535],[-97.04797,29.99697],[-97.04717,29.99871],[-97.04731,29.99938],[-97.04825,29.99981],[-97.04859,30.00047],[-97.05135,30.00143],[-97.05209,30.00205],[-97.05206,30.00359],[-97.05151,30.00455],[-97.0518,30.0062],[-97.05129,30.00895],[-97.05158,30.00959],[-97.05224,30.00994],[-97.05314,30.00962],[-97.05414,30.00778],[-97.05469,30.00723],[-97.05538,30.00714],[-97.05595,30.00739],[-97.05635,30.00781],[-97.05724,30.0101],[-97.0574,30.01152],[-97.05666,30.01356],[-97.05687,30.01463],[-97.05724,30.01518],[-97.05771,30.01555],[-97.06261,30.01712],[-97.06282,30.01741],[-97.06221,30.01886],[-97.06248,30.01915],[-97.06226,30.0207],[-97.06151,30.02151],[-97.06031,30.02226],[-97.06062,30.02294],[-97.06219,30.02454],[-97.06339,30.0253],[-97.0643,30.02479],[-97.06542,30.02477],[-97.06853,30.02821],[-97.06854,30.02857],[-97.0681,30.02889],[-97.06797,30.02937],[-97.06804,30.03134],[-97.06717,30.03335],[-97.06707,30.03647],[-97.06875,30.04106],[-97.06911,30.04274],[-97.06043,30.04285],[-97.06134,30.07582],[-97.06168,30.07614],[-97.0638,30.07619],[-97.06325,30.07721],[-97.06155,30.07888],[-97.06138,30.07936],[-97.06265,30.12046],[-97.06369,30.1217],[-97.0746,30.13776],[-97.08527,30.13754],[-97.08562,30.13731],[-97.08557,30.13369],[-97.08577,30.13342],[-97.10085,30.13308],[-97.10084,30.13263],[-97.10338,30.1326],[-97.10608,30.13139],[-97.10838,30.13071],[-97.11353,30.12993],[-97.11422,30.12964],[-97.11449,30.12932],[-97.11473,30.12778],[-97.11534,30.12743],[-97.11665,30.12733],[-97.12298,30.12818],[-97.12398,30.12809],[-97.12523,30.1276],[-97.13093,30.13138],[-97.1454,30.12656],[-97.15098,30.12592],[-97.15623,30.12417],[-97.15742,30.12347],[-97.16261,30.12291],[-97.16997,30.11984],[-97.17364,30.11701],[-97.17707,30.11534],[-97.17929,30.11441],[-97.18318,30.11347],[-97.18441,30.11338],[-97.18448,30.12151],[-97.19473,30.12125],[-97.19476,30.12288],[-97.19926,30.1228],[-97.2037,30.10779],[-97.23022,30.11366],[-97.23193,30.10822],[-97.2338,30.10049],[-97.23804,30.08556],[-97.23885,30.08283],[-97.23923,30.08261],[-97.23466,30.08136],[-97.23602,30.07645],[-97.22973,30.07518],[-97.2307,30.07159],[-97.22596,30.07035],[-97.22614,30.07012],[-97.22829,30.07067],[-97.2293,30.06683],[-97.22979,30.06352],[-97.22761,30.06139],[-97.22128,30.05702],[-97.22281,30.05592],[-97.22403,30.05405],[-97.2243,30.05296],[-97.22552,30.05176],[-97.22673,30.05118],[-97.22598,30.05031],[-97.2261,30.04909],[-97.22832,30.04732],[-97.22836,30.04673],[-97.22873,30.04636],[-97.22834,30.04611],[-97.22842,30.04573],[-97.22788,30.04535],[-97.22788,30.04491],[-97.22822,30.04445],[-97.22772,30.04412],[-97.22752,30.04331],[-97.2263,30.04201],[-97.22551,30.04037],[-97.22374,30.0395],[-97.22266,30.03945],[-97.2231,30.04077],[-97.222,30.04129],[-97.22096,30.04257],[-97.2193,30.0438],[-97.21853,30.04554],[-97.21825,30.04694],[-97.21694,30.04768],[-97.21612,30.04865],[-97.21464,30.04927],[-97.21367,30.04999],[-97.21296,30.04997],[-97.20992,30.05083],[-97.20683,30.05277],[-97.20595,30.05375],[-97.20421,30.05367],[-97.20247,30.05252],[-97.20226,30.0521],[-97.20379,30.05166],[-97.20458,30.05081],[-97.20541,30.04848],[-97.20548,30.04741],[-97.2054,30.04616],[-97.20392,30.04284],[-97.20321,30.04012],[-97.20251,30.03588],[-97.20239,30.03467],[-97.20263,30.03298],[-97.20314,30.03202],[-97.20488,30.02988],[-97.21075,30.02366],[-97.21175,30.02347],[-97.21301,30.02339],[-97.21412,30.02369],[-97.21691,30.02595],[-97.21849,30.02651],[-97.2217,30.0269],[-97.22552,30.02779],[-97.22774,30.02808],[-97.22893,30.02792],[-97.23169,30.02679],[-97.2333,30.02544],[-97.23351,30.02473],[-97.23328,30.02282],[-97.232,30.02064],[-97.23222,30.01878],[-97.23377,30.01641],[-97.23555,30.01502],[-97.24279,30.01373],[-97.24398,30.01274],[-97.24699,30.01111],[-97.24738,30.01056],[-97.24778,30.01042],[-97.24868,30.01091],[-97.24915,30.01201],[-97.246,30.0168],[-97.24536,30.0187],[-97.24591,30.02002],[-97.24603,30.02159],[-97.246,30.02332],[-97.24555,30.0256],[-97.24633,30.02632],[-97.24724,30.02653],[-97.25076,30.02628],[-97.2543,30.02646],[-97.25534,30.0272],[-97.25715,30.02727],[-97.25875,30.02634],[-97.25911,30.02563],[-97.26005,30.02484],[-97.26422,30.02325],[-97.26638,30.02266],[-97.26826,30.02248],[-97.27108,30.02265],[-97.27378,30.02244],[-97.27462,30.0228],[-97.27506,30.02328],[-97.27538,30.02417],[-97.2773,30.02524],[-97.27873,30.02548],[-97.2804,30.02549],[-97.28118,30.02528],[-97.28185,30.02543],[-97.28465,30.02769],[-97.29216,30.03213],[-97.29284,30.03328],[-97.29337,30.0379],[-97.2941,30.03864],[-97.29636,30.03919],[-97.30114,30.03923],[-97.3064,30.03812],[-97.30842,30.03836],[-97.30928,30.03931],[-97.31031,30.04196],[-97.31193,30.04423],[-97.3129,30.04506],[-97.31455,30.04502],[-97.31611,30.04265],[-97.3171,30.0406],[-97.31684,30.04004],[-97.31307,30.03802],[-97.31244,30.03715],[-97.31249,30.0367],[-97.31299,30.03605],[-97.31421,30.03541],[-97.31461,30.03474],[-97.3154,30.03452],[-97.31468,30.03227],[-97.31348,30.03215],[-97.31327,30.03191],[-97.31356,30.03048],[-97.31505,30.03013],[-97.31572,30.02937],[-97.31559,30.02856],[-97.3139,30.0269],[-97.31375,30.02638],[-97.3146,30.02581],[-97.31638,30.02558],[-97.31675,30.02507],[-97.31602,30.02421],[-97.31474,30.02347],[-97.31463,30.02291],[-97.31592,30.02189],[-97.31668,30.0207],[-97.31924,30.02072],[-97.32094,30.02009],[-97.32194,30.01862],[-97.32293,30.01768],[-97.32492,30.0166],[-97.32565,30.01489],[-97.32776,30.01396],[-97.32879,30.013],[-97.32921,30.01136],[-97.32817,30.00939],[-97.32759,30.00873],[-97.32621,30.00827],[-97.32474,30.00888],[-97.3241,30.00889],[-97.32363,30.00854],[-97.32314,30.0049],[-97.32378,30.0034],[-97.32481,30.00309],[-97.32633,30.00312],[-97.32721,30.00263],[-97.32838,30.00244],[-97.32916,30.00297],[-97.32929,30.00354],[-97.32893,30.00387],[-97.32931,30.00451],[-97.33068,30.00397],[-97.33179,30.00403],[-97.3333,30.00432],[-97.33367,30.00511],[-97.33473,30.00575],[-97.33664,30.00555],[-97.33701,30.00371],[-97.33838,30.00138],[-97.33859,29.99796],[-97.33765,29.99652],[-97.33486,29.99391],[-97.33305,29.99327],[-97.3328,29.99211],[-97.33418,29.99112],[-97.33423,29.99031],[-97.3347,29.98962],[-97.33567,29.98963],[-97.33597,29.99021],[-97.33634,29.9904],[-97.33682,29.99014],[-97.33683,29.98711],[-97.3359,29.98663],[-97.33564,29.9849],[-97.33637,29.98483],[-97.33747,29.98529],[-97.33903,29.98503],[-97.34014,29.98361],[-97.33992,29.98224],[-97.33926,29.98088],[-97.33852,29.98068],[-97.33874,29.97928],[-97.33951,29.97857],[-97.33987,29.97758],[-97.33899,29.9767],[-97.339,29.97494],[-97.33931,29.97479],[-97.3406,29.97519],[-97.34184,29.97517],[-97.34266,29.97451],[-97.34295,29.97311]]]},"properties":{"zip_code":"78957","county":"Bastrop"}}]}