{"type":"FeatureCollection","features":[{"type":"Feature","geometry":{"type":"Polygon","coordinates":[[[-97.40994,29.71983],[-97.40898,29.71938],[-97.40665,29.71727],[-97.40064,29.71487],[-97.3987,29.71436],[-97.3927,29.71119],[-97.39005,29.70921],[-97.38909,29.70737],[-97.38838,29.70533],[-97.38781,29.70481],[-97.38663,29.70431],[-97.38501,29.7041],[-97.38277,29.70326],[-97.38184,29.70316],[-97.38118,29.70142],[-97.37811,29.69598],[-97.39198,29.69213],[-97.3914,29.69107],[-97.39205,29.69002],[-97.40015,29.68734],[-97.40029,29.66013],[-97.3888,29.66182],[-97.39012,29.6561],[-97.39275,29.65051],[-97.39288,29.64706],[-97.39495,29.64113],[-97.38105,29.64118],[-97.38176,29.59347],[-97.38123,29.59347],[-97.38173,29.59331],[-97.38173,29.5931],[-97.38115,29.59239],[-97.38128,29.59145],[-97.38055,29.59108],[-97.38041,29.59046],[-97.38083,29.59002],[-97.38004,29.58981],[-97.38015,29.58935],[-97.37912,29.58937],[-97.37909,29.58898],[-97.3788,29.5888],[-97.37791,29.58886],[-97.37702,29.58842],[-97.37683,29.58815],[-97.3772,29.58778],[-97.37712,29.58757],[-97.37586,29.58693],[-97.37475,29.58691],[-97.37376,29.58599],[-97.37381,29.58493],[-97.3735,29.58449],[-97.37346,29.58295],[-97.37309,29.58226],[-97.3739,29.58059],[-97.37335,29.58001],[-97.3734,29.57902],[-97.37313,29.57889],[-97.3725,29.57927],[-97.37221,29.57875],[-97.37174,29.57858],[-97.37168,29.57803],[-97.37233,29.57686],[-97.37171,29.57636],[-97.36602,29.58375],[-97.35806,29.58786],[-97.35397,29.59194],[-97.3537,29.58945],[-97.35328,29.58904],[-97.35335,29.58705],[-97.35293,29.58666],[-97.35296,29.58607],[-97.35231,29.58543],[-97.35229,29.58456],[-97.35167,29.58364],[-97.35162,29.58321],[-97.35218,29.58291],[-97.3522,29.58257],[-97.35164,29.58167],[-97.35198,29.58073],[-97.35147,29.58035],[-97.3521,29.57978],[-97.35206,29.57776],[-97.35235,29.57758],[-97.35235,29.57728],[-97.3517,29.57712],[-97.35135,29.57527],[-97.348,29.57524],[-97.34719,29.57551],[-97.34708,29.57899],[-97.34653,29.57957],[-97.34644,29.58042],[-97.3396,29.58051],[-97.33943,29.58105],[-97.33947,29.58553],[-97.33867,29.58639],[-97.33872,29.58989],[-97.33847,29.59012],[-97.33734,29.59017],[-97.33711,29.59054],[-97.33714,29.5958],[-97.33881,29.59577],[-97.3391,29.59595],[-97.33913,29.60123],[-97.33701,29.60247],[-97.33539,29.60417],[-97.33357,29.60564],[-97.32661,29.6142],[-97.3218,29.62161],[-97.32081,29.62488],[-97.31875,29.62306],[-97.31716,29.62223],[-97.31638,29.62249],[-97.31503,29.62391],[-97.3124,29.62362],[-97.30951,29.6241],[-97.30846,29.6232],[-97.30873,29.62102],[-97.30909,29.62015],[-97.31072,29.61841],[-97.31103,29.61708],[-97.3105,29.61673],[-97.30982,29.61673],[-97.30841,29.61726],[-97.30785,29.61698],[-97.30794,29.61615],[-97.30931,29.61478],[-97.30996,29.61372],[-97.30832,29.61238],[-97.3081,29.61059],[-97.30848,29.60982],[-97.31041,29.60919],[-97.31113,29.6086],[-97.31168,29.60739],[-97.31155,29.60615],[-97.31236,29.60541],[-97.31397,29.60467],[-97.314,29.60441],[-97.31236,29.6031],[-97.3096,29.60246],[-97.30845,29.60136],[-97.30763,29.60125],[-97.3071,29.60089],[-97.30542,29.60059],[-97.30408,29.60146],[-97.30332,29.60123],[-97.30311,29.60097],[-97.30314,29.59921],[-97.30476,29.59719],[-97.30487,29.59682],[-97.3045,29.59629],[-97.30335,29.59622],[-97.30101,29.59796],[-97.2998,29.59849],[-97.29865,29.5975],[-97.2977,29.59711],[-97.29679,29.59562],[-97.29496,29.59554],[-97.29492,29.59365],[-97.29364,29.59236],[-97.2932,29.58981],[-97.29368,29.58949],[-97.29418,29.58851],[-97.29397,29.58656],[-97.29329,29.58569],[-97.29326,29.58509],[-97.29268,29.58431],[-97.29224,29.58149],[-97.29279,29.58062],[-97.29392,29.58065],[-97.29426,29.58019],[-97.29431,29.57902],[-97.29499,29.57741],[-97.29499,29.57682],[-97.29463,29.57645],[-97.29292,29.57769],[-97.29166,29.57739],[-97.29056,29.57744],[-97.29033,29.5773],[-97.2903,29.57691],[-97.29067,29.57508],[-97.29001,29.57409],[-97.28946,29.57391],[-97.28812,29.57443],[-97.28739,29.57425],[-97.28715,29.57395],[-97.28792,29.57207],[-97.28818,29.57205],[-97.28923,29.57301],[-97.29048,29.57267],[-97.29075,29.57217],[-97.28826,29.56974],[-97.28807,29.56877],[-97.28891,29.56781],[-97.28891,29.56722],[-97.28813,29.56708],[-97.28666,29.56625],[-97.28634,29.5666],[-97.28682,29.56717],[-97.28666,29.56744],[-97.28598,29.56738],[-97.28535,29.56687],[-97.28495,29.5671],[-97.28548,29.56763],[-97.28503,29.56813],[-97.28506,29.56843],[-97.28572,29.56864],[-97.28598,29.56909],[-97.28545,29.56948],[-97.28545,29.56992],[-97.28461,29.57017],[-97.28464,29.57091],[-97.2849,29.57125],[-97.28456,29.57189],[-97.2848,29.57343],[-97.28419,29.5743],[-97.26846,29.58788],[-97.26691,29.58873],[-97.26599,29.59042],[-97.26657,29.59143],[-97.26764,29.59175],[-97.26746,29.59279],[-97.26489,29.59482],[-97.26463,29.59528],[-97.26169,29.59654],[-97.26116,29.59773],[-97.26001,29.59765],[-97.25988,29.5974],[-97.25956,29.5974],[-97.25822,29.59803],[-97.25715,29.5989],[-97.25704,29.59973],[-97.25798,29.60061],[-97.25796,29.60092],[-97.25593,29.60192],[-97.25533,29.60273],[-97.25517,29.60339],[-97.25403,29.60329],[-97.25394,29.60053],[-97.25377,29.60032],[-97.24234,29.6003],[-97.24238,29.60469],[-97.24317,29.60617],[-97.24292,29.6065],[-97.24317,29.61568],[-97.23884,29.61344],[-97.2388,29.61384],[-97.23838,29.61428],[-97.23862,29.61554],[-97.23742,29.61741],[-97.23738,29.61867],[-97.23798,29.61915],[-97.23783,29.6202],[-97.23836,29.62141],[-97.23936,29.62205],[-97.23908,29.62329],[-97.23951,29.62429],[-97.23902,29.62564],[-97.23659,29.62778],[-97.2367,29.62892],[-97.23553,29.62963],[-97.23585,29.63153],[-97.23533,29.63255],[-97.23262,29.63527],[-97.23232,29.63619],[-97.23148,29.63701],[-97.231,29.63863],[-97.22374,29.63502],[-97.22264,29.63415],[-97.222,29.63422],[-97.2186,29.6328],[-97.20613,29.65232],[-97.19176,29.65255],[-97.19169,29.6574],[-97.19095,29.66417],[-97.19132,29.68027],[-97.21038,29.68292],[-97.21052,29.69682],[-97.2093,29.69686],[-97.2101,29.73377],[-97.21018,29.7359],[-97.2117,29.73615],[-97.21181,29.74069],[-97.21443,29.74128],[-97.21626,29.74243],[-97.21871,29.74669],[-97.22538,29.75357],[-97.22714,29.75438],[-97.2313,29.75445],[-97.23199,29.75484],[-97.23128,29.75541],[-97.23066,29.75641],[-97.23058,29.75969],[-97.233,29.75937],[-97.23649,29.75847],[-97.23776,29.75944],[-97.24042,29.76049],[-97.24271,29.76069],[-97.24416,29.75231],[-97.24341,29.7505],[-97.25554,29.75057],[-97.25562,29.75334],[-97.25515,29.75482],[-97.2552,29.75943],[-97.25455,29.76719],[-97.25474,29.77717],[-97.22538,29.78061],[-97.22563,29.78585],[-97.23537,29.78566],[-97.23603,29.78438],[-97.23601,29.78183],[-97.23643,29.78153],[-97.24337,29.78298],[-97.24525,29.78433],[-97.24724,29.78472],[-97.25856,29.78461],[-97.25887,29.78396],[-97.25972,29.78373],[-97.26058,29.78669],[-97.26116,29.7876],[-97.26061,29.78928],[-97.26032,29.79138],[-97.2593,29.79195],[-97.25957,29.79881],[-97.25994,29.80217],[-97.24227,29.80259],[-97.22684,29.80264],[-97.22614,29.80194],[-97.22658,29.82106],[-97.2272,29.82212],[-97.23207,29.8352],[-97.23707,29.83529],[-97.23729,29.84301],[-97.25027,29.84272],[-97.2504,29.84078],[-97.25312,29.84061],[-97.25403,29.83875],[-97.25839,29.83855],[-97.29377,29.80654],[-97.29705,29.80595],[-97.29882,29.80273],[-97.3007,29.80321],[-97.31489,29.8087],[-97.31496,29.80596],[-97.3154,29.80411],[-97.32031,29.79411],[-97.3289,29.79767],[-97.32766,29.80408],[-97.3276,29.80835],[-97.32694,29.81091],[-97.32541,29.81298],[-97.32874,29.81552],[-97.33033,29.81628],[-97.33229,29.81208],[-97.33298,29.81153],[-97.33379,29.81143],[-97.33571,29.81036],[-97.33676,29.80914],[-97.33844,29.80554],[-97.33918,29.80467],[-97.33899,29.80339],[-97.33962,29.80268],[-97.33946,29.80114],[-97.33965,29.80085],[-97.34214,29.80062],[-97.34335,29.79887],[-97.34298,29.79523],[-97.34317,29.79447],[-97.34288,29.7934],[-97.34382,29.79218],[-97.34444,29.78963],[-97.34348,29.78859],[-97.34356,29.7862],[-97.34344,29.78549],[-97.34299,29.78495],[-97.34354,29.78241],[-97.34434,29.7813],[-97.3445,29.7807],[-97.34413,29.77912],[-97.34353,29.77827],[-97.34335,29.77731],[-97.34161,29.77722],[-97.3409,29.77665],[-97.34082,29.776],[-97.33986,29.77548],[-97.33982,29.77471],[-97.3387,29.77507],[-97.33724,29.77498],[-97.3363,29.77452],[-97.37567,29.75289],[-97.37488,29.75374],[-97.37483,29.75445],[-97.3759,29.75571],[-97.37624,29.75718],[-97.37612,29.7585],[-97.37629,29.75862],[-97.378,29.75881],[-97.38003,29.75966],[-97.38129,29.75859],[-97.38182,29.75833],[-97.38246,29.7584],[-97.38565,29.75948],[-97.3862,29.76029],[-97.38942,29.76172],[-97.38965,29.76209],[-97.39082,29.75883],[-97.39089,29.75795],[-97.39176,29.75506],[-97.39169,29.7544],[-97.39226,29.75441],[-97.39363,29.75527],[-97.39504,29.75543],[-97.39512,29.75416],[-97.396,29.75057],[-97.39575,29.74977],[-97.39591,29.7481],[-97.3972,29.74915],[-97.39832,29.7513],[-97.40197,29.75299],[-97.40906,29.75887],[-97.40947,29.75894],[-97.40994,29.71983]]]},"properties":{"zip_code":"78959","county":"Gonzales"}}]}