{"type":"FeatureCollection","features":[{"type":"Feature","geometry":{"type":"Polygon","coordinates":[[[-96.81894,30.01172],[-96.8014,29.99846],[-96.79708,29.99742],[-96.78638,30.00771],[-96.78299,30.00498],[-96.78378,30.00393],[-96.7779,29.99933],[-96.78124,29.99579],[-96.77106,29.98816],[-96.75842,29.98417],[-96.7615,29.98101],[-96.75601,29.97584],[-96.75109,29.98055],[-96.74996,29.97988],[-96.74889,29.98098],[-96.74224,29.97893],[-96.74209,29.97805],[-96.73751,29.97873],[-96.7327,29.97621],[-96.72715,29.98134],[-96.72923,29.98254],[-96.72592,29.98485],[-96.72558,29.98925],[-96.72202,29.99242],[-96.7145,30.00159],[-96.71234,30.00146],[-96.71239,29.99984],[-96.71024,29.99774],[-96.69651,30.01113],[-96.68579,30.00772],[-96.68083,30.01239],[-96.67672,30.00885],[-96.67248,30.0078],[-96.66711,30.00244],[-96.65797,30.011],[-96.65517,30.01144],[-96.64914,30.00689],[-96.65402,30.00551],[-96.66207,29.99829],[-96.66212,29.99675],[-96.65582,29.99473],[-96.64396,29.99357],[-96.62195,30.01449],[-96.62715,30.01877],[-96.62329,30.02285],[-96.62689,30.02596],[-96.61857,30.03406],[-96.6109,30.02831],[-96.60142,30.02762],[-96.59806,30.02316],[-96.59421,30.02825],[-96.58794,30.02517],[-96.58711,30.02659],[-96.58364,30.02642],[-96.58132,30.02794],[-96.58202,30.03013],[-96.5794,30.03283],[-96.58042,30.03456],[-96.56941,30.04503],[-96.56878,30.04671],[-96.56764,30.04689],[-96.5689,30.04908],[-96.57096,30.04922],[-96.5718,30.05074],[-96.57456,30.0516],[-96.5752,30.05276],[-96.57452,30.05361],[-96.57894,30.05872],[-96.57574,30.06149],[-96.57436,30.06476],[-96.5859,30.06467],[-96.59003,30.0689],[-96.59392,30.07105],[-96.62198,30.04428],[-96.62386,30.06671],[-96.63085,30.07029],[-96.63429,30.0757],[-96.63248,30.08404],[-96.63357,30.10418],[-96.63674,30.10114],[-96.64985,30.11136],[-96.65589,30.10578],[-96.66867,30.11577],[-96.68325,30.10218],[-96.68548,30.10299],[-96.6914,30.10785],[-96.69748,30.10804],[-96.71626,30.12385],[-96.71751,30.12223],[-96.71564,30.12134],[-96.71543,30.11927],[-96.72043,30.11579],[-96.72101,30.11233],[-96.72235,30.1115],[-96.72317,30.11217],[-96.7249,30.11157],[-96.72522,30.10969],[-96.72804,30.10845],[-96.73164,30.10357],[-96.73514,30.10098],[-96.73641,30.09848],[-96.73896,30.09633],[-96.73877,30.0947],[-96.73743,30.09369],[-96.7379,30.09076],[-96.7369,30.08907],[-96.73149,30.08591],[-96.73339,30.08263],[-96.73322,30.07535],[-96.73151,30.07512],[-96.72937,30.0726],[-96.72774,30.07205],[-96.72421,30.07137],[-96.72142,30.0721],[-96.71939,30.0687],[-96.72501,30.06343],[-96.73106,30.06796],[-96.74163,30.05821],[-96.74399,30.06012],[-96.74521,30.05949],[-96.75237,30.06506],[-96.75565,30.06306],[-96.75913,30.06544],[-96.76084,30.06368],[-96.76665,30.06275],[-96.76881,30.06044],[-96.77535,30.06542],[-96.78016,30.0607],[-96.7833,30.06308],[-96.78692,30.05959],[-96.79195,30.06309],[-96.79444,30.06199],[-96.79718,30.06275],[-96.80289,30.05728],[-96.78591,30.044],[-96.8098,30.02133],[-96.80812,30.02019],[-96.81336,30.01515],[-96.81481,30.01572],[-96.81894,30.01172]]]},"properties":{"zip_code":"78954","county":"Fayette"}}]}