{"type":"FeatureCollection","features":[{"type":"Feature","geometry":{"type":"Polygon","coordinates":[[[-96.61137,29.95198],[-96.61438,29.95029],[-96.59842,29.94908],[-96.55836,29.94328],[-96.55447,29.93709],[-96.56871,29.92391],[-96.5646,29.92067],[-96.55893,29.92078],[-96.55889,29.92291],[-96.55391,29.92274],[-96.55284,29.91338],[-96.54802,29.91379],[-96.54811,29.91674],[-96.54485,29.91685],[-96.54372,29.90103],[-96.54735,29.89089],[-96.56889,29.89042],[-96.56885,29.88725],[-96.58133,29.88707],[-96.58142,29.88483],[-96.58454,29.8833],[-96.58943,29.8832],[-96.5896,29.88187],[-96.59778,29.88335],[-96.59626,29.88103],[-96.59764,29.88092],[-96.59932,29.87851],[-96.59824,29.87557],[-96.60371,29.86702],[-96.60291,29.86566],[-96.5973,29.86303],[-96.59614,29.86109],[-96.5968,29.85836],[-96.60187,29.85527],[-96.60244,29.85388],[-96.60208,29.85242],[-96.59716,29.8483],[-96.59915,29.84656],[-96.60147,29.84653],[-96.60211,29.84476],[-96.59889,29.84008],[-96.59914,29.83539],[-96.59791,29.83478],[-96.59492,29.83559],[-96.59663,29.83569],[-96.5969,29.83811],[-96.59494,29.83999],[-96.58791,29.84012],[-96.5865,29.84143],[-96.58606,29.8429],[-96.58829,29.84442],[-96.58457,29.84614],[-96.58472,29.84995],[-96.5811,29.85116],[-96.58066,29.85262],[-96.58136,29.85441],[-96.57945,29.85611],[-96.5775,29.8559],[-96.5775,29.85801],[-96.5734,29.85919],[-96.57053,29.86127],[-96.56991,29.86267],[-96.56682,29.86359],[-96.56559,29.86552],[-96.56274,29.865],[-96.55941,29.86614],[-96.55682,29.8653],[-96.55005,29.86776],[-96.54948,29.8537],[-96.54632,29.85358],[-96.5461,29.84857],[-96.53795,29.84859],[-96.53235,29.84306],[-96.52827,29.84306],[-96.52886,29.84715],[-96.51895,29.84703],[-96.51961,29.84289],[-96.51868,29.8356],[-96.52247,29.83487],[-96.52198,29.83154],[-96.52275,29.83099],[-96.52112,29.8297],[-96.51842,29.82978],[-96.51843,29.82849],[-96.51598,29.82568],[-96.51726,29.82556],[-96.5123,29.81999],[-96.5075,29.81666],[-96.50426,29.80985],[-96.50205,29.80791],[-96.50128,29.80317],[-96.49758,29.79874],[-96.48808,29.79136],[-96.48351,29.78681],[-96.48256,29.7846],[-96.48252,29.78133],[-96.4808,29.77897],[-96.48231,29.7755],[-96.48142,29.77638],[-96.47575,29.77688],[-96.47578,29.78013],[-96.47338,29.78418],[-96.47343,29.79217],[-96.47045,29.79237],[-96.46944,29.8042],[-96.46642,29.80476],[-96.46711,29.80766],[-96.46468,29.80637],[-96.46468,29.80844],[-96.46194,29.80853],[-96.46185,29.8107],[-96.46348,29.8136],[-96.46792,29.81525],[-96.47272,29.81899],[-96.47496,29.81692],[-96.47795,29.81814],[-96.47799,29.82287],[-96.48211,29.82608],[-96.48024,29.82808],[-96.48029,29.83294],[-96.47432,29.84041],[-96.47033,29.83671],[-96.46568,29.84008],[-96.46271,29.83949],[-96.45643,29.83415],[-96.45627,29.8315],[-96.45512,29.83302],[-96.44421,29.8316],[-96.44594,29.83445],[-96.44724,29.84016],[-96.4534,29.85269],[-96.45157,29.85433],[-96.44314,29.85117],[-96.43824,29.84686],[-96.43539,29.84721],[-96.4344,29.84568],[-96.43502,29.84443],[-96.43406,29.84317],[-96.43448,29.84162],[-96.42785,29.84089],[-96.42501,29.8383],[-96.42518,29.83658],[-96.42366,29.83651],[-96.4238,29.83465],[-96.42266,29.83481],[-96.4217,29.83397],[-96.4222,29.83085],[-96.42061,29.83036],[-96.4212,29.82938],[-96.41916,29.82945],[-96.41907,29.83743],[-96.42011,29.8391],[-96.41691,29.84209],[-96.41506,29.84597],[-96.41134,29.84288],[-96.40879,29.83878],[-96.40626,29.8395],[-96.39984,29.84551],[-96.40273,29.84929],[-96.4043,29.854],[-96.40592,29.85458],[-96.40656,29.85654],[-96.42494,29.87124],[-96.42438,29.87281],[-96.42732,29.87599],[-96.42119,29.87585],[-96.40908,29.87166],[-96.38729,29.86642],[-96.38237,29.86234],[-96.37048,29.87354],[-96.39604,29.88139],[-96.39276,29.88585],[-96.39172,29.8902],[-96.38992,29.89358],[-96.39086,29.89734],[-96.39015,29.89826],[-96.39073,29.90053],[-96.38926,29.90109],[-96.38488,29.8989],[-96.3837,29.90006],[-96.38276,29.89888],[-96.38071,29.89869],[-96.3802,29.89677],[-96.37806,29.89657],[-96.37852,29.89746],[-96.37574,29.89807],[-96.36938,29.89434],[-96.3682,29.89594],[-96.36738,29.89568],[-96.36284,29.89887],[-96.36042,29.90121],[-96.35995,29.90306],[-96.35747,29.90395],[-96.35891,29.91472],[-96.36099,29.91707],[-96.36643,29.91689],[-96.36662,29.92092],[-96.37017,29.92169],[-96.36991,29.92502],[-96.37357,29.93098],[-96.37274,29.93366],[-96.36992,29.93345],[-96.36964,29.93446],[-96.36724,29.93553],[-96.36313,29.93486],[-96.36319,29.93598],[-96.36576,29.93662],[-96.36495,29.93728],[-96.36513,29.93879],[-96.36593,29.9385],[-96.36735,29.9397],[-96.3657,29.93996],[-96.36898,29.94218],[-96.37179,29.9422],[-96.37248,29.94111],[-96.3736,29.94263],[-96.37547,29.94248],[-96.37849,29.94612],[-96.38086,29.94434],[-96.38009,29.94416],[-96.38075,29.94377],[-96.37999,29.94234],[-96.3832,29.94341],[-96.38344,29.94245],[-96.38649,29.94257],[-96.38789,29.9438],[-96.3879,29.94525],[-96.389,29.9445],[-96.38891,29.94533],[-96.38994,29.94582],[-96.39225,29.9436],[-96.39663,29.94462],[-96.39735,29.94922],[-96.39674,29.9536],[-96.38996,29.96041],[-96.39626,29.963],[-96.40895,29.97311],[-96.41827,29.96491],[-96.42477,29.9701],[-96.42758,29.96751],[-96.43448,29.97274],[-96.43303,29.97461],[-96.44801,29.97068],[-96.44791,29.97128],[-96.4509,29.9728],[-96.45575,29.98059],[-96.45667,29.98069],[-96.45739,29.97899],[-96.46009,29.97819],[-96.46377,29.98067],[-96.46486,29.98385],[-96.4681,29.98095],[-96.46258,29.97631],[-96.46394,29.97377],[-96.468,29.9698],[-96.46839,29.96813],[-96.4906,29.97181],[-96.49091,29.97107],[-96.49213,29.97127],[-96.4939,29.96479],[-96.49684,29.95949],[-96.49905,29.96165],[-96.50071,29.96585],[-96.50267,29.96556],[-96.50293,29.96734],[-96.5103,29.96704],[-96.51051,29.97163],[-96.51217,29.97204],[-96.51176,29.97302],[-96.51284,29.97369],[-96.51367,29.97285],[-96.51485,29.9737],[-96.51357,29.97492],[-96.51225,29.97407],[-96.50806,29.97476],[-96.5077,29.9736],[-96.50662,29.97613],[-96.50527,29.97702],[-96.5045,29.97441],[-96.50285,29.97502],[-96.50394,29.97775],[-96.50557,29.97844],[-96.50445,29.9789],[-96.50966,29.9788],[-96.5058,29.98535],[-96.50645,29.98741],[-96.50931,29.98957],[-96.51292,29.99024],[-96.51327,29.99125],[-96.5163,29.9922],[-96.51945,29.99485],[-96.52065,29.99657],[-96.52063,29.99953],[-96.52171,30.00037],[-96.52151,30.0015],[-96.52255,30.00235],[-96.52283,30.00423],[-96.5266,30.00624],[-96.52754,30.00833],[-96.53007,30.01026],[-96.53265,30.00971],[-96.53427,30.01102],[-96.53952,30.01036],[-96.54197,30.01117],[-96.54251,30.00982],[-96.56363,29.98969],[-96.56617,29.99258],[-96.57812,29.98104],[-96.5776,29.97829],[-96.59095,29.96808],[-96.5935,29.967],[-96.60375,29.96578],[-96.60965,29.96293],[-96.60608,29.9601],[-96.60808,29.95835],[-96.60634,29.95538],[-96.6073,29.95401],[-96.61137,29.95198]]]},"properties":{"zip_code":"78950","county":"Fayette"}}]}