{"type":"FeatureCollection","features":[{"type":"Feature","geometry":{"type":"Polygon","coordinates":[[[-97.05298,29.72002],[-97.05211,29.7005],[-97.04845,29.70036],[-97.04847,29.67977],[-97.04636,29.67973],[-97.04631,29.67266],[-97.03984,29.67244],[-97.03946,29.65411],[-97.03598,29.65437],[-97.03537,29.65089],[-97.03215,29.65054],[-97.03179,29.63499],[-97.03694,29.63508],[-97.04068,29.63151],[-97.04921,29.63016],[-97.04938,29.62955],[-97.04525,29.62972],[-97.04367,29.62762],[-97.04224,29.62763],[-97.04261,29.62649],[-97.0391,29.62592],[-97.03774,29.61689],[-97.01501,29.61718],[-97.01439,29.61495],[-97.00946,29.61502],[-97.00837,29.61425],[-96.99631,29.61446],[-96.99633,29.60973],[-96.99498,29.60799],[-96.99537,29.59541],[-96.99465,29.59392],[-96.99463,29.58982],[-97.00013,29.58981],[-97.00009,29.58499],[-97.02058,29.58394],[-97.02058,29.58016],[-97.022,29.58024],[-97.02253,29.57646],[-97.03347,29.57621],[-97.03339,29.57251],[-97.01498,29.57264],[-97.01284,29.56961],[-96.99801,29.56978],[-96.99356,29.57243],[-96.98472,29.57266],[-96.9848,29.57749],[-96.96636,29.57773],[-96.96606,29.57106],[-96.9524,29.57109],[-96.9525,29.57945],[-96.94734,29.57963],[-96.94525,29.58234],[-96.93901,29.5856],[-96.93611,29.58913],[-96.93128,29.59217],[-96.92959,29.58874],[-96.92633,29.58589],[-96.92566,29.58158],[-96.92384,29.58112],[-96.91974,29.58179],[-96.9171,29.57927],[-96.90688,29.58149],[-96.9064,29.57749],[-96.9052,29.57539],[-96.90292,29.57505],[-96.89862,29.57671],[-96.88788,29.57121],[-96.8836,29.5706],[-96.88258,29.56615],[-96.88048,29.56653],[-96.87765,29.56497],[-96.87417,29.56533],[-96.87317,29.56267],[-96.87181,29.56207],[-96.86395,29.5628],[-96.8597,29.55988],[-96.85904,29.55623],[-96.85576,29.55623],[-96.8528,29.55515],[-96.85018,29.55711],[-96.84944,29.5594],[-96.84703,29.56063],[-96.84006,29.55678],[-96.83323,29.55538],[-96.83216,29.55778],[-96.82782,29.55769],[-96.82557,29.55865],[-96.82872,29.56188],[-96.82882,29.56582],[-96.83508,29.56834],[-96.83263,29.57235],[-96.83192,29.57565],[-96.83445,29.57958],[-96.83857,29.58274],[-96.83929,29.58524],[-96.83649,29.58816],[-96.83572,29.5929],[-96.83329,29.59581],[-96.83709,29.59878],[-96.83793,29.60379],[-96.84035,29.60523],[-96.84126,29.60765],[-96.84425,29.60894],[-96.84234,29.61283],[-96.84299,29.61642],[-96.84622,29.61661],[-96.84871,29.61818],[-96.84895,29.61892],[-96.84724,29.62017],[-96.84782,29.62088],[-96.85714,29.62321],[-96.85914,29.62438],[-96.85907,29.62672],[-96.86306,29.62828],[-96.86289,29.62974],[-96.86586,29.63043],[-96.865,29.63271],[-96.87422,29.63271],[-96.85262,29.65479],[-96.85262,29.6572],[-96.85495,29.65862],[-96.8529,29.66443],[-96.85466,29.66658],[-96.85469,29.67089],[-96.85175,29.67178],[-96.84957,29.67393],[-96.85051,29.67794],[-96.84942,29.67948],[-96.83941,29.68042],[-96.83949,29.68307],[-96.84226,29.68304],[-96.83549,29.68878],[-96.83805,29.68979],[-96.8361,29.69332],[-96.83584,29.69596],[-96.83794,29.69766],[-96.82885,29.69827],[-96.82914,29.70246],[-96.82448,29.70597],[-96.82449,29.70903],[-96.82824,29.70898],[-96.82845,29.71517],[-96.83232,29.71545],[-96.83196,29.71901],[-96.8338,29.73023],[-96.83571,29.73546],[-96.8359,29.74642],[-96.83819,29.75219],[-96.83844,29.78374],[-96.8393,29.7863],[-96.84126,29.78829],[-96.84508,29.78939],[-96.85893,29.78913],[-96.86065,29.79081],[-96.8615,29.79388],[-96.86371,29.79486],[-96.88828,29.79395],[-96.88834,29.79484],[-96.90998,29.79148],[-96.91015,29.80062],[-96.91634,29.80075],[-96.91701,29.80549],[-96.93088,29.80515],[-96.93107,29.79928],[-96.94575,29.7991],[-96.94715,29.79725],[-96.95227,29.79715],[-96.95211,29.78912],[-96.95276,29.7867],[-96.95629,29.7877],[-96.96281,29.7876],[-96.96266,29.77999],[-96.96667,29.77978],[-96.96654,29.77671],[-96.98371,29.77725],[-96.9838,29.76463],[-96.99326,29.76405],[-96.99323,29.76162],[-97.00853,29.7615],[-97.00809,29.76965],[-97.01159,29.76958],[-97.01244,29.77845],[-97.01314,29.78043],[-97.01458,29.78029],[-97.01442,29.7672],[-97.02695,29.76705],[-97.02599,29.74809],[-97.02394,29.74785],[-97.04918,29.74732],[-97.04863,29.72011],[-97.05298,29.72002]]]},"properties":{"zip_code":"78956","county":"Fayette"}}]}