{"type":"FeatureCollection","features":[{"type":"Feature","geometry":{"type":"Polygon","coordinates":[[[-96.85474,29.65895],[-96.85262,29.6572],[-96.85252,29.63289],[-96.85168,29.63163],[-96.84637,29.63171],[-96.84583,29.6376],[-96.84457,29.63872],[-96.82415,29.63812],[-96.82268,29.63717],[-96.82247,29.63325],[-96.82661,29.63273],[-96.82792,29.63098],[-96.82804,29.62157],[-96.82684,29.61676],[-96.82694,29.60478],[-96.82936,29.60464],[-96.82999,29.59974],[-96.82161,29.59935],[-96.82131,29.59722],[-96.81778,29.59718],[-96.81758,29.59382],[-96.8131,29.59372],[-96.81252,29.58567],[-96.80978,29.58569],[-96.80956,29.57717],[-96.77256,29.57748],[-96.77211,29.57181],[-96.76472,29.56452],[-96.77072,29.56446],[-96.77082,29.56329],[-96.77949,29.5632],[-96.7578,29.54065],[-96.7375,29.54961],[-96.73768,29.55661],[-96.71479,29.55681],[-96.71438,29.56329],[-96.68941,29.56325],[-96.68256,29.55622],[-96.68245,29.55129],[-96.67081,29.55013],[-96.67017,29.5562],[-96.67171,29.56112],[-96.67487,29.56706],[-96.64434,29.56766],[-96.64335,29.57178],[-96.64586,29.57596],[-96.642,29.57863],[-96.63761,29.58008],[-96.63728,29.59354],[-96.6388,29.59344],[-96.63895,29.6009],[-96.62879,29.60106],[-96.62951,29.64239],[-96.60905,29.64273],[-96.60839,29.65157],[-96.61022,29.65125],[-96.61214,29.65486],[-96.61354,29.65532],[-96.61361,29.65651],[-96.61223,29.65758],[-96.61289,29.65913],[-96.61496,29.66009],[-96.61612,29.65947],[-96.6191,29.66038],[-96.62556,29.6659],[-96.62985,29.66604],[-96.62883,29.66744],[-96.6292,29.66806],[-96.63041,29.66801],[-96.63367,29.67006],[-96.63458,29.6717],[-96.63631,29.6714],[-96.63761,29.67233],[-96.63856,29.6705],[-96.64252,29.67032],[-96.64313,29.67334],[-96.64908,29.67456],[-96.64835,29.69168],[-96.61965,29.69341],[-96.60531,29.69352],[-96.62411,29.70432],[-96.63773,29.70777],[-96.63793,29.69808],[-96.64344,29.698],[-96.64356,29.70078],[-96.64905,29.70408],[-96.64919,29.71732],[-96.65225,29.71876],[-96.65388,29.72049],[-96.66288,29.73342],[-96.66961,29.73912],[-96.67704,29.74375],[-96.68087,29.74923],[-96.68081,29.75479],[-96.67269,29.75969],[-96.66867,29.76395],[-96.67168,29.77032],[-96.67028,29.77411],[-96.67169,29.77605],[-96.67385,29.77729],[-96.6793,29.77829],[-96.68819,29.77749],[-96.69568,29.78046],[-96.71085,29.77631],[-96.71911,29.77205],[-96.72429,29.77252],[-96.72838,29.77586],[-96.72825,29.77859],[-96.72521,29.78175],[-96.72433,29.78525],[-96.72797,29.79109],[-96.72824,29.7928],[-96.72841,29.79132],[-96.72886,29.79185],[-96.73828,29.78753],[-96.74125,29.78787],[-96.769,29.77586],[-96.76875,29.7673],[-96.78156,29.76707],[-96.79496,29.77996],[-96.79609,29.7837],[-96.79668,29.79607],[-96.81681,29.79565],[-96.81883,29.79453],[-96.81949,29.79118],[-96.82157,29.78952],[-96.84145,29.78841],[-96.8393,29.7863],[-96.83844,29.78374],[-96.83819,29.75219],[-96.8359,29.74642],[-96.83571,29.73546],[-96.8338,29.73023],[-96.83196,29.71901],[-96.83232,29.71545],[-96.82845,29.71517],[-96.82824,29.70898],[-96.82449,29.70903],[-96.82448,29.70597],[-96.82914,29.70246],[-96.82885,29.69827],[-96.83794,29.69766],[-96.83584,29.69596],[-96.8361,29.69332],[-96.83805,29.68979],[-96.83549,29.68878],[-96.84226,29.68304],[-96.83949,29.68307],[-96.83941,29.68042],[-96.84942,29.67948],[-96.85038,29.67831],[-96.84957,29.67393],[-96.85175,29.67178],[-96.85469,29.67089],[-96.85466,29.66658],[-96.8529,29.66443],[-96.85474,29.65895]]]},"properties":{"zip_code":"78962","county":"Fayette"}}]}