{"type":"FeatureCollection","features":[{"type":"Feature","geometry":{"type":"Polygon","coordinates":[[[-97.10032,29.92365],[-97.09715,29.92124],[-97.09521,29.91715],[-97.09481,29.91256],[-97.0918,29.91161],[-97.09064,29.90999],[-97.09,29.90685],[-97.09176,29.90683],[-97.09183,29.89789],[-97.09286,29.89727],[-97.09062,29.89357],[-97.08797,29.89352],[-97.08758,29.89471],[-97.08649,29.88715],[-97.06076,29.88669],[-97.06058,29.88927],[-97.05969,29.88714],[-97.05675,29.88571],[-97.05154,29.8953],[-97.04884,29.8962],[-97.04839,29.90094],[-97.04721,29.90301],[-97.03796,29.90472],[-97.03724,29.90555],[-97.03659,29.90027],[-97.03409,29.89343],[-97.03575,29.88046],[-97.03404,29.87162],[-97.0334,29.87086],[-97.0297,29.87092],[-97.0324,29.86069],[-97.0333,29.85394],[-97.03698,29.84317],[-97.03488,29.84294],[-97.02747,29.84383],[-97.02626,29.8447],[-97.02423,29.84415],[-97.02273,29.846],[-97.02328,29.84772],[-97.02189,29.84921],[-97.02202,29.85086],[-97.01942,29.85136],[-97.01765,29.85468],[-97.01502,29.85438],[-97.01447,29.85322],[-97.0099,29.85484],[-97.00889,29.85736],[-97.00979,29.85974],[-97.00942,29.86251],[-97.00655,29.86294],[-97.00292,29.86588],[-97.00318,29.86741],[-97.00478,29.86778],[-97.00436,29.86883],[-97.00197,29.8694],[-97.00336,29.87137],[-97.00149,29.87325],[-96.99835,29.87409],[-96.99789,29.89396],[-96.99543,29.90139],[-96.99581,29.91487],[-96.98444,29.91482],[-96.98414,29.9138],[-96.98269,29.91493],[-96.97553,29.92149],[-96.97537,29.92913],[-96.96849,29.93556],[-96.96889,29.93654],[-96.96824,29.93716],[-96.95091,29.93454],[-96.94887,29.93631],[-96.95489,29.94029],[-96.95631,29.96451],[-96.96271,29.96347],[-96.96787,29.96132],[-96.971,29.96266],[-96.97125,29.96453],[-96.96636,29.98059],[-96.96692,29.98301],[-96.96801,29.98413],[-96.98068,29.98243],[-96.98273,29.98145],[-96.98423,29.97801],[-96.98496,29.97198],[-96.98756,29.96896],[-96.99058,29.9682],[-96.99288,29.96996],[-96.99685,29.97033],[-96.99685,29.97091],[-97.00018,29.97003],[-97.00464,29.96687],[-97.00628,29.96252],[-97.00815,29.96002],[-97.01137,29.95873],[-97.01987,29.96059],[-97.02206,29.95949],[-97.0243,29.95956],[-97.02693,29.96114],[-97.02716,29.96377],[-97.02448,29.96574],[-97.02256,29.96852],[-97.02214,29.97112],[-97.0197,29.97303],[-97.01987,29.975],[-97.03131,29.98278],[-97.04359,29.98595],[-97.04586,29.98529],[-97.0468,29.98377],[-97.04582,29.97746],[-97.04418,29.97287],[-97.04594,29.97105],[-97.04809,29.9659],[-97.04963,29.96476],[-97.06121,29.95879],[-97.0714,29.9603],[-97.08585,29.95709],[-97.08583,29.95309],[-97.08639,29.95381],[-97.09121,29.95334],[-97.09133,29.95145],[-97.09409,29.94929],[-97.0939,29.94667],[-97.092,29.9408],[-97.08576,29.93412],[-97.08582,29.92382],[-97.10032,29.92365]]]},"properties":{"zip_code":"78963","county":"Fayette"}}]}