{"type":"FeatureCollection","features":[{"type":"Feature","properties":{"zip_code":"78602"},"geometry":{"type":"Polygon","coordinates":[[[-97.46464,30.01364],[-97.46359,30.01232],[-97.4629,30.00628],[-97.46102,30.00698],[-97.46012,30.00831],[-97.45815,30.00974],[-97.45547,30.00856],[-97.45586,30.00616],[-97.43241,29.99488],[-97.43259,29.99471],[-97.43174,29.9942],[-97.43158,29.9944],[-97.43031,29.99366],[-97.43014,29.99386],[-97.42911,29.9932],[-97.42936,29.99283],[-97.42907,29.99264],[-97.43028,29.99064],[-97.42868,29.98959],[-97.42761,29.99119],[-97.42649,29.9906],[-97.42857,29.98731],[-97.42406,29.99073],[-97.42279,29.99009],[-97.42206,29.99115],[-97.41992,29.9901],[-97.42004,29.98989],[-97.41938,29.98957],[-97.41872,29.99043],[-97.41404,29.98807],[-97.41064,29.99318],[-97.40958,29.99613],[-97.40815,29.99794],[-97.40704,29.99753],[-97.40526,30.00185],[-97.39948,29.99858],[-97.39506,29.99712],[-97.39108,29.99502],[-97.3921,29.99314],[-97.38642,29.99009],[-97.38574,29.9907],[-97.38502,29.99187],[-97.37402,29.98663],[-97.37558,29.9841],[-97.37301,29.98273],[-97.37478,29.98032],[-97.36279,29.97461],[-97.36169,29.97624],[-97.35569,29.97326],[-97.35512,29.97244],[-97.35424,29.97255],[-97.35292,29.97194],[-97.35112,29.97549],[-97.34281,29.97151],[-97.34294,29.97366],[-97.34243,29.97479],[-97.34153,29.97526],[-97.33931,29.97479],[-97.33894,29.97512],[-97.33903,29.97681],[-97.33987,29.97758],[-97.33951,29.97857],[-97.33874,29.97928],[-97.33852,29.98068],[-97.33926,29.98088],[-97.33992,29.98224],[-97.34012,29.98366],[-97.33903,29.98503],[-97.33747,29.98529],[-97.33637,29.98483],[-97.33564,29.9849],[-97.3359,29.98663],[-97.33683,29.98711],[-97.33682,29.99014],[-97.33634,29.9904],[-97.33597,29.99021],[-97.33567,29.98963],[-97.3347,29.98962],[-97.33423,29.99031],[-97.33418,29.99112],[-97.3328,29.99211],[-97.33305,29.99327],[-97.33486,29.99391],[-97.33765,29.99652],[-97.33859,29.99796],[-97.33838,30.00138],[-97.33701,30.00371],[-97.33664,30.00555],[-97.33473,30.00575],[-97.33367,30.00511],[-97.3333,30.00432],[-97.33179,30.00403],[-97.33068,30.00397],[-97.32931,30.00451],[-97.32893,30.00387],[-97.32929,30.00354],[-97.32916,30.00297],[-97.32838,30.00244],[-97.32721,30.00263],[-97.32633,30.00312],[-97.32481,30.00309],[-97.32378,30.0034],[-97.32314,30.0049],[-97.32363,30.00854],[-97.3241,30.00889],[-97.32474,30.00888],[-97.32621,30.00827],[-97.32759,30.00873],[-97.32817,30.00939],[-97.32921,30.01136],[-97.32879,30.013],[-97.32776,30.01396],[-97.32565,30.01489],[-97.32492,30.0166],[-97.32293,30.01768],[-97.32194,30.01862],[-97.32094,30.02009],[-97.31924,30.02072],[-97.31668,30.0207],[-97.31592,30.02189],[-97.31463,30.02291],[-97.31474,30.02347],[-97.31602,30.02421],[-97.31675,30.02507],[-97.31638,30.02558],[-97.3146,30.02581],[-97.31375,30.02638],[-97.3139,30.0269],[-97.31559,30.02856],[-97.31572,30.02937],[-97.31505,30.03013],[-97.31356,30.03048],[-97.31327,30.03191],[-97.31348,30.03215],[-97.31468,30.03227],[-97.3154,30.03452],[-97.31461,30.03474],[-97.31421,30.03541],[-97.31299,30.03605],[-97.31249,30.0367],[-97.31244,30.03715],[-97.31307,30.03802],[-97.31684,30.04004],[-97.3171,30.0406],[-97.31611,30.04265],[-97.31455,30.04502],[-97.3129,30.04506],[-97.31193,30.04423],[-97.31031,30.04196],[-97.30928,30.03931],[-97.30842,30.03836],[-97.3064,30.03812],[-97.30114,30.03923],[-97.29636,30.03919],[-97.2941,30.03864],[-97.29337,30.0379],[-97.29284,30.03328],[-97.29216,30.03213],[-97.28465,30.02769],[-97.28185,30.02543],[-97.28118,30.02528],[-97.2804,30.02549],[-97.27873,30.02548],[-97.2773,30.02524],[-97.27538,30.02417],[-97.27506,30.02328],[-97.27462,30.0228],[-97.27378,30.02244],[-97.27108,30.02265],[-97.26826,30.02248],[-97.26638,30.02266],[-97.26422,30.02325],[-97.26005,30.02484],[-97.25911,30.02563],[-97.25875,30.02634],[-97.25715,30.02727],[-97.25534,30.0272],[-97.2543,30.02646],[-97.25076,30.02628],[-97.24724,30.02653],[-97.24633,30.02632],[-97.24555,30.0256],[-97.246,30.02332],[-97.24603,30.02159],[-97.24591,30.02002],[-97.24536,30.0187],[-97.246,30.0168],[-97.24915,30.01201],[-97.24868,30.01091],[-97.24778,30.01042],[-97.24738,30.01056],[-97.24699,30.01111],[-97.24398,30.01274],[-97.24279,30.01373],[-97.23555,30.01502],[-97.23377,30.01641],[-97.23222,30.01878],[-97.232,30.02064],[-97.23328,30.02282],[-97.23351,30.02473],[-97.2333,30.02544],[-97.23169,30.02679],[-97.22893,30.02792],[-97.22774,30.02808],[-97.22552,30.02779],[-97.2217,30.0269],[-97.21849,30.02651],[-97.21691,30.02595],[-97.21412,30.02369],[-97.21257,30.02337],[-97.21075,30.02366],[-97.20488,30.02988],[-97.20314,30.03202],[-97.20263,30.03298],[-97.20239,30.03467],[-97.20321,30.04012],[-97.20392,30.04284],[-97.2054,30.04616],[-97.20541,30.04848],[-97.20458,30.05081],[-97.20379,30.05166],[-97.20226,30.0521],[-97.20242,30.05246],[-97.20421,30.05367],[-97.20587,30.05377],[-97.20683,30.05277],[-97.20992,30.05083],[-97.21296,30.04997],[-97.21372,30.04997],[-97.21464,30.04927],[-97.21604,30.0487],[-97.21694,30.04768],[-97.21821,30.04699],[-97.21849,30.04648],[-97.21853,30.04554],[-97.21928,30.04383],[-97.22096,30.04257],[-97.222,30.04129],[-97.2231,30.04077],[-97.22266,30.03945],[-97.22374,30.0395],[-97.22549,30.04035],[-97.2263,30.04201],[-97.22752,30.04331],[-97.22772,30.04412],[-97.22819,30.04438],[-97.22788,30.04535],[-97.22842,30.04573],[-97.22832,30.04608],[-97.22873,30.0464],[-97.22839,30.04668],[-97.22805,30.04769],[-97.22611,30.04905],[-97.22598,30.05031],[-97.2267,30.05123],[-97.22552,30.05176],[-97.2243,30.05296],[-97.22403,30.05405],[-97.22281,30.05592],[-97.22128,30.05702],[-97.22761,30.06139],[-97.22979,30.06352],[-97.2293,30.06683],[-97.22829,30.07067],[-97.22614,30.07012],[-97.22596,30.07035],[-97.2307,30.07159],[-97.22973,30.07518],[-97.23602,30.07645],[-97.23466,30.08136],[-97.23923,30.08261],[-97.23885,30.08283],[-97.23804,30.08556],[-97.2338,30.10049],[-97.23193,30.10822],[-97.23022,30.11366],[-97.22273,30.11201],[-97.22336,30.11294],[-97.22347,30.11382],[-97.22392,30.11393],[-97.22437,30.11452],[-97.22393,30.11515],[-97.22444,30.11533],[-97.22519,30.11682],[-97.22433,30.11925],[-97.22321,30.1206],[-97.22336,30.12279],[-97.22201,30.1261],[-97.22119,30.1275],[-97.22113,30.12826],[-97.22148,30.12877],[-97.22067,30.12897],[-97.2196,30.13105],[-97.21746,30.13232],[-97.21686,30.13234],[-97.21682,30.13309],[-97.21654,30.13354],[-97.21484,30.13416],[-97.21455,30.13458],[-97.21315,30.13471],[-97.21371,30.13706],[-97.21268,30.14198],[-97.21276,30.14555],[-97.21332,30.14663],[-97.21519,30.14727],[-97.21916,30.14947],[-97.22038,30.14938],[-97.22134,30.1487],[-97.22269,30.14885],[-97.22574,30.15174],[-97.21775,30.15648],[-97.22815,30.16532],[-97.22157,30.17085],[-97.22374,30.17266],[-97.22437,30.17228],[-97.22494,30.17275],[-97.22522,30.17361],[-97.22468,30.17443],[-97.22515,30.1747],[-97.2319,30.1686],[-97.23186,30.16842],[-97.23349,30.16984],[-97.23348,30.1702],[-97.23225,30.17112],[-97.23198,30.17224],[-97.23251,30.18616],[-97.23251,30.19211],[-97.23084,30.19414],[-97.23103,30.19675],[-97.24852,30.21049],[-97.274,30.23192],[-97.26641,30.24101],[-97.2598,30.24942],[-97.26001,30.24957],[-97.25192,30.2612],[-97.25123,30.26062],[-97.24892,30.27021],[-97.24834,30.27142],[-97.24736,30.27262],[-97.24935,30.27422],[-97.25623,30.26807],[-97.26095,30.27153],[-97.2633,30.27375],[-97.26029,30.2764],[-97.26514,30.28061],[-97.26924,30.28272],[-97.27123,30.28437],[-97.27132,30.28473],[-97.27419,30.28687],[-97.28776,30.29836],[-97.28778,30.29868],[-97.28956,30.30015],[-97.29957,30.30637],[-97.30514,30.31076],[-97.30628,30.3086],[-97.30539,30.30725],[-97.30545,30.30656],[-97.30924,30.30292],[-97.30889,30.29915],[-97.30892,30.29646],[-97.30927,30.29496],[-97.31887,30.28658],[-97.32333,30.29035],[-97.3334,30.28143],[-97.33592,30.2804],[-97.3308,30.27038],[-97.32797,30.26551],[-97.32896,30.26431],[-97.33139,30.26286],[-97.33225,30.26185],[-97.33258,30.26078],[-97.3322,30.25752],[-97.33314,30.25698],[-97.33324,30.25647],[-97.33225,30.25579],[-97.3316,30.25617],[-97.33005,30.25569],[-97.32878,30.25585],[-97.32804,30.25567],[-97.32672,30.25492],[-97.32653,30.2543],[-97.3271,30.25391],[-97.32671,30.25329],[-97.32694,30.25237],[-97.32876,30.24905],[-97.3288,30.24867],[-97.32812,30.24757],[-97.32862,30.24726],[-97.32876,30.24627],[-97.33065,30.24169],[-97.33111,30.24115],[-97.33154,30.24107],[-97.33257,30.24122],[-97.33536,30.24223],[-97.33612,30.24198],[-97.33661,30.24123],[-97.33641,30.24044],[-97.33839,30.23891],[-97.33881,30.23825],[-97.33571,30.23619],[-97.33411,30.23614],[-97.33276,30.23581],[-97.33236,30.2349],[-97.32989,30.23373],[-97.32953,30.2332],[-97.32992,30.2329],[-97.33069,30.2308],[-97.33475,30.23418],[-97.3352,30.23409],[-97.33684,30.23269],[-97.34058,30.23581],[-97.34077,30.23633],[-97.34067,30.23706],[-97.33953,30.2381],[-97.33953,30.23838],[-97.34516,30.24314],[-97.34643,30.24381],[-97.34768,30.24638],[-97.348,30.2476],[-97.34907,30.24747],[-97.34982,30.24717],[-97.3504,30.24655],[-97.35288,30.24332],[-97.35658,30.23795],[-97.35934,30.23338],[-97.36449,30.23747],[-97.36698,30.23385],[-97.36645,30.23358],[-97.37738,30.21687],[-97.37803,30.21713],[-97.38182,30.21094],[-97.40179,30.22032],[-97.41176,30.2046],[-97.41234,30.20473],[-97.41823,30.20416],[-97.4223,30.20312],[-97.42707,30.19578],[-97.42977,30.19076],[-97.42818,30.19076],[-97.42758,30.1905],[-97.42478,30.18916],[-97.42368,30.18817],[-97.42273,30.18663],[-97.42266,30.18594],[-97.42328,30.18409],[-97.4245,30.18212],[-97.43123,30.17767],[-97.43403,30.17512],[-97.43868,30.16856],[-97.43952,30.16661],[-97.44138,30.16449],[-97.44257,30.16371],[-97.44254,30.1643],[-97.44217,30.1647],[-97.44255,30.16441],[-97.44274,30.16381],[-97.4436,30.16352],[-97.44633,30.1594],[-97.44726,30.15757],[-97.4523,30.15365],[-97.45324,30.15237],[-97.4536,30.1513],[-97.45357,30.15009],[-97.45289,30.14928],[-97.44575,30.14343],[-97.4445,30.14267],[-97.4431,30.14205],[-97.44207,30.14188],[-97.44056,30.14205],[-97.43748,30.14326],[-97.43747,30.14271],[-97.44064,30.13998],[-97.44155,30.1343],[-97.44093,30.13296],[-97.43976,30.13135],[-97.43933,30.13114],[-97.43934,30.13523],[-97.4363,30.13514],[-97.4363,30.13121],[-97.43248,30.13121],[-97.43245,30.12713],[-97.43379,30.12709],[-97.43385,30.12583],[-97.43481,30.12367],[-97.43082,30.12105],[-97.43079,30.11912],[-97.42776,30.11756],[-97.42662,30.11792],[-97.42649,30.11632],[-97.42207,30.11336],[-97.42085,30.1117],[-97.41649,30.11304],[-97.41525,30.11239],[-97.41696,30.11107],[-97.41901,30.11037],[-97.4145,30.11029],[-97.4145,30.10933],[-97.41411,30.10922],[-97.41396,30.10582],[-97.41442,30.10571],[-97.41433,30.10209],[-97.42007,30.10209],[-97.42014,30.09698],[-97.42428,30.09684],[-97.4271,30.09649],[-97.43175,30.09481],[-97.43594,30.09457],[-97.43926,30.08602],[-97.43786,30.08477],[-97.4374,30.08353],[-97.43723,30.08192],[-97.43614,30.08025],[-97.43616,30.08],[-97.43683,30.07996],[-97.43697,30.07955],[-97.43601,30.07878],[-97.43528,30.07945],[-97.43502,30.08034],[-97.43423,30.08032],[-97.43331,30.08164],[-97.43393,30.08318],[-97.43388,30.08419],[-97.43243,30.08363],[-97.43072,30.08385],[-97.43033,30.08413],[-97.43048,30.08489],[-97.42998,30.08531],[-97.42819,30.08494],[-97.42651,30.08569],[-97.4255,30.08525],[-97.42461,30.08425],[-97.42371,30.08415],[-97.42279,30.08623],[-97.42086,30.08821],[-97.42004,30.08966],[-97.41914,30.08999],[-97.41886,30.08988],[-97.41874,30.08932],[-97.41764,30.08942],[-97.41746,30.08864],[-97.41716,30.0884],[-97.41415,30.08804],[-97.41171,30.08669],[-97.40985,30.08679],[-97.40808,30.0876],[-97.40589,30.08808],[-97.40516,30.08795],[-97.40359,30.08688],[-97.40424,30.08512],[-97.40334,30.0832],[-97.40147,30.08315],[-97.39882,30.0822],[-97.3973,30.08323],[-97.39626,30.08222],[-97.39394,30.08067],[-97.39255,30.08144],[-97.39166,30.08243],[-97.39104,30.08279],[-97.39009,30.08291],[-97.38903,30.08256],[-97.38782,30.08266],[-97.38635,30.08232],[-97.38476,30.08152],[-97.38376,30.08065],[-97.38358,30.07967],[-97.38423,30.07811],[-97.38537,30.07716],[-97.38701,30.07638],[-97.38732,30.07575],[-97.38704,30.07296],[-97.38819,30.07215],[-97.38857,30.07077],[-97.38782,30.06914],[-97.38717,30.06842],[-97.39775,30.06216],[-97.39791,30.06272],[-97.39867,30.06257],[-97.3986,30.062],[-97.3989,30.06144],[-97.40253,30.05933],[-97.40486,30.05285],[-97.40295,30.05273],[-97.40238,30.0548],[-97.39987,30.05424],[-97.40074,30.05064],[-97.40867,30.0515],[-97.41291,30.04679],[-97.41344,30.04672],[-97.4136,30.04603],[-97.41611,30.04324],[-97.41763,30.04343],[-97.42156,30.03767],[-97.42176,30.03737],[-97.42141,30.03698],[-97.42136,30.03544],[-97.42085,30.03479],[-97.42042,30.03331],[-97.42063,30.0322],[-97.42139,30.03098],[-97.42062,30.02913],[-97.42071,30.02853],[-97.42036,30.02819],[-97.42002,30.0284],[-97.42004,30.02726],[-97.41945,30.02783],[-97.41859,30.02813],[-97.41986,30.02605],[-97.42128,30.02534],[-97.42323,30.02504],[-97.42395,30.02735],[-97.42482,30.02851],[-97.42548,30.02877],[-97.42546,30.02776],[-97.42642,30.02807],[-97.42541,30.03163],[-97.42419,30.03379],[-97.42775,30.03532],[-97.43278,30.02968],[-97.43537,30.02882],[-97.43623,30.02802],[-97.43643,30.02746],[-97.43639,30.02568],[-97.43711,30.0236],[-97.44198,30.02568],[-97.44299,30.02637],[-97.44676,30.02711],[-97.44857,30.02415],[-97.44956,30.02398],[-97.45137,30.02237],[-97.45471,30.01768],[-97.45644,30.01817],[-97.46048,30.02192],[-97.4641,30.01665],[-97.46262,30.01525],[-97.46464,30.01364]]]}},{"type":"Feature","properties":{"zip_code":"78612"},"geometry":{"type":"Polygon","coordinates":[[[-97.58383,30.08129],[-97.54575,30.04913],[-97.54861,30.0467],[-97.54591,30.04445],[-97.54318,30.04695],[-97.54172,30.04543],[-97.54069,30.04314],[-97.54047,30.04084],[-97.54114,30.03594],[-97.54147,30.03603],[-97.54232,30.03698],[-97.54351,30.03632],[-97.5441,30.03625],[-97.54662,30.03656],[-97.54788,30.03693],[-97.54853,30.03787],[-97.55224,30.03553],[-97.55498,30.03171],[-97.55439,30.03127],[-97.55541,30.03005],[-97.55577,30.02979],[-97.55681,30.03035],[-97.56304,30.02432],[-97.56256,30.02355],[-97.56628,30.0194],[-97.56647,30.018],[-97.55664,30.0098],[-97.55617,30.00969],[-97.55784,30.00804],[-97.5625,30.01203],[-97.56609,30.00895],[-97.55582,30],[-97.55307,30.00237],[-97.55092,30.00055],[-97.54835,30.00285],[-97.54152,29.9973],[-97.53592,30.00209],[-97.5385,30.00457],[-97.53315,30.00941],[-97.52453,30.00182],[-97.52216,30.00388],[-97.51851,30.00088],[-97.51679,30.00238],[-97.51537,30.00127],[-97.51486,30.00173],[-97.50931,29.99702],[-97.50865,29.99761],[-97.50733,29.99656],[-97.50619,29.99759],[-97.50436,29.99728],[-97.50285,29.9951],[-97.50182,29.99606],[-97.49926,29.99403],[-97.49709,29.99574],[-97.49595,29.99485],[-97.49479,29.9952],[-97.49455,29.99577],[-97.49293,29.9973],[-97.48844,29.99455],[-97.48913,29.99407],[-97.48302,29.98841],[-97.47818,29.99264],[-97.48181,29.996],[-97.47231,30.00386],[-97.47067,30.00248],[-97.4686,29.99937],[-97.46282,30.00481],[-97.46359,30.01232],[-97.46464,30.01364],[-97.46262,30.01525],[-97.4641,30.01665],[-97.46048,30.02192],[-97.45644,30.01817],[-97.45471,30.01768],[-97.45137,30.02237],[-97.44956,30.02398],[-97.44857,30.02415],[-97.44676,30.02711],[-97.44299,30.02637],[-97.44198,30.02568],[-97.43711,30.0236],[-97.43639,30.02568],[-97.43643,30.02746],[-97.43623,30.02802],[-97.43537,30.02882],[-97.43278,30.02968],[-97.42775,30.03532],[-97.42419,30.03379],[-97.42541,30.03163],[-97.42642,30.02807],[-97.42546,30.02776],[-97.42548,30.02877],[-97.42482,30.02851],[-97.42395,30.02735],[-97.42323,30.02504],[-97.42128,30.02534],[-97.41979,30.02612],[-97.41859,30.02813],[-97.41945,30.02783],[-97.42004,30.02726],[-97.42002,30.0284],[-97.42036,30.02819],[-97.42071,30.02853],[-97.42062,30.02913],[-97.42139,30.03098],[-97.42063,30.0322],[-97.42042,30.03331],[-97.42085,30.03479],[-97.42136,30.03544],[-97.42141,30.03698],[-97.42176,30.03737],[-97.42156,30.03767],[-97.41763,30.04343],[-97.41611,30.04324],[-97.4136,30.04603],[-97.41344,30.04672],[-97.41291,30.04679],[-97.40867,30.0515],[-97.40074,30.05064],[-97.39987,30.05424],[-97.40238,30.0548],[-97.40295,30.05273],[-97.40486,30.05285],[-97.40253,30.05933],[-97.3989,30.06144],[-97.3986,30.062],[-97.39867,30.06257],[-97.39791,30.06272],[-97.39775,30.06216],[-97.38717,30.06842],[-97.38782,30.06914],[-97.38857,30.07077],[-97.38819,30.07215],[-97.38704,30.07296],[-97.38732,30.07575],[-97.38701,30.07638],[-97.38537,30.07716],[-97.38423,30.07811],[-97.38355,30.0799],[-97.38376,30.08065],[-97.38484,30.08157],[-97.38635,30.08232],[-97.38782,30.08266],[-97.38903,30.08256],[-97.39009,30.08291],[-97.39104,30.08279],[-97.39166,30.08243],[-97.39255,30.08144],[-97.39394,30.08067],[-97.39626,30.08222],[-97.3973,30.08323],[-97.39882,30.0822],[-97.40147,30.08315],[-97.40334,30.0832],[-97.40424,30.08512],[-97.40359,30.08688],[-97.40516,30.08795],[-97.40589,30.08808],[-97.40808,30.0876],[-97.40985,30.08679],[-97.41171,30.08669],[-97.41415,30.08804],[-97.41716,30.0884],[-97.41746,30.08864],[-97.41764,30.08942],[-97.41874,30.08932],[-97.41886,30.08988],[-97.41914,30.08999],[-97.42004,30.08966],[-97.42086,30.08821],[-97.42279,30.08623],[-97.42365,30.08418],[-97.42461,30.08425],[-97.4255,30.08525],[-97.42651,30.08569],[-97.42819,30.08494],[-97.42998,30.08531],[-97.43048,30.08489],[-97.43033,30.08413],[-97.43072,30.08385],[-97.43243,30.08363],[-97.43388,30.08419],[-97.43393,30.08318],[-97.43329,30.0817],[-97.43382,30.08083],[-97.43427,30.0803],[-97.43502,30.08034],[-97.43528,30.07945],[-97.43586,30.0788],[-97.43696,30.07951],[-97.43679,30.07999],[-97.43614,30.08002],[-97.43622,30.08051],[-97.43723,30.08192],[-97.4374,30.08353],[-97.43786,30.08477],[-97.43926,30.08602],[-97.43594,30.09457],[-97.43175,30.09481],[-97.4271,30.09649],[-97.42428,30.09684],[-97.42014,30.09698],[-97.42007,30.10209],[-97.41433,30.10209],[-97.41442,30.10571],[-97.41396,30.10582],[-97.41411,30.10922],[-97.4145,30.10933],[-97.4145,30.11029],[-97.41901,30.11037],[-97.41696,30.11107],[-97.41525,30.11239],[-97.41649,30.11304],[-97.42085,30.1117],[-97.42207,30.11336],[-97.42649,30.11632],[-97.42662,30.11792],[-97.42776,30.11756],[-97.43079,30.11912],[-97.43082,30.12105],[-97.43481,30.12367],[-97.43385,30.12583],[-97.43379,30.12709],[-97.43245,30.12713],[-97.43248,30.13121],[-97.4363,30.13121],[-97.4363,30.13514],[-97.43934,30.13523],[-97.43933,30.13114],[-97.43976,30.13135],[-97.44093,30.13296],[-97.44155,30.1343],[-97.44064,30.13998],[-97.43747,30.14271],[-97.43748,30.14326],[-97.44056,30.14205],[-97.44207,30.14188],[-97.4431,30.14205],[-97.4445,30.14267],[-97.44575,30.14343],[-97.45289,30.14928],[-97.45357,30.15009],[-97.4536,30.1513],[-97.45324,30.15237],[-97.4523,30.15365],[-97.44726,30.15757],[-97.44633,30.1594],[-97.4436,30.16352],[-97.44274,30.16381],[-97.44255,30.16441],[-97.44217,30.1647],[-97.44254,30.1643],[-97.44257,30.16371],[-97.44138,30.16449],[-97.43952,30.16661],[-97.43868,30.16856],[-97.43403,30.17512],[-97.43123,30.17767],[-97.4245,30.18212],[-97.42289,30.18502],[-97.42273,30.18663],[-97.42368,30.18817],[-97.42478,30.18916],[-97.42758,30.1905],[-97.42818,30.19076],[-97.43199,30.1908],[-97.43396,30.19034],[-97.43558,30.18911],[-97.44944,30.18524],[-97.45371,30.18344],[-97.45854,30.18209],[-97.46145,30.18207],[-97.463,30.18358],[-97.46501,30.18445],[-97.46658,30.18414],[-97.46846,30.1832],[-97.46974,30.18285],[-97.47234,30.18324],[-97.47311,30.18361],[-97.47396,30.18484],[-97.47532,30.18548],[-97.47993,30.18691],[-97.48401,30.1884],[-97.48458,30.18881],[-97.48541,30.19011],[-97.48547,30.1953],[-97.4866,30.19684],[-97.48829,30.19851],[-97.48894,30.19983],[-97.48895,30.20041],[-97.48844,30.20136],[-97.4853,30.20181],[-97.48424,30.20275],[-97.48364,30.20421],[-97.48361,30.20612],[-97.48477,30.20697],[-97.48569,30.20826],[-97.48701,30.20848],[-97.4905,30.21114],[-97.49125,30.21211],[-97.49224,30.21265],[-97.49508,30.21052],[-97.49595,30.20923],[-97.49729,30.20882],[-97.50064,30.2086],[-97.50143,30.20845],[-97.50188,30.20794],[-97.50396,30.20775],[-97.50941,30.20293],[-97.51318,30.19891],[-97.51563,30.19827],[-97.51904,30.1979],[-97.51901,30.19724],[-97.51827,30.19743],[-97.51811,30.19725],[-97.51921,30.19622],[-97.51854,30.19599],[-97.51833,30.19557],[-97.51862,30.1946],[-97.51632,30.19402],[-97.51851,30.1907],[-97.51948,30.19076],[-97.51946,30.1903],[-97.52128,30.19066],[-97.52165,30.19037],[-97.52193,30.18976],[-97.52246,30.18945],[-97.52217,30.18863],[-97.52244,30.18798],[-97.52286,30.18773],[-97.52273,30.18692],[-97.52455,30.18543],[-97.52592,30.185],[-97.52709,30.18539],[-97.52815,30.18518],[-97.52878,30.18544],[-97.52969,30.18522],[-97.53085,30.1841],[-97.53118,30.18345],[-97.5318,30.18326],[-97.5322,30.18259],[-97.53226,30.18195],[-97.53145,30.18214],[-97.5311,30.18195],[-97.53154,30.181],[-97.53224,30.18098],[-97.53274,30.18041],[-97.5332,30.18042],[-97.53514,30.17964],[-97.52923,30.17652],[-97.52946,30.17634],[-97.53535,30.17945],[-97.53584,30.17861],[-97.53583,30.17734],[-97.53542,30.17621],[-97.53583,30.1759],[-97.53591,30.17536],[-97.5353,30.17469],[-97.53486,30.17487],[-97.53418,30.17474],[-97.53431,30.17386],[-97.5346,30.17365],[-97.5365,30.1736],[-97.53707,30.17293],[-97.53666,30.17258],[-97.53565,30.17282],[-97.53549,30.1724],[-97.53568,30.172],[-97.53487,30.17155],[-97.568,30.14146],[-97.56684,30.14033],[-97.56551,30.13957],[-97.5672,30.13679],[-97.56424,30.13541],[-97.56237,30.13848],[-97.56172,30.13817],[-97.56144,30.13862],[-97.56097,30.13855],[-97.54642,30.13292],[-97.54211,30.13034],[-97.53325,30.12718],[-97.54086,30.11537],[-97.54567,30.11788],[-97.54943,30.11464],[-97.55003,30.11513],[-97.55121,30.11549],[-97.55238,30.11543],[-97.55432,30.1131],[-97.55467,30.11252],[-97.55428,30.11114],[-97.55471,30.10999],[-97.55669,30.10812],[-97.55655,30.10707],[-97.55772,30.1067],[-97.55783,30.10571],[-97.55777,30.10264],[-97.55675,30.10184],[-97.5552,30.09338],[-97.56448,30.08638],[-97.57885,30.08571],[-97.58383,30.08129]]]}},{"type":"Feature","properties":{"zip_code":"78621"},"geometry":{"type":"Polygon","coordinates":[[[-97.50169,30.21502],[-97.50047,30.21421],[-97.49873,30.21708],[-97.49669,30.21593],[-97.49635,30.21611],[-97.49561,30.21739],[-97.49531,30.21728],[-97.49963,30.2105],[-97.50143,30.20845],[-97.49729,30.20882],[-97.49595,30.20923],[-97.49508,30.21052],[-97.49224,30.21265],[-97.49125,30.21211],[-97.4905,30.21114],[-97.48701,30.20848],[-97.48569,30.20826],[-97.48477,30.20697],[-97.48361,30.20612],[-97.48364,30.20421],[-97.48424,30.20275],[-97.4853,30.20181],[-97.48844,30.20136],[-97.48895,30.20041],[-97.48894,30.19983],[-97.48829,30.19851],[-97.4866,30.19684],[-97.48547,30.1953],[-97.48541,30.19011],[-97.48458,30.18881],[-97.48401,30.1884],[-97.47532,30.18548],[-97.47396,30.18484],[-97.47311,30.18361],[-97.47143,30.183],[-97.46974,30.18285],[-97.46846,30.1832],[-97.46658,30.18414],[-97.46501,30.18445],[-97.463,30.18358],[-97.46145,30.18207],[-97.45942,30.18196],[-97.45514,30.183],[-97.44944,30.18524],[-97.43558,30.18911],[-97.43396,30.19034],[-97.43283,30.1907],[-97.42977,30.19076],[-97.42707,30.19578],[-97.4223,30.20312],[-97.41823,30.20416],[-97.41234,30.20473],[-97.41176,30.2046],[-97.40179,30.22032],[-97.38182,30.21094],[-97.37803,30.21713],[-97.37738,30.21687],[-97.36645,30.23358],[-97.36698,30.23385],[-97.36449,30.23747],[-97.35934,30.23338],[-97.35658,30.23795],[-97.35288,30.24332],[-97.3504,30.24655],[-97.34982,30.24717],[-97.34907,30.24747],[-97.348,30.2476],[-97.34768,30.24638],[-97.34643,30.24381],[-97.34516,30.24314],[-97.33953,30.23838],[-97.33953,30.2381],[-97.34067,30.23706],[-97.34077,30.23633],[-97.34058,30.23581],[-97.33684,30.23269],[-97.3352,30.23409],[-97.33475,30.23418],[-97.33069,30.2308],[-97.32992,30.2329],[-97.32953,30.2332],[-97.32989,30.23373],[-97.33236,30.2349],[-97.33276,30.23581],[-97.33411,30.23614],[-97.33571,30.23619],[-97.33881,30.23825],[-97.33839,30.23891],[-97.33641,30.24044],[-97.33661,30.24123],[-97.33612,30.24198],[-97.33536,30.24223],[-97.33257,30.24122],[-97.33154,30.24107],[-97.33111,30.24115],[-97.33065,30.24169],[-97.32876,30.24627],[-97.32862,30.24726],[-97.32812,30.24757],[-97.3288,30.24867],[-97.32876,30.24905],[-97.32694,30.25237],[-97.32671,30.25329],[-97.3271,30.25391],[-97.32653,30.2543],[-97.32672,30.25492],[-97.32804,30.25567],[-97.32878,30.25585],[-97.33005,30.25569],[-97.3316,30.25617],[-97.33225,30.25579],[-97.33324,30.25647],[-97.33314,30.25698],[-97.3322,30.25752],[-97.33258,30.26078],[-97.33225,30.26185],[-97.33139,30.26286],[-97.32896,30.26431],[-97.32797,30.26551],[-97.3308,30.27038],[-97.33592,30.2804],[-97.3334,30.28143],[-97.32333,30.29035],[-97.31887,30.28658],[-97.30927,30.29496],[-97.30892,30.29646],[-97.30889,30.29915],[-97.30924,30.30292],[-97.30545,30.30656],[-97.30539,30.30725],[-97.30628,30.3086],[-97.30514,30.31076],[-97.29957,30.30637],[-97.28956,30.30015],[-97.28778,30.29868],[-97.28776,30.29836],[-97.27419,30.28687],[-97.27132,30.28473],[-97.27123,30.28437],[-97.26924,30.28272],[-97.26746,30.2818],[-97.26728,30.28196],[-97.26735,30.2835],[-97.26665,30.28369],[-97.2661,30.28432],[-97.26632,30.28528],[-97.26568,30.28606],[-97.26561,30.28727],[-97.26482,30.28863],[-97.26505,30.28982],[-97.26448,30.29049],[-97.26353,30.29089],[-97.2626,30.29266],[-97.262,30.29313],[-97.26141,30.29424],[-97.26147,30.29507],[-97.26711,30.2963],[-97.27009,30.29665],[-97.26994,30.29697],[-97.26939,30.29702],[-97.26377,30.30243],[-97.26422,30.30362],[-97.26762,30.30679],[-97.26836,30.30722],[-97.26838,30.30745],[-97.27082,30.30923],[-97.27208,30.31057],[-97.27234,30.31198],[-97.27231,30.31303],[-97.27166,30.31441],[-97.26591,30.32266],[-97.26601,30.32338],[-97.26566,30.32617],[-97.26786,30.32767],[-97.26788,30.32823],[-97.25873,30.32409],[-97.25457,30.32385],[-97.25358,30.32543],[-97.25681,30.32848],[-97.25583,30.32913],[-97.25535,30.3303],[-97.25465,30.33119],[-97.25359,30.33151],[-97.25342,30.33236],[-97.25294,30.33289],[-97.25149,30.33275],[-97.25002,30.33354],[-97.24872,30.33379],[-97.24491,30.3367],[-97.2439,30.33657],[-97.24169,30.34012],[-97.2418,30.34039],[-97.24871,30.3438],[-97.24203,30.35418],[-97.23864,30.35652],[-97.26306,30.36827],[-97.25967,30.37355],[-97.25821,30.37494],[-97.25707,30.37565],[-97.24105,30.38095],[-97.23784,30.38088],[-97.23587,30.38028],[-97.22593,30.37512],[-97.22597,30.37574],[-97.22689,30.37684],[-97.22777,30.37871],[-97.2277,30.37955],[-97.22674,30.38149],[-97.22685,30.38239],[-97.22758,30.38393],[-97.22816,30.38447],[-97.22916,30.38477],[-97.23027,30.38458],[-97.23486,30.39504],[-97.23537,30.39672],[-97.23527,30.3978],[-97.23552,30.3984],[-97.23548,30.39928],[-97.23503,30.4],[-97.23671,30.40394],[-97.23696,30.40529],[-97.23067,30.40734],[-97.23043,30.40771],[-97.23123,30.40954],[-97.23088,30.41013],[-97.23668,30.42374],[-97.23618,30.42412],[-97.2357,30.42626],[-97.2343,30.42644],[-97.23377,30.42582],[-97.23322,30.42566],[-97.23176,30.42571],[-97.23099,30.425],[-97.22988,30.42324],[-97.23237,30.42211],[-97.23387,30.42213],[-97.23416,30.4219],[-97.23419,30.42145],[-97.23339,30.42016],[-97.23125,30.41989],[-97.23083,30.41939],[-97.23003,30.41744],[-97.22974,30.41728],[-97.22937,30.41744],[-97.22882,30.41865],[-97.22811,30.41948],[-97.22647,30.41982],[-97.22388,30.41893],[-97.22213,30.41788],[-97.22191,30.41725],[-97.22109,30.41751],[-97.22369,30.42356],[-97.21823,30.42538],[-97.21946,30.42835],[-97.2196,30.42936],[-97.22035,30.43036],[-97.22302,30.43657],[-97.23599,30.43254],[-97.23713,30.43265],[-97.24031,30.43198],[-97.24245,30.43421],[-97.24364,30.43589],[-97.24459,30.4412],[-97.24472,30.44353],[-97.24517,30.44427],[-97.24605,30.44477],[-97.24564,30.44581],[-97.24597,30.44752],[-97.2485,30.45346],[-97.24833,30.45374],[-97.24595,30.45451],[-97.2458,30.45481],[-97.24862,30.46166],[-97.23621,30.46543],[-97.23539,30.46736],[-97.23376,30.46939],[-97.23293,30.47139],[-97.2331,30.47176],[-97.23888,30.47581],[-97.23934,30.47655],[-97.2396,30.47781],[-97.24152,30.48037],[-97.2482,30.48236],[-97.25062,30.48103],[-97.2515,30.47931],[-97.27475,30.47168],[-97.28147,30.48764],[-97.28285,30.48943],[-97.28341,30.48917],[-97.28365,30.48985],[-97.28458,30.49044],[-97.28469,30.49079],[-97.2844,30.49097],[-97.28448,30.49115],[-97.28565,30.49129],[-97.28661,30.49086],[-97.28659,30.49034],[-97.28516,30.48959],[-97.28514,30.48934],[-97.28543,30.48908],[-97.28637,30.48933],[-97.28648,30.48868],[-97.2869,30.48851],[-97.28578,30.48757],[-97.28605,30.48701],[-97.28679,30.48681],[-97.28716,30.48644],[-97.28702,30.48613],[-97.28738,30.4854],[-97.28733,30.485],[-97.28871,30.48505],[-97.28889,30.48525],[-97.28904,30.48609],[-97.28894,30.48654],[-97.28845,30.48674],[-97.28857,30.48722],[-97.28924,30.48737],[-97.28982,30.4869],[-97.29056,30.48685],[-97.29077,30.48766],[-97.2911,30.48793],[-97.29173,30.48759],[-97.29211,30.48691],[-97.29194,30.48625],[-97.29261,30.48607],[-97.29307,30.48626],[-97.29352,30.48708],[-97.2944,30.48689],[-97.2959,30.4872],[-97.29663,30.48633],[-97.29668,30.48518],[-97.29721,30.48446],[-97.29726,30.48372],[-97.29829,30.48311],[-97.29871,30.48337],[-97.29982,30.48234],[-97.29869,30.48133],[-97.29934,30.48007],[-97.29903,30.4794],[-97.30004,30.47903],[-97.30065,30.478],[-97.30155,30.47777],[-97.30096,30.47645],[-97.30411,30.47392],[-97.30667,30.47408],[-97.30689,30.47392],[-97.30687,30.4733],[-97.30731,30.47305],[-97.30846,30.47349],[-97.30854,30.47264],[-97.30932,30.47193],[-97.30911,30.47142],[-97.30955,30.47126],[-97.31101,30.47149],[-97.31123,30.47132],[-97.31106,30.47035],[-97.30998,30.46982],[-97.31033,30.46945],[-97.31152,30.46907],[-97.30736,30.45925],[-97.30012,30.46143],[-97.29585,30.4514],[-97.3009,30.44956],[-97.32166,30.44304],[-97.32328,30.44792],[-97.32591,30.45353],[-97.32773,30.45476],[-97.32897,30.45671],[-97.33966,30.4533],[-97.33968,30.45281],[-97.3384,30.44966],[-97.34667,30.44697],[-97.34511,30.45039],[-97.34697,30.45503],[-97.34732,30.45542],[-97.34715,30.45557],[-97.35103,30.46531],[-97.36149,30.4621],[-97.35619,30.44913],[-97.35623,30.44693],[-97.35307,30.43928],[-97.35457,30.43882],[-97.35768,30.43833],[-97.35923,30.43924],[-97.35974,30.43883],[-97.36246,30.43767],[-97.36671,30.43633],[-97.36449,30.42823],[-97.36359,30.42608],[-97.3735,30.42297],[-97.37359,30.4227],[-97.37273,30.4208],[-97.36995,30.41944],[-97.37354,30.41772],[-97.37677,30.4192],[-97.37773,30.42237],[-97.37943,30.4239],[-97.38225,30.42408],[-97.38208,30.42219],[-97.38148,30.41981],[-97.38037,30.41727],[-97.37945,30.41591],[-97.39124,30.41563],[-97.38845,30.42],[-97.40323,30.42693],[-97.41076,30.41518],[-97.41936,30.41484],[-97.43782,30.38519],[-97.45478,30.39349],[-97.46064,30.38431],[-97.46089,30.38247],[-97.46071,30.38177],[-97.45948,30.38141],[-97.4485,30.37631],[-97.44678,30.37624],[-97.44245,30.37724],[-97.44036,30.37707],[-97.42855,30.37165],[-97.43737,30.35839],[-97.43221,30.35544],[-97.43139,30.35668],[-97.42321,30.35292],[-97.42332,30.35277],[-97.42475,30.35346],[-97.42562,30.35241],[-97.4442,30.35161],[-97.46603,30.35161],[-97.46416,30.35461],[-97.46537,30.35518],[-97.46746,30.3516],[-97.47688,30.3514],[-97.47547,30.35074],[-97.47914,30.34491],[-97.47805,30.34435],[-97.48138,30.33908],[-97.48177,30.33927],[-97.48203,30.33762],[-97.48111,30.33503],[-97.48008,30.33093],[-97.47729,30.33022],[-97.47552,30.32813],[-97.47456,30.32441],[-97.47183,30.32424],[-97.47143,30.32381],[-97.47006,30.32368],[-97.46581,30.3241],[-97.45819,30.3222],[-97.45241,30.31996],[-97.44932,30.32001],[-97.44926,30.32097],[-97.44834,30.32095],[-97.44833,30.32],[-97.44785,30.31992],[-97.44769,30.31941],[-97.44397,30.31926],[-97.44974,30.31053],[-97.45027,30.31038],[-97.45152,30.31066],[-97.45257,30.30964],[-97.4643,30.29128],[-97.45997,30.28929],[-97.45941,30.28876],[-97.46637,30.2779],[-97.46865,30.27891],[-97.46977,30.27819],[-97.47078,30.27898],[-97.47125,30.2805],[-97.46894,30.28375],[-97.47074,30.28403],[-97.47453,30.28566],[-97.47695,30.28183],[-97.48228,30.28418],[-97.48521,30.27968],[-97.48331,30.27883],[-97.48229,30.27809],[-97.48327,30.2772],[-97.4833,30.27673],[-97.47404,30.27246],[-97.47695,30.26784],[-97.47654,30.2674],[-97.47493,30.26672],[-97.47283,30.26541],[-97.47126,30.26419],[-97.46976,30.26437],[-97.4692,30.26526],[-97.46883,30.26523],[-97.46762,30.26487],[-97.46189,30.26212],[-97.4616,30.26314],[-97.46045,30.26518],[-97.45374,30.26181],[-97.45292,30.26321],[-97.44975,30.26196],[-97.4476,30.265],[-97.44542,30.26316],[-97.4476,30.25992],[-97.44709,30.2597],[-97.44994,30.25653],[-97.44954,30.25594],[-97.45112,30.25333],[-97.45177,30.25352],[-97.45287,30.25135],[-97.45593,30.25293],[-97.46454,30.23981],[-97.47288,30.24371],[-97.46995,30.2489],[-97.47076,30.24826],[-97.47129,30.24744],[-97.47277,30.24677],[-97.4735,30.24566],[-97.47379,30.24558],[-97.47317,30.24519],[-97.47383,30.24426],[-97.48348,30.24916],[-97.48422,30.24855],[-97.48426,30.24787],[-97.48468,30.24768],[-97.4857,30.24618],[-97.48638,30.24564],[-97.48629,30.24527],[-97.48649,30.24502],[-97.48766,30.24548],[-97.48843,30.24649],[-97.48985,30.24451],[-97.49196,30.23218],[-97.49257,30.23265],[-97.49201,30.23179],[-97.49168,30.23055],[-97.49338,30.22119],[-97.49652,30.21614],[-97.49967,30.21795],[-97.50169,30.21502]]]}},{"type":"Feature","properties":{"zip_code":"78650"},"geometry":{"type":"Polygon","coordinates":[[[-97.27382,30.23212],[-97.274,30.23192],[-97.27078,30.22912],[-97.26325,30.22306],[-97.25554,30.21627],[-97.23103,30.19675],[-97.23117,30.19762],[-97.2309,30.19833],[-97.22879,30.19954],[-97.22592,30.19918],[-97.22506,30.19941],[-97.22373,30.20057],[-97.2195,30.20334],[-97.21617,30.20489],[-97.21481,30.20633],[-97.21288,30.20762],[-97.21368,30.20948],[-97.21329,30.2111],[-97.21242,30.21306],[-97.21295,30.21408],[-97.21296,30.21621],[-97.21339,30.21659],[-97.2131,30.21757],[-97.21465,30.2186],[-97.21515,30.21954],[-97.21571,30.22214],[-97.21707,30.22352],[-97.2172,30.22397],[-97.21881,30.22509],[-97.21984,30.22764],[-97.21965,30.22861],[-97.22039,30.23123],[-97.21946,30.23349],[-97.21743,30.23558],[-97.216,30.23822],[-97.21406,30.23644],[-97.21369,30.23341],[-97.21235,30.23076],[-97.21144,30.22826],[-97.20718,30.2245],[-97.20334,30.22826],[-97.20308,30.23008],[-97.20204,30.23188],[-97.20246,30.23223],[-97.20307,30.23342],[-97.20355,30.23528],[-97.20156,30.2372],[-97.18496,30.23125],[-97.17958,30.22891],[-97.16994,30.23777],[-97.16729,30.23632],[-97.16579,30.23493],[-97.16462,30.23246],[-97.16431,30.23056],[-97.16096,30.22462],[-97.16447,30.2223],[-97.14848,30.21531],[-97.14639,30.21656],[-97.14142,30.21456],[-97.14292,30.21816],[-97.14413,30.21768],[-97.14581,30.21741],[-97.1485,30.21785],[-97.15932,30.22368],[-97.16056,30.22463],[-97.1607,30.22479],[-97.16048,30.22493],[-97.15739,30.22587],[-97.15688,30.22581],[-97.14749,30.22882],[-97.1477,30.22936],[-97.16992,30.24811],[-97.17256,30.25008],[-97.19543,30.26922],[-97.19486,30.26942],[-97.18679,30.2769],[-97.18625,30.27673],[-97.18537,30.27539],[-97.18457,30.27504],[-97.1817,30.27643],[-97.17312,30.27905],[-97.17205,30.27824],[-97.17166,30.27755],[-97.17181,30.27726],[-97.17375,30.27664],[-97.17273,30.27426],[-97.17071,30.27443],[-97.16829,30.2766],[-97.16796,30.27737],[-97.16841,30.27825],[-97.1713,30.27741],[-97.17341,30.28197],[-97.17731,30.29148],[-97.16188,30.2965],[-97.17167,30.31928],[-97.19168,30.33262],[-97.19296,30.33787],[-97.1849,30.34063],[-97.18455,30.34027],[-97.17774,30.34236],[-97.17566,30.33878],[-97.16563,30.34173],[-97.16708,30.34562],[-97.16119,30.34753],[-97.16427,30.35421],[-97.1685,30.35295],[-97.16962,30.3561],[-97.16724,30.35677],[-97.16944,30.36168],[-97.16995,30.36205],[-97.15727,30.36605],[-97.16123,30.37534],[-97.15852,30.37672],[-97.1608,30.38226],[-97.1594,30.38337],[-97.15972,30.38408],[-97.15994,30.38725],[-97.16667,30.38527],[-97.17461,30.3839],[-97.17661,30.38424],[-97.17908,30.38609],[-97.18064,30.3867],[-97.18223,30.38665],[-97.18539,30.38567],[-97.1884,30.39265],[-97.18934,30.39813],[-97.19151,30.40318],[-97.19293,30.40209],[-97.19531,30.4014],[-97.19605,30.40094],[-97.19753,30.4011],[-97.19901,30.40268],[-97.20002,30.40458],[-97.20021,30.40738],[-97.20074,30.40822],[-97.20071,30.40955],[-97.20134,30.40994],[-97.2032,30.40985],[-97.20753,30.40691],[-97.2102,30.40616],[-97.21192,30.40638],[-97.21662,30.40844],[-97.21702,30.40881],[-97.21721,30.40982],[-97.21805,30.41064],[-97.21991,30.41227],[-97.22138,30.41284],[-97.2221,30.41369],[-97.23116,30.41081],[-97.23086,30.41007],[-97.23123,30.40954],[-97.23043,30.40774],[-97.23058,30.40741],[-97.23693,30.40535],[-97.23671,30.40394],[-97.23503,30.4],[-97.23549,30.39912],[-97.23529,30.39636],[-97.23229,30.38908],[-97.23027,30.38458],[-97.22916,30.38477],[-97.22816,30.38447],[-97.22758,30.38393],[-97.22674,30.38208],[-97.22674,30.38149],[-97.2277,30.37955],[-97.22777,30.37871],[-97.22689,30.37684],[-97.22597,30.37574],[-97.22593,30.37512],[-97.23587,30.38028],[-97.23784,30.38088],[-97.24105,30.38095],[-97.25707,30.37565],[-97.25821,30.37494],[-97.25967,30.37355],[-97.26306,30.36827],[-97.23864,30.35652],[-97.24203,30.35418],[-97.24871,30.3438],[-97.24172,30.34033],[-97.2439,30.33657],[-97.24491,30.3367],[-97.24872,30.33379],[-97.25002,30.33354],[-97.25149,30.33275],[-97.25294,30.33289],[-97.25342,30.33236],[-97.25359,30.33151],[-97.25465,30.33119],[-97.25535,30.3303],[-97.25583,30.32913],[-97.25681,30.32848],[-97.25358,30.32543],[-97.25457,30.32385],[-97.25873,30.32409],[-97.26788,30.32823],[-97.26786,30.32767],[-97.26566,30.32617],[-97.26601,30.32338],[-97.26591,30.32266],[-97.27018,30.31665],[-97.27231,30.31303],[-97.27208,30.31057],[-97.27082,30.30923],[-97.26838,30.30745],[-97.26836,30.30722],[-97.26762,30.30679],[-97.26422,30.30362],[-97.26379,30.3028],[-97.26395,30.30208],[-97.26939,30.29702],[-97.26994,30.29697],[-97.27009,30.29665],[-97.26711,30.2963],[-97.26147,30.29507],[-97.26145,30.29409],[-97.262,30.29313],[-97.2626,30.29266],[-97.26348,30.29094],[-97.26453,30.29046],[-97.26505,30.28982],[-97.26482,30.28863],[-97.26561,30.28727],[-97.26568,30.28606],[-97.26632,30.28528],[-97.2661,30.28432],[-97.26665,30.28369],[-97.26736,30.28347],[-97.26724,30.28293],[-97.26745,30.28242],[-97.26723,30.28208],[-97.26746,30.2818],[-97.26514,30.28061],[-97.26029,30.2764],[-97.2633,30.27375],[-97.26095,30.27153],[-97.25623,30.26807],[-97.24935,30.27422],[-97.24736,30.27262],[-97.24834,30.27142],[-97.24892,30.27021],[-97.25123,30.26062],[-97.25192,30.2612],[-97.26001,30.24957],[-97.2598,30.24942],[-97.26641,30.24101],[-97.27382,30.23212]]]}},{"type":"Feature","properties":{"zip_code":"78659"},"geometry":{"type":"Polygon","coordinates":[[[-97.23348,30.1702],[-97.23349,30.16984],[-97.23186,30.16842],[-97.2319,30.1686],[-97.22515,30.1747],[-97.22468,30.17443],[-97.22522,30.17361],[-97.22494,30.17275],[-97.22437,30.17228],[-97.22374,30.17266],[-97.22157,30.17085],[-97.22815,30.16532],[-97.21775,30.15648],[-97.22574,30.15174],[-97.22269,30.14885],[-97.22134,30.1487],[-97.22038,30.14938],[-97.21916,30.14947],[-97.21519,30.14727],[-97.21332,30.14663],[-97.21265,30.14516],[-97.21268,30.14198],[-97.21371,30.13706],[-97.21315,30.13471],[-97.21455,30.13458],[-97.21484,30.13416],[-97.21654,30.13354],[-97.21682,30.13309],[-97.21686,30.13234],[-97.21746,30.13232],[-97.2196,30.13105],[-97.22067,30.12897],[-97.22147,30.1288],[-97.2215,30.12857],[-97.22113,30.12826],[-97.22119,30.1275],[-97.22201,30.1261],[-97.22336,30.12279],[-97.22321,30.1206],[-97.22433,30.11925],[-97.22516,30.11696],[-97.22503,30.11618],[-97.22453,30.11579],[-97.22442,30.11531],[-97.22393,30.11515],[-97.22437,30.11452],[-97.22392,30.11393],[-97.22347,30.11382],[-97.22336,30.11294],[-97.22273,30.11201],[-97.2037,30.10779],[-97.19926,30.1228],[-97.19476,30.12288],[-97.19473,30.12125],[-97.18448,30.12151],[-97.18441,30.11338],[-97.18318,30.11347],[-97.17929,30.11441],[-97.17707,30.11534],[-97.17364,30.11701],[-97.16997,30.11984],[-97.16261,30.12291],[-97.15742,30.12347],[-97.15623,30.12417],[-97.15098,30.12592],[-97.1454,30.12656],[-97.13093,30.13138],[-97.12523,30.1276],[-97.12398,30.12809],[-97.12298,30.12818],[-97.11665,30.12733],[-97.11534,30.12743],[-97.11473,30.12778],[-97.11449,30.12932],[-97.11422,30.12964],[-97.11353,30.12993],[-97.10838,30.13071],[-97.10608,30.13139],[-97.10338,30.1326],[-97.10084,30.13263],[-97.10085,30.13308],[-97.08577,30.13342],[-97.08557,30.13369],[-97.08562,30.13731],[-97.08527,30.13754],[-97.0746,30.13776],[-97.06369,30.1217],[-97.06265,30.12046],[-97.06321,30.13802],[-97.05904,30.1381],[-97.0549,30.13783],[-97.04821,30.13795],[-97.05419,30.1598],[-97.04768,30.16049],[-97.04884,30.16235],[-97.04959,30.16231],[-97.05162,30.17094],[-97.04402,30.17223],[-97.04443,30.17357],[-97.04416,30.17428],[-97.04478,30.17598],[-97.04471,30.17647],[-97.04197,30.17753],[-97.04095,30.17695],[-97.03932,30.17726],[-97.03881,30.17763],[-97.03864,30.17839],[-97.03819,30.17899],[-97.035,30.18195],[-97.03375,30.18268],[-97.03357,30.18318],[-97.03208,30.18289],[-97.03193,30.18354],[-97.02842,30.18288],[-97.0212,30.18296],[-97.01172,30.18397],[-97.00906,30.18481],[-97.00836,30.18516],[-97.0075,30.19204],[-97.01592,30.19331],[-97.01502,30.19871],[-97.01864,30.19935],[-97.01907,30.20289],[-97.01813,30.20871],[-97.02674,30.21004],[-97.02847,30.21079],[-97.02788,30.2127],[-97.02563,30.21548],[-97.02356,30.21549],[-97.01949,30.22518],[-97.02074,30.2259],[-97.02171,30.22681],[-97.02492,30.23176],[-97.02925,30.2308],[-97.03148,30.23056],[-97.0351,30.23869],[-97.04047,30.24086],[-97.04324,30.24716],[-97.04521,30.24882],[-97.04778,30.25031],[-97.05033,30.25238],[-97.05287,30.25788],[-97.05343,30.25803],[-97.05687,30.25699],[-97.05772,30.25737],[-97.05822,30.25796],[-97.05884,30.26051],[-97.05836,30.26172],[-97.05918,30.26259],[-97.05923,30.26433],[-97.05817,30.26575],[-97.05699,30.26587],[-97.05662,30.26674],[-97.05429,30.26777],[-97.05363,30.26935],[-97.05366,30.26992],[-97.05463,30.27088],[-97.05463,30.27118],[-97.05355,30.27205],[-97.05437,30.27299],[-97.05445,30.27352],[-97.05402,30.27382],[-97.05358,30.27379],[-97.05207,30.27313],[-97.05096,30.27313],[-97.0503,30.27366],[-97.0499,30.27492],[-97.05043,30.27542],[-97.05302,30.2759],[-97.05413,30.27638],[-97.05458,30.27684],[-97.05492,30.27799],[-97.05576,30.27856],[-97.05531,30.27923],[-97.05544,30.27959],[-97.05708,30.27989],[-97.05708,30.27948],[-97.0575,30.27948],[-97.05843,30.27996],[-97.05864,30.28033],[-97.05856,30.28143],[-97.05959,30.28218],[-97.05919,30.28257],[-97.05837,30.28271],[-97.05813,30.28347],[-97.05827,30.28408],[-97.05956,30.28459],[-97.05951,30.28484],[-97.05832,30.28528],[-97.05834,30.2866],[-97.05908,30.288],[-97.06767,30.28989],[-97.071,30.29126],[-97.07202,30.29218],[-97.07408,30.29554],[-97.07505,30.29624],[-97.07917,30.298],[-97.07974,30.29897],[-97.08176,30.30119],[-97.08258,30.30405],[-97.08331,30.30518],[-97.08479,30.30442],[-97.08666,30.30387],[-97.08659,30.30334],[-97.08601,30.30279],[-97.08759,30.30215],[-97.09313,30.30362],[-97.09406,30.30408],[-97.09688,30.30355],[-97.09778,30.30383],[-97.09807,30.30415],[-97.09841,30.30607],[-97.09915,30.30701],[-97.09992,30.30901],[-97.10071,30.30969],[-97.10541,30.30848],[-97.1084,30.30626],[-97.11022,30.30532],[-97.11165,30.30534],[-97.11531,30.30461],[-97.11568,30.30479],[-97.11613,30.30578],[-97.11759,30.30603],[-97.11822,30.30603],[-97.11893,30.30566],[-97.12171,30.30582],[-97.12469,30.30541],[-97.12466,30.30486],[-97.12551,30.30426],[-97.12566,30.30354],[-97.12541,30.30331],[-97.12571,30.30291],[-97.12527,30.30225],[-97.12604,30.30174],[-97.12696,30.30151],[-97.12739,30.30157],[-97.12844,30.30242],[-97.12872,30.30333],[-97.13138,30.30343],[-97.13229,30.30265],[-97.13215,30.30211],[-97.13284,30.30112],[-97.13395,30.30044],[-97.13493,30.30026],[-97.1355,30.2995],[-97.13532,30.29915],[-97.1359,30.29879],[-97.13584,30.29786],[-97.13648,30.29739],[-97.13626,30.29677],[-97.137,30.29667],[-97.13723,30.29629],[-97.17167,30.31928],[-97.16188,30.2965],[-97.17731,30.29148],[-97.17341,30.28197],[-97.1713,30.27741],[-97.16841,30.27825],[-97.16796,30.27737],[-97.16804,30.27701],[-97.17071,30.27443],[-97.17126,30.27425],[-97.17273,30.27426],[-97.17375,30.27664],[-97.17169,30.27737],[-97.17197,30.27816],[-97.17312,30.27905],[-97.1817,30.27643],[-97.18457,30.27504],[-97.18537,30.27539],[-97.18625,30.27673],[-97.18679,30.2769],[-97.19486,30.26942],[-97.19543,30.26922],[-97.17256,30.25008],[-97.16992,30.24811],[-97.1477,30.22936],[-97.14749,30.22882],[-97.15688,30.22581],[-97.15739,30.22587],[-97.16048,30.22493],[-97.1607,30.22479],[-97.16056,30.22463],[-97.15932,30.22368],[-97.1485,30.21785],[-97.14581,30.21741],[-97.14413,30.21768],[-97.14292,30.21816],[-97.14142,30.21456],[-97.14639,30.21656],[-97.14848,30.21531],[-97.16447,30.2223],[-97.16096,30.22462],[-97.16431,30.23056],[-97.16462,30.23246],[-97.16579,30.23493],[-97.16729,30.23632],[-97.16994,30.23777],[-97.17958,30.22891],[-97.18496,30.23125],[-97.20156,30.2372],[-97.20355,30.23528],[-97.20307,30.23342],[-97.20246,30.23223],[-97.20204,30.23188],[-97.20308,30.23008],[-97.20334,30.22826],[-97.20718,30.2245],[-97.21144,30.22826],[-97.21235,30.23076],[-97.21369,30.23341],[-97.21406,30.23644],[-97.216,30.23822],[-97.21743,30.23558],[-97.21946,30.23349],[-97.22039,30.23123],[-97.21965,30.22861],[-97.21984,30.22764],[-97.21881,30.22509],[-97.2172,30.22397],[-97.21707,30.22352],[-97.21571,30.22214],[-97.21515,30.21954],[-97.21465,30.2186],[-97.2131,30.21757],[-97.21339,30.21659],[-97.21296,30.21621],[-97.21295,30.21408],[-97.21242,30.21306],[-97.21329,30.2111],[-97.21368,30.20948],[-97.21288,30.20762],[-97.21481,30.20633],[-97.21617,30.20489],[-97.2195,30.20334],[-97.22373,30.20057],[-97.22506,30.19941],[-97.22592,30.19918],[-97.22879,30.19954],[-97.2309,30.19833],[-97.23117,30.19762],[-97.23084,30.19414],[-97.23251,30.19211],[-97.23251,30.18616],[-97.23198,30.17224],[-97.23225,30.17112],[-97.23348,30.1702]]]}},{"type":"Feature","properties":{"zip_code":"78662"},"geometry":{"type":"Polygon","coordinates":[[[-97.53296,29.95607],[-97.53076,29.95303],[-97.52967,29.95065],[-97.52939,29.9492],[-97.5294,29.94568],[-97.5282,29.9418],[-97.51819,29.93846],[-97.52395,29.92968],[-97.51731,29.93462],[-97.51079,29.93779],[-97.50762,29.93995],[-97.50732,29.93976],[-97.50444,29.94095],[-97.50441,29.93878],[-97.50485,29.9376],[-97.51551,29.92172],[-97.51336,29.9205],[-97.5175,29.91499],[-97.51723,29.91456],[-97.51365,29.9171],[-97.51119,29.9184],[-97.51065,29.91922],[-97.49031,29.93344],[-97.48005,29.92479],[-97.48781,29.9125],[-97.49078,29.90902],[-97.4978,29.89802],[-97.49857,29.89598],[-97.49983,29.894],[-97.49794,29.89297],[-97.49911,29.89121],[-97.4969,29.8883],[-97.49897,29.88503],[-97.50018,29.88547],[-97.50316,29.88046],[-97.49124,29.87465],[-97.49175,29.8737],[-97.48852,29.87201],[-97.48735,29.87358],[-97.4853,29.87988],[-97.48496,29.87993],[-97.47996,29.87762],[-97.47538,29.88506],[-97.44834,29.87215],[-97.45159,29.86674],[-97.44611,29.86318],[-97.43675,29.85878],[-97.43219,29.8563],[-97.42068,29.87476],[-97.42594,29.87922],[-97.41992,29.88541],[-97.42009,29.88583],[-97.41984,29.88809],[-97.41941,29.8896],[-97.41803,29.89023],[-97.417,29.89125],[-97.41595,29.89188],[-97.41509,29.89159],[-97.4117,29.89197],[-97.4113,29.8932],[-97.41082,29.89371],[-97.41046,29.89362],[-97.40948,29.89445],[-97.40785,29.89521],[-97.40565,29.89511],[-97.40478,29.89617],[-97.40367,29.89694],[-97.40301,29.89826],[-97.40095,29.90064],[-97.39914,29.901],[-97.39896,29.90236],[-97.39945,29.90298],[-97.39863,29.90343],[-97.39838,29.90416],[-97.3985,29.90528],[-97.39744,29.90632],[-97.39685,29.90738],[-97.39689,29.90767],[-97.39753,29.9074],[-97.39783,29.90901],[-97.3971,29.91205],[-97.39667,29.91225],[-97.39621,29.91168],[-97.3948,29.91198],[-97.39133,29.91362],[-97.3912,29.91533],[-97.39177,29.91622],[-97.39198,29.91713],[-97.39116,29.91927],[-97.38989,29.91972],[-97.38741,29.92127],[-97.38451,29.92215],[-97.38471,29.92343],[-97.38362,29.92382],[-97.38303,29.92483],[-97.38319,29.92518],[-97.38407,29.92577],[-97.38357,29.92703],[-97.37344,29.9221],[-97.37344,29.92185],[-97.37014,29.921],[-97.37054,29.91976],[-97.36705,29.91812],[-97.36164,29.92678],[-97.36012,29.92785],[-97.35982,29.92863],[-97.36122,29.93027],[-97.36336,29.93087],[-97.36409,29.93207],[-97.36648,29.9341],[-97.36691,29.93497],[-97.36261,29.93616],[-97.36178,29.93663],[-97.35945,29.93623],[-97.35908,29.93663],[-97.35807,29.93696],[-97.35691,29.93699],[-97.35396,29.93936],[-97.35112,29.94069],[-97.35134,29.94236],[-97.35063,29.94651],[-97.35198,29.94721],[-97.35306,29.94821],[-97.35315,29.94862],[-97.35247,29.9501],[-97.35272,29.95111],[-97.35432,29.95131],[-97.35511,29.95112],[-97.35561,29.95133],[-97.35579,29.95174],[-97.35489,29.95303],[-97.35352,29.9539],[-97.35298,29.95493],[-97.35284,29.9564],[-97.35196,29.95816],[-97.35211,29.95878],[-97.35251,29.95907],[-97.34333,29.95452],[-97.34281,29.95542],[-97.34293,29.95573],[-97.34043,29.95518],[-97.34142,29.95717],[-97.34278,29.95905],[-97.34514,29.96492],[-97.34673,29.9673],[-97.34822,29.96853],[-97.34733,29.96839],[-97.34555,29.96736],[-97.34501,29.96735],[-97.34443,29.96789],[-97.3439,29.96785],[-97.34281,29.97151],[-97.35112,29.97549],[-97.35292,29.97194],[-97.35424,29.97255],[-97.35512,29.97244],[-97.35569,29.97326],[-97.36169,29.97624],[-97.36279,29.97461],[-97.37478,29.98032],[-97.37301,29.98273],[-97.37558,29.9841],[-97.37402,29.98663],[-97.38502,29.99187],[-97.38574,29.9907],[-97.38642,29.99009],[-97.3921,29.99314],[-97.39108,29.99502],[-97.39506,29.99712],[-97.39948,29.99858],[-97.40526,30.00185],[-97.40704,29.99753],[-97.40815,29.99794],[-97.40958,29.99613],[-97.41064,29.99318],[-97.41404,29.98807],[-97.41872,29.99043],[-97.41938,29.98957],[-97.42004,29.98989],[-97.41992,29.9901],[-97.42206,29.99115],[-97.42279,29.99009],[-97.42406,29.99073],[-97.42857,29.98731],[-97.42649,29.9906],[-97.42761,29.99119],[-97.42868,29.98959],[-97.43028,29.99064],[-97.42907,29.99264],[-97.42936,29.99283],[-97.42911,29.9932],[-97.43014,29.99386],[-97.43031,29.99366],[-97.43158,29.9944],[-97.43174,29.9942],[-97.43259,29.99471],[-97.43241,29.99488],[-97.45586,30.00616],[-97.45547,30.00856],[-97.45815,30.00974],[-97.46012,30.00831],[-97.46102,30.00698],[-97.4629,30.00628],[-97.46282,30.00481],[-97.4686,29.99937],[-97.47067,30.00248],[-97.47231,30.00386],[-97.48181,29.996],[-97.47818,29.99264],[-97.48302,29.98841],[-97.48913,29.99407],[-97.48844,29.99455],[-97.49293,29.9973],[-97.49455,29.99577],[-97.49479,29.9952],[-97.49595,29.99485],[-97.49709,29.99574],[-97.49926,29.99403],[-97.50182,29.99606],[-97.50285,29.9951],[-97.50436,29.99728],[-97.50619,29.99759],[-97.50733,29.99656],[-97.50865,29.99761],[-97.50931,29.99702],[-97.51486,30.00173],[-97.52705,29.99083],[-97.53254,29.983],[-97.51682,29.9805],[-97.50719,29.97648],[-97.52508,29.96061],[-97.52576,29.96062],[-97.5284,29.96289],[-97.52869,29.96288],[-97.53296,29.95607]]]}},{"type":"Feature","properties":{"zip_code":"78953"},"geometry":{"type":"Polygon","coordinates":[[[-97.47774,29.82675],[-97.47605,29.8256],[-97.47033,29.82051],[-97.47036,29.81173],[-97.46767,29.81164],[-97.46576,29.80852],[-97.46131,29.8084],[-97.45953,29.80728],[-97.45784,29.80764],[-97.45684,29.80721],[-97.45615,29.80406],[-97.45667,29.80308],[-97.45662,29.80162],[-97.45714,29.80105],[-97.45584,29.79988],[-97.45491,29.79859],[-97.45421,29.79548],[-97.45423,29.79378],[-97.44958,29.79375],[-97.44711,29.79798],[-97.44694,29.79753],[-97.43717,29.7942],[-97.43722,29.79365],[-97.43843,29.79156],[-97.43838,29.79086],[-97.43257,29.78499],[-97.43099,29.78281],[-97.42984,29.78052],[-97.42935,29.78002],[-97.42574,29.77813],[-97.42146,29.77551],[-97.41831,29.7741],[-97.41732,29.77393],[-97.41654,29.77309],[-97.41933,29.76773],[-97.40946,29.75929],[-97.40947,29.75894],[-97.40906,29.75887],[-97.4032,29.75395],[-97.40188,29.75293],[-97.39832,29.7513],[-97.3972,29.74915],[-97.39591,29.7481],[-97.39575,29.74977],[-97.396,29.75057],[-97.39512,29.75416],[-97.39504,29.75543],[-97.39363,29.75527],[-97.39226,29.75441],[-97.39169,29.7544],[-97.39176,29.75506],[-97.39089,29.75795],[-97.39082,29.75883],[-97.38965,29.76209],[-97.38942,29.76172],[-97.3862,29.76029],[-97.38565,29.75948],[-97.38246,29.7584],[-97.38182,29.75833],[-97.38129,29.75859],[-97.38003,29.75966],[-97.378,29.75881],[-97.37629,29.75862],[-97.37612,29.7585],[-97.37624,29.75718],[-97.3759,29.75571],[-97.37483,29.75445],[-97.37488,29.75374],[-97.37567,29.75289],[-97.3363,29.77452],[-97.33724,29.77498],[-97.3387,29.77507],[-97.33982,29.77471],[-97.33986,29.77548],[-97.34082,29.776],[-97.3409,29.77665],[-97.34161,29.77722],[-97.34335,29.77731],[-97.34353,29.77827],[-97.34413,29.77912],[-97.3445,29.7807],[-97.34434,29.7813],[-97.34354,29.78241],[-97.34299,29.78495],[-97.34344,29.78549],[-97.34356,29.7862],[-97.34348,29.78859],[-97.34444,29.78963],[-97.34382,29.79218],[-97.34288,29.7934],[-97.34317,29.79447],[-97.34298,29.79523],[-97.34335,29.79887],[-97.34214,29.80062],[-97.33965,29.80085],[-97.33946,29.80114],[-97.33962,29.80268],[-97.33899,29.80339],[-97.33918,29.80467],[-97.33844,29.80554],[-97.33676,29.80914],[-97.33571,29.81036],[-97.33379,29.81143],[-97.33298,29.81153],[-97.33229,29.81208],[-97.33033,29.81628],[-97.32874,29.81552],[-97.32541,29.81298],[-97.32694,29.81091],[-97.3276,29.80835],[-97.32766,29.80408],[-97.32894,29.79789],[-97.32875,29.79754],[-97.32031,29.79411],[-97.3154,29.80411],[-97.31496,29.80596],[-97.31489,29.8087],[-97.3007,29.80321],[-97.29882,29.80273],[-97.29705,29.80595],[-97.29377,29.80654],[-97.239,29.85623],[-97.24318,29.86341],[-97.24369,29.86516],[-97.24632,29.86852],[-97.23805,29.87135],[-97.23772,29.87279],[-97.23788,29.88182],[-97.24011,29.88189],[-97.24037,29.88213],[-97.24107,29.90673],[-97.24223,29.90674],[-97.24407,29.90625],[-97.24479,29.90647],[-97.24563,29.9072],[-97.24793,29.90775],[-97.25682,29.90702],[-97.2568,29.90788],[-97.25709,29.9081],[-97.2656,29.90857],[-97.26634,29.90819],[-97.26666,29.90597],[-97.267,29.90581],[-97.26731,29.90758],[-97.26862,29.90988],[-97.26867,29.91197],[-97.26837,29.91363],[-97.26854,29.91487],[-97.26897,29.91556],[-97.26984,29.91621],[-97.27144,29.91656],[-97.27298,29.91741],[-97.27463,29.91923],[-97.27697,29.92061],[-97.28188,29.92258],[-97.28289,29.92267],[-97.28576,29.92456],[-97.28794,29.92487],[-97.28745,29.92813],[-97.29227,29.9287],[-97.29332,29.92927],[-97.28816,29.93192],[-97.2866,29.93229],[-97.28499,29.93214],[-97.28154,29.93059],[-97.27969,29.93025],[-97.26512,29.93116],[-97.26277,29.93189],[-97.26094,29.93312],[-97.26201,29.93438],[-97.26243,29.93797],[-97.2604,29.94795],[-97.27314,29.94993],[-97.2736,29.95094],[-97.27413,29.9508],[-97.27472,29.95016],[-97.27708,29.9505],[-97.27959,29.95154],[-97.2804,29.95097],[-97.28326,29.9514],[-97.28348,29.9512],[-97.28378,29.94963],[-97.28599,29.93721],[-97.29249,29.93803],[-97.29472,29.93479],[-97.29514,29.93522],[-97.30358,29.9393],[-97.30535,29.93656],[-97.31704,29.94237],[-97.31671,29.94377],[-97.32295,29.94708],[-97.32206,29.94868],[-97.3243,29.94954],[-97.32361,29.95141],[-97.32846,29.95379],[-97.32525,29.95922],[-97.32733,29.96021],[-97.32565,29.96307],[-97.34281,29.97151],[-97.3439,29.96785],[-97.34443,29.96789],[-97.34501,29.96735],[-97.34555,29.96736],[-97.34733,29.96839],[-97.34822,29.96853],[-97.34673,29.9673],[-97.34514,29.96492],[-97.34278,29.95905],[-97.34142,29.95717],[-97.34043,29.95518],[-97.34293,29.95573],[-97.34281,29.95542],[-97.34333,29.95452],[-97.35251,29.95907],[-97.35211,29.95878],[-97.35196,29.95816],[-97.35284,29.9564],[-97.35298,29.95493],[-97.35352,29.9539],[-97.35489,29.95303],[-97.35579,29.95174],[-97.35561,29.95133],[-97.35511,29.95112],[-97.35432,29.95131],[-97.35272,29.95111],[-97.35247,29.9501],[-97.35315,29.94862],[-97.35306,29.94821],[-97.35198,29.94721],[-97.35063,29.94651],[-97.35134,29.94236],[-97.35112,29.94069],[-97.35396,29.93936],[-97.35691,29.93699],[-97.35807,29.93696],[-97.35908,29.93663],[-97.35945,29.93623],[-97.36178,29.93663],[-97.36261,29.93616],[-97.36691,29.93497],[-97.36648,29.9341],[-97.36409,29.93207],[-97.36336,29.93087],[-97.36122,29.93027],[-97.35982,29.92863],[-97.36012,29.92785],[-97.36164,29.92678],[-97.36705,29.91812],[-97.37054,29.91976],[-97.37014,29.921],[-97.37344,29.92185],[-97.37344,29.9221],[-97.38357,29.92703],[-97.38407,29.92577],[-97.38319,29.92518],[-97.38303,29.92483],[-97.38362,29.92382],[-97.38471,29.92343],[-97.38451,29.92215],[-97.38741,29.92127],[-97.38989,29.91972],[-97.39116,29.91927],[-97.39198,29.91713],[-97.39177,29.91622],[-97.3912,29.91533],[-97.39133,29.91362],[-97.3948,29.91198],[-97.39621,29.91168],[-97.39667,29.91225],[-97.3971,29.91205],[-97.39783,29.90901],[-97.39753,29.9074],[-97.39689,29.90767],[-97.39685,29.90738],[-97.39744,29.90632],[-97.3985,29.90528],[-97.39838,29.90416],[-97.39863,29.90343],[-97.39945,29.90298],[-97.39896,29.90236],[-97.39914,29.901],[-97.40095,29.90064],[-97.40301,29.89826],[-97.40367,29.89694],[-97.40478,29.89617],[-97.40565,29.89511],[-97.40785,29.89521],[-97.40948,29.89445],[-97.41046,29.89362],[-97.41082,29.89371],[-97.4113,29.8932],[-97.4117,29.89197],[-97.41509,29.89159],[-97.41595,29.89188],[-97.417,29.89125],[-97.41803,29.89023],[-97.41946,29.88954],[-97.41997,29.88701],[-97.42009,29.88583],[-97.41992,29.88541],[-97.42594,29.87922],[-97.42068,29.87476],[-97.43219,29.8563],[-97.43675,29.85878],[-97.44611,29.86318],[-97.45159,29.86674],[-97.45972,29.85417],[-97.46022,29.85399],[-97.46082,29.8533],[-97.46441,29.84794],[-97.47774,29.82675]]]}},{"type":"Feature","properties":{"zip_code":"78957"},"geometry":{"type":"Polygon","coordinates":[[[-97.34295,29.97311],[-97.34281,29.97151],[-97.32565,29.96307],[-97.32733,29.96021],[-97.32525,29.95922],[-97.32846,29.95379],[-97.32361,29.95141],[-97.3243,29.94954],[-97.32206,29.94868],[-97.32295,29.94708],[-97.31671,29.94377],[-97.31704,29.94237],[-97.30535,29.93656],[-97.30358,29.9393],[-97.29514,29.93522],[-97.29472,29.93479],[-97.29249,29.93803],[-97.28599,29.93721],[-97.28378,29.94963],[-97.28348,29.9512],[-97.28326,29.9514],[-97.2804,29.95097],[-97.27959,29.95154],[-97.27708,29.9505],[-97.27472,29.95016],[-97.27413,29.9508],[-97.2736,29.95094],[-97.27314,29.94993],[-97.2604,29.94795],[-97.26243,29.93797],[-97.26201,29.93438],[-97.26094,29.93312],[-97.26277,29.93189],[-97.26512,29.93116],[-97.27969,29.93025],[-97.28154,29.93059],[-97.28499,29.93214],[-97.2866,29.93229],[-97.28816,29.93192],[-97.29332,29.92927],[-97.29227,29.9287],[-97.28745,29.92813],[-97.28794,29.92487],[-97.28576,29.92456],[-97.28289,29.92267],[-97.28188,29.92258],[-97.27697,29.92061],[-97.27463,29.91923],[-97.27298,29.91741],[-97.27144,29.91656],[-97.26984,29.91621],[-97.26897,29.91556],[-97.26854,29.91487],[-97.26837,29.91363],[-97.26867,29.91197],[-97.26862,29.90988],[-97.26731,29.90758],[-97.267,29.90581],[-97.26666,29.90597],[-97.26634,29.90819],[-97.2656,29.90857],[-97.25709,29.9081],[-97.2568,29.90788],[-97.25682,29.90702],[-97.24793,29.90775],[-97.24563,29.9072],[-97.24479,29.90647],[-97.24407,29.90625],[-97.24223,29.90674],[-97.24107,29.90673],[-97.24089,29.89869],[-97.23453,29.89885],[-97.23433,29.89904],[-97.23437,29.90159],[-97.23408,29.90203],[-97.2335,29.90228],[-97.22164,29.90228],[-97.22137,29.90243],[-97.22183,29.9217],[-97.22123,29.92359],[-97.21955,29.93263],[-97.21998,29.93491],[-97.21995,29.93968],[-97.19172,29.94012],[-97.19136,29.93932],[-97.19052,29.93877],[-97.18959,29.9391],[-97.1882,29.93898],[-97.18806,29.93838],[-97.18651,29.93847],[-97.1856,29.93777],[-97.18515,29.93772],[-97.18455,29.93712],[-97.18796,29.92993],[-97.19387,29.92217],[-97.19453,29.92051],[-97.19466,29.91933],[-97.19423,29.89678],[-97.16535,29.92297],[-97.16403,29.92299],[-97.16382,29.92188],[-97.16472,29.92081],[-97.16583,29.92006],[-97.16386,29.91957],[-97.16182,29.91938],[-97.16208,29.91903],[-97.16185,29.91787],[-97.162,29.91483],[-97.15829,29.91447],[-97.15533,29.9107],[-97.15242,29.91041],[-97.14935,29.90916],[-97.14564,29.90883],[-97.14456,29.90915],[-97.13656,29.90922],[-97.13667,29.91221],[-97.13713,29.91331],[-97.12765,29.91352],[-97.1274,29.91134],[-97.12156,29.91173],[-97.12155,29.91721],[-97.12214,29.9165],[-97.12351,29.91595],[-97.12465,29.91596],[-97.12609,29.91649],[-97.12644,29.91687],[-97.12653,29.91978],[-97.14164,29.91954],[-97.14183,29.92049],[-97.14134,29.92338],[-97.08582,29.92382],[-97.08576,29.93412],[-97.08657,29.93566],[-97.08795,29.93676],[-97.08894,29.93721],[-97.08947,29.93869],[-97.0906,29.93959],[-97.09099,29.94042],[-97.09132,29.94074],[-97.092,29.9408],[-97.09239,29.94154],[-97.09239,29.9427],[-97.09305,29.94387],[-97.09313,29.94467],[-97.0939,29.94667],[-97.09409,29.94929],[-97.09383,29.94974],[-97.09193,29.95078],[-97.09133,29.95145],[-97.09104,29.95218],[-97.09121,29.95334],[-97.08893,29.95323],[-97.08639,29.95381],[-97.08583,29.95309],[-97.08585,29.95709],[-97.07315,29.95969],[-97.0714,29.9603],[-97.0703,29.95993],[-97.06568,29.95986],[-97.06341,29.95893],[-97.06121,29.95879],[-97.05375,29.96214],[-97.05288,29.96325],[-97.0521,29.96382],[-97.04963,29.96476],[-97.04809,29.9659],[-97.04594,29.97105],[-97.04418,29.97287],[-97.04408,29.97393],[-97.04582,29.97746],[-97.04614,29.98141],[-97.04679,29.98343],[-97.04636,29.98475],[-97.04586,29.98529],[-97.04359,29.98595],[-97.04214,29.98576],[-97.0409,29.98501],[-97.03855,29.98418],[-97.03464,29.98375],[-97.03453,29.98416],[-97.03624,29.98418],[-97.03944,29.98487],[-97.04081,29.98529],[-97.04243,29.98629],[-97.04449,29.98616],[-97.04637,29.9854],[-97.047,29.98423],[-97.04858,29.98384],[-97.04956,29.98311],[-97.0503,29.98096],[-97.05009,29.97947],[-97.05048,29.97846],[-97.05104,29.97839],[-97.05204,29.97901],[-97.05277,29.9805],[-97.0534,29.98398],[-97.05466,29.98442],[-97.05493,29.98481],[-97.05456,29.98593],[-97.05382,29.98632],[-97.05282,29.9863],[-97.0515,29.9857],[-97.0509,29.98579],[-97.05058,29.98696],[-97.05095,29.98767],[-97.05113,29.98948],[-97.05326,29.99148],[-97.05545,29.99187],[-97.05634,29.99228],[-97.05908,29.99418],[-97.05989,29.99506],[-97.06,29.9956],[-97.05947,29.99599],[-97.05331,29.99551],[-97.05218,29.99473],[-97.05179,29.99409],[-97.05086,29.9937],[-97.05076,29.99457],[-97.04947,29.99535],[-97.04797,29.99697],[-97.04717,29.99871],[-97.04731,29.99938],[-97.04825,29.99981],[-97.04859,30.00047],[-97.05135,30.00143],[-97.05209,30.00205],[-97.05206,30.00359],[-97.05151,30.00455],[-97.0518,30.0062],[-97.05129,30.00895],[-97.05158,30.00959],[-97.05224,30.00994],[-97.05314,30.00962],[-97.05414,30.00778],[-97.05469,30.00723],[-97.05538,30.00714],[-97.05595,30.00739],[-97.05635,30.00781],[-97.05724,30.0101],[-97.0574,30.01152],[-97.05666,30.01356],[-97.05687,30.01463],[-97.05724,30.01518],[-97.05771,30.01555],[-97.06261,30.01712],[-97.06282,30.01741],[-97.06221,30.01886],[-97.06248,30.01915],[-97.06226,30.0207],[-97.06151,30.02151],[-97.06031,30.02226],[-97.06062,30.02294],[-97.06219,30.02454],[-97.06339,30.0253],[-97.0643,30.02479],[-97.06542,30.02477],[-97.06853,30.02821],[-97.06854,30.02857],[-97.0681,30.02889],[-97.06797,30.02937],[-97.06804,30.03134],[-97.06717,30.03335],[-97.06707,30.03647],[-97.06875,30.04106],[-97.06911,30.04274],[-97.06043,30.04285],[-97.06134,30.07582],[-97.06168,30.07614],[-97.0638,30.07619],[-97.06325,30.07721],[-97.06155,30.07888],[-97.06138,30.07936],[-97.06265,30.12046],[-97.06369,30.1217],[-97.0746,30.13776],[-97.08527,30.13754],[-97.08562,30.13731],[-97.08557,30.13369],[-97.08577,30.13342],[-97.10085,30.13308],[-97.10084,30.13263],[-97.10338,30.1326],[-97.10608,30.13139],[-97.10838,30.13071],[-97.11353,30.12993],[-97.11422,30.12964],[-97.11449,30.12932],[-97.11473,30.12778],[-97.11534,30.12743],[-97.11665,30.12733],[-97.12298,30.12818],[-97.12398,30.12809],[-97.12523,30.1276],[-97.13093,30.13138],[-97.1454,30.12656],[-97.15098,30.12592],[-97.15623,30.12417],[-97.15742,30.12347],[-97.16261,30.12291],[-97.16997,30.11984],[-97.17364,30.11701],[-97.17707,30.11534],[-97.17929,30.11441],[-97.18318,30.11347],[-97.18441,30.11338],[-97.18448,30.12151],[-97.19473,30.12125],[-97.19476,30.12288],[-97.19926,30.1228],[-97.2037,30.10779],[-97.23022,30.11366],[-97.23193,30.10822],[-97.2338,30.10049],[-97.23804,30.08556],[-97.23885,30.08283],[-97.23923,30.08261],[-97.23466,30.08136],[-97.23602,30.07645],[-97.22973,30.07518],[-97.2307,30.07159],[-97.22596,30.07035],[-97.22614,30.07012],[-97.22829,30.07067],[-97.2293,30.06683],[-97.22979,30.06352],[-97.22761,30.06139],[-97.22128,30.05702],[-97.22281,30.05592],[-97.22403,30.05405],[-97.2243,30.05296],[-97.22552,30.05176],[-97.22673,30.05118],[-97.22598,30.05031],[-97.2261,30.04909],[-97.22832,30.04732],[-97.22836,30.04673],[-97.22873,30.04636],[-97.22834,30.04611],[-97.22842,30.04573],[-97.22788,30.04535],[-97.22788,30.04491],[-97.22822,30.04445],[-97.22772,30.04412],[-97.22752,30.04331],[-97.2263,30.04201],[-97.22551,30.04037],[-97.22374,30.0395],[-97.22266,30.03945],[-97.2231,30.04077],[-97.222,30.04129],[-97.22096,30.04257],[-97.2193,30.0438],[-97.21853,30.04554],[-97.21825,30.04694],[-97.21694,30.04768],[-97.21612,30.04865],[-97.21464,30.04927],[-97.21367,30.04999],[-97.21296,30.04997],[-97.20992,30.05083],[-97.20683,30.05277],[-97.20595,30.05375],[-97.20421,30.05367],[-97.20247,30.05252],[-97.20226,30.0521],[-97.20379,30.05166],[-97.20458,30.05081],[-97.20541,30.04848],[-97.20548,30.04741],[-97.2054,30.04616],[-97.20392,30.04284],[-97.20321,30.04012],[-97.20251,30.03588],[-97.20239,30.03467],[-97.20263,30.03298],[-97.20314,30.03202],[-97.20488,30.02988],[-97.21075,30.02366],[-97.21175,30.02347],[-97.21301,30.02339],[-97.21412,30.02369],[-97.21691,30.02595],[-97.21849,30.02651],[-97.2217,30.0269],[-97.22552,30.02779],[-97.22774,30.02808],[-97.22893,30.02792],[-97.23169,30.02679],[-97.2333,30.02544],[-97.23351,30.02473],[-97.23328,30.02282],[-97.232,30.02064],[-97.23222,30.01878],[-97.23377,30.01641],[-97.23555,30.01502],[-97.24279,30.01373],[-97.24398,30.01274],[-97.24699,30.01111],[-97.24738,30.01056],[-97.24778,30.01042],[-97.24868,30.01091],[-97.24915,30.01201],[-97.246,30.0168],[-97.24536,30.0187],[-97.24591,30.02002],[-97.24603,30.02159],[-97.246,30.02332],[-97.24555,30.0256],[-97.24633,30.02632],[-97.24724,30.02653],[-97.25076,30.02628],[-97.2543,30.02646],[-97.25534,30.0272],[-97.25715,30.02727],[-97.25875,30.02634],[-97.25911,30.02563],[-97.26005,30.02484],[-97.26422,30.02325],[-97.26638,30.02266],[-97.26826,30.02248],[-97.27108,30.02265],[-97.27378,30.02244],[-97.27462,30.0228],[-97.27506,30.02328],[-97.27538,30.02417],[-97.2773,30.02524],[-97.27873,30.02548],[-97.2804,30.02549],[-97.28118,30.02528],[-97.28185,30.02543],[-97.28465,30.02769],[-97.29216,30.03213],[-97.29284,30.03328],[-97.29337,30.0379],[-97.2941,30.03864],[-97.29636,30.03919],[-97.30114,30.03923],[-97.3064,30.03812],[-97.30842,30.03836],[-97.30928,30.03931],[-97.31031,30.04196],[-97.31193,30.04423],[-97.3129,30.04506],[-97.31455,30.04502],[-97.31611,30.04265],[-97.3171,30.0406],[-97.31684,30.04004],[-97.31307,30.03802],[-97.31244,30.03715],[-97.31249,30.0367],[-97.31299,30.03605],[-97.31421,30.03541],[-97.31461,30.03474],[-97.3154,30.03452],[-97.31468,30.03227],[-97.31348,30.03215],[-97.31327,30.03191],[-97.31356,30.03048],[-97.31505,30.03013],[-97.31572,30.02937],[-97.31559,30.02856],[-97.3139,30.0269],[-97.31375,30.02638],[-97.3146,30.02581],[-97.31638,30.02558],[-97.31675,30.02507],[-97.31602,30.02421],[-97.31474,30.02347],[-97.31463,30.02291],[-97.31592,30.02189],[-97.31668,30.0207],[-97.31924,30.02072],[-97.32094,30.02009],[-97.32194,30.01862],[-97.32293,30.01768],[-97.32492,30.0166],[-97.32565,30.01489],[-97.32776,30.01396],[-97.32879,30.013],[-97.32921,30.01136],[-97.32817,30.00939],[-97.32759,30.00873],[-97.32621,30.00827],[-97.32474,30.00888],[-97.3241,30.00889],[-97.32363,30.00854],[-97.32314,30.0049],[-97.32378,30.0034],[-97.32481,30.00309],[-97.32633,30.00312],[-97.32721,30.00263],[-97.32838,30.00244],[-97.32916,30.00297],[-97.32929,30.00354],[-97.32893,30.00387],[-97.32931,30.00451],[-97.33068,30.00397],[-97.33179,30.00403],[-97.3333,30.00432],[-97.33367,30.00511],[-97.33473,30.00575],[-97.33664,30.00555],[-97.33701,30.00371],[-97.33838,30.00138],[-97.33859,29.99796],[-97.33765,29.99652],[-97.33486,29.99391],[-97.33305,29.99327],[-97.3328,29.99211],[-97.33418,29.99112],[-97.33423,29.99031],[-97.3347,29.98962],[-97.33567,29.98963],[-97.33597,29.99021],[-97.33634,29.9904],[-97.33682,29.99014],[-97.33683,29.98711],[-97.3359,29.98663],[-97.33564,29.9849],[-97.33637,29.98483],[-97.33747,29.98529],[-97.33903,29.98503],[-97.34014,29.98361],[-97.33992,29.98224],[-97.33926,29.98088],[-97.33852,29.98068],[-97.33874,29.97928],[-97.33951,29.97857],[-97.33987,29.97758],[-97.33899,29.9767],[-97.339,29.97494],[-97.33931,29.97479],[-97.3406,29.97519],[-97.34184,29.97517],[-97.34266,29.97451],[-97.34295,29.97311]]]}}]}