{"type":"FeatureCollection","features":[{"type":"Feature","properties":{"zip_code":"76539"},"geometry":{"type":"Polygon","coordinates":[[[-98.12957,31.09741],[-98.13001,31.09686],[-98.12892,31.09644],[-98.12253,31.09664],[-98.09908,31.09888],[-98.09309,31.09684],[-98.09362,31.09951],[-98.08738,31.09962],[-98.08681,31.09676],[-98.08146,31.09812],[-98.08269,31.10128],[-98.06114,31.10758],[-98.05859,31.10158],[-98.04931,31.10452],[-98.04703,31.106],[-98.0486,31.10439],[-98.04748,31.10246],[-98.04411,31.10282],[-98.04336,31.10032],[-98.04162,31.09845],[-98.03778,31.09547],[-98.03428,31.09456],[-98.03376,31.09048],[-98.03006,31.08559],[-98.03445,31.08167],[-98.03894,31.08089],[-98.04098,31.0821],[-98.04408,31.08137],[-98.04565,31.08523],[-98.04916,31.08469],[-98.05103,31.08546],[-98.05096,31.08316],[-98.04716,31.07427],[-98.05575,31.06937],[-98.06167,31.06027],[-98.05883,31.0549],[-98.05097,31.05715],[-98.04939,31.0538],[-98.04594,31.05313],[-98.04689,31.05143],[-98.04452,31.04794],[-98.04329,31.04231],[-98.05065,31.0359],[-98.05113,31.03329],[-98.03088,31.03352],[-98.02983,31.03102],[-98.0293,31.03139],[-98.02001,31.0095],[-98.04239,31.00266],[-98.04027,30.99759],[-98.03796,30.99817],[-98.0348,30.99025],[-98.01809,30.99549],[-98.0157,30.9895],[-98.00842,30.99188],[-98.00468,30.98324],[-98.00195,30.98058],[-98.00072,30.97614],[-98.00063,30.97556],[-98.00282,30.97458],[-98.00448,30.97167],[-98.00387,30.96772],[-97.99814,30.96919],[-97.98968,30.96814],[-97.98293,30.9692],[-97.98112,30.96814],[-97.97947,30.96576],[-97.97437,30.96455],[-97.9683,30.96513],[-97.96267,30.96407],[-97.95996,30.96256],[-97.96232,30.96817],[-97.9641,30.97032],[-97.96328,30.97314],[-97.9644,30.9744],[-97.9689,30.9764],[-97.96889,30.98157],[-97.9665,30.97988],[-97.96421,30.98208],[-97.962,30.98105],[-97.95892,30.98153],[-97.9582,30.98337],[-97.9593,30.9875],[-97.95486,30.98815],[-97.95218,30.99014],[-97.94954,30.99035],[-97.94884,30.99097],[-97.94971,30.99217],[-97.94982,30.99517],[-97.94742,30.99714],[-97.93992,30.99561],[-97.93623,30.99584],[-97.93528,30.99729],[-97.93423,30.99749],[-97.92674,30.99472],[-97.92594,30.99332],[-97.92886,30.99234],[-97.92877,30.98888],[-97.92745,30.9862],[-97.92682,30.9854],[-97.92511,30.98645],[-97.92373,30.98621],[-97.91815,30.97789],[-97.91219,30.97193],[-97.90354,30.97458],[-97.9032,30.97633],[-97.90445,30.97751],[-97.90249,30.97958],[-97.90342,30.98193],[-97.90308,30.98947],[-97.90379,30.98974],[-97.90334,30.99036],[-97.90825,30.99337],[-97.9124,30.99982],[-97.91179,31.00182],[-97.91313,31.00333],[-97.91106,31.00542],[-97.91037,31.0074],[-97.90953,31.00581],[-97.90739,31.00716],[-97.91292,31.01784],[-97.9112,31.01808],[-97.90539,31.00843],[-97.9026,31.00812],[-97.90095,31.01172],[-97.90015,31.01616],[-97.90281,31.01869],[-97.90165,31.02162],[-97.90482,31.02581],[-97.89849,31.02869],[-97.89507,31.02338],[-97.89019,31.02497],[-97.89322,31.02655],[-97.89398,31.02823],[-97.89181,31.02957],[-97.89064,31.02816],[-97.88991,31.02836],[-97.88959,31.0306],[-97.88759,31.03244],[-97.88812,31.03497],[-97.88732,31.03607],[-97.8867,31.04053],[-97.88211,31.04203],[-97.88359,31.0467],[-97.8739,31.04957],[-97.87439,31.05087],[-97.86943,31.05534],[-97.86797,31.05326],[-97.86639,31.05593],[-97.87019,31.05696],[-97.87068,31.05627],[-97.87166,31.05702],[-97.8744,31.05987],[-97.87297,31.06025],[-97.87355,31.062],[-97.87519,31.06154],[-97.87653,31.06394],[-97.8801,31.06739],[-97.88313,31.07851],[-97.88166,31.07827],[-97.87863,31.08603],[-97.88497,31.08803],[-97.87997,31.10011],[-97.88732,31.10214],[-97.89284,31.10077],[-97.8976,31.09738],[-97.90157,31.09598],[-97.90275,31.09269],[-97.89868,31.09136],[-97.89979,31.08866],[-97.90086,31.08899],[-97.90115,31.08803],[-97.90231,31.08777],[-97.90163,31.08698],[-97.90312,31.08306],[-97.90074,31.0798],[-97.90023,31.07641],[-97.89767,31.07414],[-97.9071,31.06937],[-97.91533,31.08166],[-97.92053,31.07927],[-97.9249,31.07977],[-97.92469,31.07879],[-97.92735,31.0788],[-97.92733,31.07779],[-97.93514,31.07543],[-97.93482,31.07459],[-97.93868,31.07255],[-97.94156,31.08017],[-97.93952,31.08057],[-97.94158,31.08586],[-97.94685,31.08423],[-97.94721,31.08504],[-97.94841,31.08473],[-97.95557,31.08219],[-97.95837,31.08228],[-97.96137,31.0807],[-97.96162,31.07798],[-97.96344,31.07767],[-97.9602,31.0698],[-97.95762,31.0706],[-97.95872,31.06826],[-97.95466,31.06742],[-97.95215,31.06381],[-97.9547,31.06377],[-97.95965,31.06622],[-97.97048,31.06829],[-97.97008,31.07012],[-97.97103,31.07026],[-97.97097,31.0711],[-97.97891,31.07359],[-97.97907,31.07479],[-97.98236,31.07467],[-97.98206,31.07202],[-97.98262,31.07229],[-97.98306,31.07641],[-97.98247,31.07654],[-97.98244,31.07955],[-97.98953,31.07927],[-97.98762,31.082],[-97.99074,31.08332],[-97.99016,31.08518],[-97.9884,31.08701],[-97.98898,31.08824],[-97.97752,31.10053],[-97.97042,31.10553],[-97.95986,31.11685],[-97.95154,31.12117],[-97.95025,31.12368],[-97.95029,31.13126],[-97.94863,31.13704],[-97.93995,31.14424],[-97.94872,31.1378],[-97.95108,31.13834],[-97.95056,31.14096],[-97.95566,31.14249],[-97.954,31.14805],[-97.95722,31.14934],[-97.9569,31.15065],[-97.95792,31.15167],[-97.96512,31.15369],[-97.96711,31.15765],[-97.96801,31.1578],[-98.00535,31.21225],[-98.02238,31.207],[-98.02395,31.20552],[-98.03137,31.21951],[-98.04722,31.21536],[-98.04841,31.21729],[-98.05495,31.2155],[-98.06987,31.21696],[-98.07411,31.22635],[-98.08975,31.22216],[-98.08948,31.21887],[-98.08732,31.21707],[-98.08674,31.21374],[-98.09014,31.20793],[-98.08999,31.20522],[-98.09108,31.20357],[-98.08673,31.19866],[-98.08641,31.19592],[-98.08768,31.19491],[-98.08906,31.19003],[-98.08664,31.18561],[-98.08058,31.18168],[-98.07725,31.18223],[-98.07503,31.18113],[-98.07225,31.18093],[-98.06971,31.17597],[-98.06903,31.17285],[-98.07876,31.16739],[-98.07928,31.1628],[-98.0821,31.1594],[-98.10008,31.15395],[-98.09641,31.14389],[-98.09791,31.14245],[-98.10341,31.14048],[-98.10488,31.13923],[-98.1028,31.13689],[-98.10358,31.13582],[-98.10638,31.13475],[-98.10362,31.12771],[-98.115,31.12544],[-98.11685,31.12412],[-98.11076,31.11245],[-98.10743,31.11375],[-98.10671,31.11568],[-98.10489,31.11432],[-98.10282,31.11462],[-98.10231,31.11227],[-98.10036,31.11271],[-98.10077,31.11496],[-98.09749,31.11543],[-98.09563,31.11244],[-98.10577,31.11117],[-98.11203,31.10833],[-98.11752,31.10745],[-98.12635,31.10255],[-98.12957,31.09741]]]}},{"type":"Feature","properties":{"zip_code":"76549"},"geometry":{"type":"Polygon","coordinates":[[[-97.91313,31.00333],[-97.91179,31.00182],[-97.9124,30.99982],[-97.90965,30.99511],[-97.90761,30.99274],[-97.90334,30.99036],[-97.90379,30.98974],[-97.90308,30.98947],[-97.90342,30.98193],[-97.90249,30.97958],[-97.90445,30.97751],[-97.9032,30.97633],[-97.90354,30.97458],[-97.91219,30.97193],[-97.90453,30.96112],[-97.90125,30.9591],[-97.88799,30.96369],[-97.88509,30.96361],[-97.87886,30.96848],[-97.87786,30.96807],[-97.87771,30.96602],[-97.88059,30.96368],[-97.87622,30.96322],[-97.87672,30.96291],[-97.87589,30.96111],[-97.87776,30.96091],[-97.87783,30.95932],[-97.87476,30.9585],[-97.87515,30.95583],[-97.87366,30.95438],[-97.87394,30.95373],[-97.876,30.95372],[-97.87616,30.95293],[-97.87462,30.95218],[-97.86208,30.95616],[-97.86261,30.95773],[-97.86098,30.9567],[-97.86217,30.95469],[-97.86749,30.94975],[-97.86356,30.94468],[-97.86453,30.94164],[-97.86761,30.93803],[-97.86599,30.935],[-97.86261,30.93371],[-97.86099,30.93131],[-97.86085,30.92711],[-97.86304,30.92419],[-97.86162,30.92357],[-97.86163,30.9222],[-97.85978,30.91945],[-97.85793,30.91841],[-97.85689,30.91504],[-97.85692,30.91071],[-97.85473,30.90855],[-97.85555,30.90555],[-97.85462,30.90202],[-97.8536,30.90857],[-97.84983,30.90712],[-97.84887,30.90801],[-97.84669,30.907],[-97.84396,30.90749],[-97.84182,30.90476],[-97.84179,30.90293],[-97.83995,30.90343],[-97.83709,30.90666],[-97.83549,30.90671],[-97.83369,30.90166],[-97.83382,30.89944],[-97.8281,30.90441],[-97.80075,30.8997],[-97.80123,30.906],[-97.79656,30.91635],[-97.79293,30.92812],[-97.79208,30.93425],[-97.78995,30.93788],[-97.78655,30.94095],[-97.78507,30.94399],[-97.78653,30.95457],[-97.78446,30.958],[-97.78514,30.95912],[-97.78193,30.96357],[-97.78152,30.96729],[-97.78062,30.96721],[-97.78082,30.96978],[-97.77877,30.97252],[-97.77959,30.97325],[-97.77786,30.97417],[-97.77616,30.97696],[-97.77677,30.97738],[-97.77375,30.98005],[-97.76343,30.99596],[-97.76221,30.99535],[-97.76145,30.99651],[-97.76237,30.99699],[-97.76154,30.99858],[-97.76037,30.99993],[-97.75874,30.99937],[-97.75641,31.00198],[-97.75767,31.003],[-97.75578,31.00517],[-97.7537,31.00563],[-97.75473,31.00757],[-97.75783,31.00727],[-97.75872,31.00852],[-97.75685,31.00874],[-97.75791,31.00954],[-97.75671,31.00875],[-97.75611,31.00993],[-97.75369,31.01072],[-97.75387,31.01135],[-97.75255,31.01164],[-97.75286,31.01317],[-97.75968,31.01171],[-97.76098,31.01462],[-97.75352,31.01736],[-97.7547,31.02308],[-97.75963,31.03629],[-97.75994,31.04397],[-97.76573,31.05708],[-97.76593,31.05928],[-97.76094,31.07198],[-97.76225,31.07273],[-97.76203,31.0733],[-97.76087,31.07439],[-97.76007,31.07755],[-97.75845,31.07711],[-97.75618,31.08468],[-97.75784,31.08511],[-97.75749,31.08629],[-97.75935,31.0873],[-97.7589,31.08846],[-97.75519,31.08786],[-97.74988,31.1032],[-97.75283,31.10411],[-97.75113,31.10851],[-97.74973,31.10809],[-97.74919,31.10935],[-97.75057,31.10992],[-97.75034,31.11043],[-97.75873,31.11268],[-97.76113,31.11436],[-97.76315,31.11333],[-97.77516,31.11689],[-97.77583,31.11519],[-97.77889,31.11551],[-97.78001,31.11219],[-97.78112,31.11122],[-97.79761,31.11593],[-97.79837,31.11629],[-97.79693,31.12042],[-97.78972,31.12242],[-97.79825,31.12173],[-97.79877,31.12503],[-97.80477,31.12182],[-97.8135,31.12131],[-97.81388,31.11768],[-97.81304,31.1177],[-97.8796,31.08355],[-97.88166,31.07827],[-97.88313,31.07851],[-97.8801,31.06739],[-97.87653,31.06394],[-97.87519,31.06154],[-97.87355,31.062],[-97.87297,31.06025],[-97.8744,31.05987],[-97.87166,31.05702],[-97.87068,31.05627],[-97.87019,31.05696],[-97.86639,31.05593],[-97.86797,31.05326],[-97.86943,31.05534],[-97.87439,31.05087],[-97.8739,31.04957],[-97.88359,31.0467],[-97.88211,31.04203],[-97.8867,31.04053],[-97.88732,31.03607],[-97.88812,31.03497],[-97.88759,31.03244],[-97.88959,31.0306],[-97.88991,31.02836],[-97.89064,31.02816],[-97.89181,31.02957],[-97.89398,31.02823],[-97.89322,31.02655],[-97.89019,31.02497],[-97.89507,31.02338],[-97.89849,31.02869],[-97.90482,31.02581],[-97.90165,31.02162],[-97.90281,31.01869],[-97.90015,31.01616],[-97.90095,31.01172],[-97.9026,31.00812],[-97.90539,31.00843],[-97.9112,31.01808],[-97.91292,31.01784],[-97.90739,31.00716],[-97.90953,31.00581],[-97.91037,31.0074],[-97.91106,31.00542],[-97.91313,31.00333]]]}},{"type":"Feature","properties":{"zip_code":"76550"},"geometry":{"type":"Polygon","coordinates":[[[-98.51527,31.10074],[-98.51437,31.10031],[-98.51182,31.10629],[-98.50637,31.10796],[-98.50462,31.10941],[-98.50083,31.11741],[-98.49864,31.11862],[-98.49361,31.1186],[-98.49029,31.11502],[-98.48825,31.11416],[-98.48578,31.11534],[-98.48288,31.11876],[-98.48077,31.11922],[-98.47361,31.10946],[-98.47002,31.10689],[-98.46673,31.1071],[-98.45974,31.11198],[-98.45695,31.11201],[-98.4556,31.11091],[-98.45573,31.10696],[-98.46146,31.10117],[-98.46915,31.09664],[-98.47053,31.09444],[-98.46862,31.09211],[-98.46148,31.09039],[-98.45784,31.08872],[-98.45591,31.08274],[-98.45642,31.0787],[-98.46273,31.07596],[-98.47247,31.07626],[-98.47667,31.07018],[-98.48196,31.06894],[-98.48333,31.0679],[-98.48414,31.06665],[-98.48414,31.06377],[-98.48268,31.05969],[-98.47494,31.0528],[-98.46449,31.04758],[-98.45308,31.04435],[-98.44759,31.0414],[-98.44486,31.03855],[-98.43977,31.02991],[-98.43953,31.02513],[-98.44233,31.02048],[-98.44829,31.0167],[-98.45695,31.01316],[-98.45874,31.01155],[-98.45937,31.00917],[-98.45855,31.00618],[-98.45662,31.00356],[-98.44618,30.9929],[-98.44187,30.98432],[-98.44323,30.97973],[-98.4529,30.96873],[-98.4528,30.9644],[-98.4471,30.95176],[-98.44588,30.9507],[-98.44198,30.94964],[-98.42469,30.94838],[-98.41756,30.94575],[-98.41486,30.94348],[-98.41473,30.94017],[-98.41714,30.92955],[-98.41961,30.92535],[-98.42233,30.92426],[-98.42921,30.92643],[-98.43741,30.92697],[-98.4419,30.92587],[-98.44578,30.92144],[-98.44756,30.91592],[-98.44293,30.9174],[-98.44383,30.91372],[-98.44699,30.91225],[-98.44517,30.91175],[-98.44653,30.91017],[-98.44421,30.91025],[-98.44379,30.90623],[-98.44205,30.90415],[-98.43962,30.90419],[-98.43849,30.90502],[-98.436,30.90474],[-98.43084,30.90273],[-98.42029,30.90164],[-98.41111,30.90551],[-98.41026,30.90643],[-98.41023,30.90855],[-98.40574,30.91069],[-98.38365,30.91101],[-98.3849,30.91053],[-98.38494,30.90944],[-98.3828,30.90885],[-98.38341,30.90995],[-98.38246,30.91098],[-98.37933,30.90971],[-98.37866,30.91007],[-98.37958,30.90984],[-98.38032,30.91091],[-98.34416,30.91171],[-98.34035,30.89519],[-98.28869,30.89584],[-98.28867,30.88644],[-98.28426,30.88999],[-98.28084,30.8867],[-98.24859,30.90022],[-98.24616,30.89723],[-98.24248,30.89503],[-98.2376,30.89563],[-98.20905,30.90683],[-98.21122,30.88982],[-98.19534,30.89464],[-98.19226,30.90843],[-98.18744,30.90408],[-98.17948,30.90557],[-98.16173,30.90479],[-98.15351,30.90599],[-98.15126,30.91052],[-98.14676,30.90962],[-98.14406,30.91121],[-98.14303,30.91355],[-98.1433,30.91487],[-98.14222,30.91603],[-98.14053,30.91566],[-98.14014,30.91664],[-98.14476,30.91765],[-98.1477,30.91527],[-98.14279,30.92285],[-98.13721,30.92452],[-98.13435,30.92391],[-98.13236,30.92029],[-98.12622,30.91548],[-98.11912,30.90704],[-98.11849,30.90441],[-98.11882,30.89924],[-98.12202,30.89754],[-98.12124,30.89328],[-98.11969,30.88965],[-98.11374,30.89165],[-98.11267,30.8884],[-98.09867,30.89339],[-98.07505,30.90036],[-98.07424,30.89899],[-98.06902,30.90054],[-98.06525,30.89675],[-98.0553,30.89789],[-98.05471,30.89574],[-98.04765,30.89462],[-98.04268,30.90328],[-98.0379,30.90483],[-98.03556,30.90742],[-98.03942,30.90911],[-98.03689,30.91159],[-98.03569,30.91042],[-98.03252,30.91048],[-98.03157,30.91518],[-98.02999,30.91644],[-98.02967,30.91837],[-98.02274,30.91759],[-98.01877,30.91879],[-98.01773,30.92181],[-98.0199,30.9227],[-98.01988,30.92469],[-98.0131,30.92452],[-98.01057,30.92329],[-98.00692,30.9239],[-98.00628,30.92997],[-98.01986,30.93659],[-98.01931,30.93764],[-98.0136,30.93939],[-98.00694,30.9432],[-98.00421,30.94302],[-98.00285,30.94138],[-98.00146,30.94258],[-97.99878,30.94189],[-97.9943,30.94292],[-97.99218,30.94379],[-97.99146,30.94592],[-97.98969,30.94711],[-97.99012,30.94762],[-97.99197,30.94713],[-97.99321,30.94928],[-97.99568,30.95034],[-97.9964,30.95504],[-97.99532,30.9564],[-97.99839,30.95677],[-98.0003,30.95886],[-98.00411,30.96834],[-98.00448,30.97167],[-98.00282,30.97458],[-98.00063,30.97556],[-98.0012,30.97817],[-98.00229,30.98108],[-98.00468,30.98324],[-98.00842,30.99188],[-98.0157,30.9895],[-98.01809,30.99549],[-98.0348,30.99025],[-98.03796,30.99817],[-98.04027,30.99759],[-98.04239,31.00266],[-98.02001,31.0095],[-98.0293,31.03139],[-98.02983,31.03102],[-98.03088,31.03352],[-98.05113,31.03329],[-98.05065,31.0359],[-98.04329,31.04231],[-98.04452,31.04794],[-98.04689,31.05143],[-98.04594,31.05313],[-98.04939,31.0538],[-98.05097,31.05715],[-98.05883,31.0549],[-98.06167,31.06027],[-98.05575,31.06937],[-98.04716,31.07427],[-98.05096,31.08316],[-98.05103,31.08546],[-98.04916,31.08469],[-98.04565,31.08523],[-98.04408,31.08137],[-98.04098,31.0821],[-98.03894,31.08089],[-98.03445,31.08167],[-98.03006,31.08559],[-98.03376,31.09048],[-98.03428,31.09456],[-98.03778,31.09547],[-98.04162,31.09845],[-98.04336,31.10032],[-98.04411,31.10282],[-98.04748,31.10246],[-98.0486,31.10439],[-98.04703,31.106],[-98.04931,31.10452],[-98.05859,31.10158],[-98.06114,31.10758],[-98.08269,31.10128],[-98.08146,31.09812],[-98.08681,31.09676],[-98.08738,31.09962],[-98.09362,31.09951],[-98.09309,31.09684],[-98.09908,31.09888],[-98.12253,31.09664],[-98.13001,31.09686],[-98.12703,31.10198],[-98.11752,31.10745],[-98.11203,31.10833],[-98.10577,31.11117],[-98.09563,31.11244],[-98.09749,31.11543],[-98.10077,31.11496],[-98.10036,31.11271],[-98.10231,31.11227],[-98.10282,31.11462],[-98.10489,31.11432],[-98.10671,31.11568],[-98.10743,31.11375],[-98.11076,31.11245],[-98.11685,31.12412],[-98.115,31.12544],[-98.10362,31.12771],[-98.10638,31.13475],[-98.10358,31.13582],[-98.1028,31.13689],[-98.10488,31.13923],[-98.10341,31.14048],[-98.09791,31.14245],[-98.09641,31.14389],[-98.10008,31.15395],[-98.0821,31.1594],[-98.07928,31.1628],[-98.07876,31.16739],[-98.06903,31.17285],[-98.06971,31.17597],[-98.07225,31.18093],[-98.07503,31.18113],[-98.07725,31.18223],[-98.08058,31.18168],[-98.08664,31.18561],[-98.08906,31.19003],[-98.08768,31.19491],[-98.08641,31.19592],[-98.08673,31.19866],[-98.09108,31.20357],[-98.08999,31.20522],[-98.09014,31.20793],[-98.08674,31.21374],[-98.08732,31.21707],[-98.08948,31.21887],[-98.08975,31.22216],[-98.07411,31.22635],[-98.08659,31.26097],[-98.07931,31.2623],[-98.08317,31.2733],[-98.0652,31.2785],[-98.06259,31.28333],[-98.06156,31.28725],[-98.06875,31.29249],[-98.07539,31.29427],[-98.07155,31.30035],[-98.07177,31.30722],[-98.14936,31.41987],[-98.14986,31.41405],[-98.14065,31.39737],[-98.14477,31.39576],[-98.14421,31.39354],[-98.1491,31.39245],[-98.14902,31.39507],[-98.15217,31.40348],[-98.15698,31.40221],[-98.16352,31.40186],[-98.16531,31.40615],[-98.16653,31.40634],[-98.16786,31.40788],[-98.17129,31.40701],[-98.1772,31.37515],[-98.17742,31.37063],[-98.17519,31.34664],[-98.17771,31.34641],[-98.17773,31.34509],[-98.17864,31.34444],[-98.17794,31.34118],[-98.17912,31.33993],[-98.17783,31.33896],[-98.17721,31.33577],[-98.17882,31.33551],[-98.17876,31.33417],[-98.18034,31.33355],[-98.1802,31.33192],[-98.18128,31.32961],[-98.18099,31.32728],[-98.17858,31.32483],[-98.17833,31.32188],[-98.17573,31.32088],[-98.17491,31.31732],[-98.1745,31.31082],[-98.17633,31.31067],[-98.17664,31.30972],[-98.17584,31.30873],[-98.17385,31.30874],[-98.17517,31.30656],[-98.17362,31.30394],[-98.17444,31.30206],[-98.17373,31.30113],[-98.175,31.29917],[-98.17414,31.29775],[-98.17419,31.29514],[-98.16937,31.29349],[-98.16954,31.29267],[-98.17793,31.29095],[-98.18894,31.29656],[-98.1916,31.29879],[-98.20293,31.29846],[-98.20879,31.30045],[-98.21061,31.30188],[-98.21438,31.3111],[-98.22111,31.3135],[-98.22189,31.31355],[-98.21896,31.30741],[-98.22889,31.30443],[-98.22991,31.30636],[-98.24125,31.30281],[-98.23993,31.30018],[-98.23783,31.30012],[-98.23267,31.29425],[-98.22302,31.29037],[-98.22173,31.28825],[-98.21787,31.28529],[-98.21478,31.28677],[-98.20166,31.2838],[-98.19473,31.2753],[-98.19861,31.27139],[-98.20521,31.26818],[-98.21052,31.2667],[-98.21333,31.264],[-98.21342,31.26152],[-98.21483,31.26016],[-98.2157,31.257],[-98.2241,31.2406],[-98.22391,31.23941],[-98.2279,31.24131],[-98.23837,31.24315],[-98.23965,31.24204],[-98.24327,31.24252],[-98.23505,31.22082],[-98.23245,31.22158],[-98.22414,31.20018],[-98.24341,31.1946],[-98.24276,31.19276],[-98.2646,31.18613],[-98.26134,31.17724],[-98.27393,31.18547],[-98.27597,31.18834],[-98.2782,31.19948],[-98.28234,31.21096],[-98.28973,31.21052],[-98.29377,31.20886],[-98.29582,31.20918],[-98.32445,31.19925],[-98.31826,31.18518],[-98.32011,31.18468],[-98.34246,31.19366],[-98.34589,31.19339],[-98.3532,31.19079],[-98.35701,31.19297],[-98.36215,31.1893],[-98.36578,31.19072],[-98.3697,31.18923],[-98.37097,31.18692],[-98.33721,31.16537],[-98.32907,31.15767],[-98.34419,31.15248],[-98.34566,31.14994],[-98.34636,31.14386],[-98.35145,31.13985],[-98.36562,31.13918],[-98.36879,31.13986],[-98.37174,31.14193],[-98.37156,31.14602],[-98.38506,31.14621],[-98.37975,31.13489],[-98.37513,31.13107],[-98.3708,31.12477],[-98.37017,31.11715],[-98.36848,31.11213],[-98.36527,31.11],[-98.36385,31.10778],[-98.36745,31.10846],[-98.37823,31.10838],[-98.37995,31.10913],[-98.39247,31.10904],[-98.39247,31.10629],[-98.39432,31.10516],[-98.39432,31.1031],[-98.39625,31.10116],[-98.39627,31.0983],[-98.39837,31.09195],[-98.40317,31.09188],[-98.40588,31.08943],[-98.40948,31.08927],[-98.41089,31.09138],[-98.41168,31.09827],[-98.41307,31.1002],[-98.41299,31.10472],[-98.41885,31.11258],[-98.41882,31.1146],[-98.41738,31.11618],[-98.42168,31.11777],[-98.42368,31.11711],[-98.42864,31.1205],[-98.42708,31.12268],[-98.42748,31.125],[-98.42639,31.12625],[-98.43219,31.12988],[-98.43256,31.1318],[-98.43627,31.12978],[-98.43807,31.12402],[-98.44643,31.12164],[-98.44829,31.11926],[-98.45208,31.11989],[-98.46382,31.11646],[-98.46502,31.11462],[-98.45904,31.11237],[-98.4631,31.11044],[-98.46737,31.10706],[-98.47041,31.10713],[-98.47222,31.10837],[-98.47575,31.11243],[-98.47931,31.11847],[-98.48112,31.11957],[-98.48311,31.11912],[-98.48626,31.11513],[-98.48833,31.11431],[-98.49056,31.11534],[-98.4936,31.11864],[-98.49841,31.1189],[-98.50031,31.11823],[-98.50515,31.10921],[-98.51213,31.10661],[-98.5144,31.10433],[-98.51481,31.10286],[-98.51397,31.10194],[-98.51527,31.10074]]]}},{"type":"Feature","properties":{"zip_code":"78605"},"geometry":{"type":"Polygon","coordinates":[[[-98.16742,30.76458],[-98.1651,30.75768],[-98.16445,30.75787],[-98.16241,30.75296],[-98.16434,30.74943],[-98.16087,30.74941],[-98.1629,30.74076],[-98.16206,30.73898],[-98.1552,30.73614],[-98.15472,30.73553],[-98.15551,30.73301],[-98.14985,30.73235],[-98.14719,30.72937],[-98.14018,30.72521],[-98.14545,30.72032],[-98.14656,30.71781],[-98.15497,30.71228],[-98.15506,30.71113],[-98.15968,30.70657],[-98.16067,30.70684],[-98.14776,30.70113],[-98.14413,30.69635],[-98.15114,30.69385],[-98.14468,30.67868],[-98.15249,30.67606],[-98.15036,30.66929],[-98.1535,30.66096],[-98.15179,30.65691],[-98.14759,30.65786],[-98.13956,30.64859],[-98.14193,30.64794],[-98.14396,30.64589],[-98.14817,30.63692],[-98.16187,30.64335],[-98.15987,30.64714],[-98.16378,30.64909],[-98.16424,30.64732],[-98.16296,30.64543],[-98.16328,30.64422],[-98.16215,30.64335],[-98.16331,30.64141],[-98.15999,30.63745],[-98.16023,30.63637],[-98.16234,30.63594],[-98.16355,30.6341],[-98.16298,30.63034],[-98.16083,30.62923],[-98.15898,30.62698],[-98.1581,30.6283],[-98.12907,30.61443],[-98.13097,30.61054],[-98.12977,30.60764],[-98.12802,30.60671],[-98.1184,30.61317],[-98.10778,30.60798],[-98.10497,30.60492],[-98.10172,30.60546],[-98.0963,30.59971],[-98.08582,30.60376],[-98.08333,30.6091],[-98.07687,30.61816],[-98.07404,30.62049],[-98.07282,30.61873],[-98.06922,30.61925],[-98.06668,30.6187],[-98.06485,30.61689],[-98.06356,30.61744],[-98.06317,30.61398],[-98.06048,30.61263],[-98.05683,30.61212],[-98.03034,30.66045],[-98.03442,30.66316],[-98.04283,30.66295],[-98.07114,30.65386],[-98.07512,30.66464],[-98.06683,30.67353],[-98.05927,30.6845],[-98.05992,30.69257],[-98.06198,30.69777],[-98.06134,30.69764],[-98.06091,30.69985],[-98.05862,30.7014],[-98.05772,30.70063],[-98.05474,30.70075],[-98.05057,30.69936],[-98.04683,30.7023],[-98.04498,30.70176],[-98.04333,30.69932],[-98.03769,30.70018],[-98.03619,30.70337],[-98.03449,30.70405],[-98.03216,30.70309],[-98.03383,30.70589],[-98.03411,30.71143],[-98.03353,30.71153],[-98.01747,30.71334],[-98.00437,30.70837],[-97.96286,30.78564],[-97.90413,30.83789],[-97.92924,30.83076],[-97.93828,30.85359],[-97.93495,30.85468],[-97.93417,30.85347],[-97.88786,30.86794],[-97.88857,30.8716],[-97.88783,30.87257],[-97.88527,30.87328],[-97.88846,30.87602],[-97.88747,30.88057],[-97.88796,30.8811],[-97.88544,30.88671],[-97.88583,30.89085],[-97.88476,30.89185],[-97.8844,30.89547],[-97.88233,30.89657],[-97.88062,30.89644],[-97.87935,30.89725],[-97.87948,30.89803],[-97.88297,30.89856],[-97.88808,30.89646],[-97.89515,30.89665],[-97.90036,30.89497],[-97.90313,30.89694],[-97.91294,30.89373],[-97.91468,30.89218],[-97.91379,30.89203],[-97.91386,30.88813],[-97.91253,30.88606],[-97.92148,30.88336],[-97.92322,30.88495],[-97.93225,30.88956],[-97.953,30.89043],[-97.95971,30.89315],[-97.9627,30.89595],[-97.96547,30.896],[-97.96927,30.89828],[-97.97307,30.89799],[-97.9742,30.89709],[-97.97968,30.89794],[-97.98288,30.8968],[-97.98446,30.89874],[-97.98285,30.89994],[-97.98279,30.90082],[-97.98402,30.9024],[-97.98598,30.90149],[-97.9873,30.90213],[-97.98747,30.9034],[-97.98936,30.90503],[-97.98928,30.90837],[-97.9907,30.90957],[-97.99153,30.91185],[-97.99234,30.91088],[-97.99841,30.91061],[-98.00226,30.90916],[-98.00265,30.90991],[-98.00116,30.91514],[-98.00333,30.91923],[-98.00242,30.92019],[-98.00292,30.92075],[-98.00667,30.9232],[-98.01054,30.92239],[-98.01294,30.92449],[-98.02006,30.92464],[-98.0199,30.9227],[-98.01773,30.92181],[-98.0187,30.91885],[-98.02274,30.91759],[-98.02967,30.91837],[-98.02999,30.91644],[-98.03157,30.91518],[-98.03252,30.91048],[-98.03569,30.91042],[-98.03689,30.91159],[-98.03942,30.90911],[-98.03556,30.90742],[-98.0379,30.90483],[-98.04268,30.90328],[-98.04765,30.89462],[-98.05471,30.89574],[-98.0553,30.89789],[-98.06525,30.89675],[-98.06902,30.90054],[-98.07338,30.89924],[-98.06796,30.8866],[-98.06477,30.88411],[-98.06274,30.88492],[-98.06059,30.88039],[-98.0628,30.87935],[-98.06465,30.88277],[-98.08335,30.87737],[-98.08817,30.87377],[-98.0931,30.87244],[-98.09338,30.86412],[-98.09171,30.85849],[-98.09538,30.85467],[-98.09421,30.85205],[-98.09449,30.85024],[-98.09783,30.84699],[-98.09698,30.84532],[-98.09773,30.84513],[-98.09817,30.84354],[-98.09142,30.83223],[-98.08995,30.82781],[-98.08311,30.8239],[-98.08045,30.81827],[-98.08334,30.81732],[-98.08195,30.81261],[-98.08438,30.80963],[-98.083,30.80977],[-98.08064,30.80745],[-98.07793,30.80704],[-98.07764,30.80521],[-98.07635,30.80439],[-98.0815,30.80504],[-98.08427,30.80422],[-98.08608,30.79879],[-98.08846,30.79779],[-98.09353,30.79836],[-98.09511,30.79292],[-98.09854,30.79243],[-98.10168,30.79024],[-98.10825,30.7898],[-98.11011,30.79081],[-98.11407,30.78927],[-98.12009,30.79008],[-98.12132,30.78746],[-98.12459,30.78482],[-98.12801,30.78435],[-98.12793,30.78697],[-98.12963,30.78705],[-98.13323,30.78493],[-98.14203,30.78184],[-98.14249,30.78061],[-98.15925,30.77541],[-98.15862,30.77384],[-98.16225,30.77283],[-98.16428,30.77115],[-98.16514,30.76663],[-98.16396,30.76567],[-98.16742,30.76458]]]}},{"type":"Feature","properties":{"zip_code":"78608"},"geometry":{"type":"Polygon","coordinates":[[[-98.01965,30.93677],[-98.00628,30.92997],[-98.00692,30.9239],[-98.01045,30.92329],[-98.01204,30.9238],[-98.01054,30.92239],[-98.00667,30.9232],[-98.00242,30.92019],[-98.00333,30.91923],[-98.00116,30.91514],[-98.00265,30.90991],[-98.00226,30.90916],[-97.99841,30.91061],[-97.99234,30.91088],[-97.99153,30.91185],[-97.9907,30.90957],[-97.98928,30.90837],[-97.98936,30.90503],[-97.98747,30.9034],[-97.9873,30.90213],[-97.98598,30.90149],[-97.98402,30.9024],[-97.98279,30.90082],[-97.98285,30.89994],[-97.98446,30.89874],[-97.98288,30.8968],[-97.97968,30.89794],[-97.9742,30.89709],[-97.97307,30.89799],[-97.96927,30.89828],[-97.96547,30.896],[-97.9627,30.89595],[-97.95971,30.89315],[-97.953,30.89043],[-97.93225,30.88956],[-97.92322,30.88495],[-97.92148,30.88336],[-97.91253,30.88606],[-97.91386,30.88813],[-97.91379,30.89203],[-97.91468,30.89218],[-97.91419,30.89315],[-97.90313,30.89694],[-97.90036,30.89497],[-97.89588,30.89655],[-97.89023,30.89618],[-97.88297,30.89856],[-97.88014,30.8985],[-97.87954,30.89711],[-97.8844,30.89547],[-97.88476,30.89185],[-97.88608,30.88967],[-97.88539,30.88869],[-97.87709,30.89117],[-97.87614,30.88899],[-97.86829,30.89007],[-97.86864,30.893],[-97.85742,30.89747],[-97.85599,30.89508],[-97.85495,30.89562],[-97.85684,30.9004],[-97.85452,30.90129],[-97.85555,30.90555],[-97.85474,30.90859],[-97.85692,30.91071],[-97.85689,30.91504],[-97.85793,30.91841],[-97.85978,30.91945],[-97.86163,30.9222],[-97.86162,30.92357],[-97.86304,30.92419],[-97.86106,30.92643],[-97.8609,30.93105],[-97.86261,30.93371],[-97.86622,30.93524],[-97.86761,30.93803],[-97.86453,30.94164],[-97.86356,30.94468],[-97.86749,30.94975],[-97.86217,30.95469],[-97.86115,30.95693],[-97.86261,30.95773],[-97.86208,30.95616],[-97.87462,30.95218],[-97.87616,30.95293],[-97.876,30.95372],[-97.87394,30.95373],[-97.87366,30.95438],[-97.87515,30.95583],[-97.87476,30.9585],[-97.87783,30.95932],[-97.87776,30.96091],[-97.87589,30.96111],[-97.87672,30.96291],[-97.87622,30.96322],[-97.88059,30.96368],[-97.87771,30.96602],[-97.87786,30.96807],[-97.87886,30.96848],[-97.88462,30.96377],[-97.88799,30.96369],[-97.90132,30.95913],[-97.90527,30.96194],[-97.90973,30.96922],[-97.91815,30.97789],[-97.92343,30.98592],[-97.92503,30.98647],[-97.92682,30.9854],[-97.92745,30.9862],[-97.92877,30.98888],[-97.92886,30.99234],[-97.92594,30.99332],[-97.92674,30.99472],[-97.93423,30.99749],[-97.93528,30.99729],[-97.93623,30.99584],[-97.93992,30.99561],[-97.94742,30.99714],[-97.94982,30.99517],[-97.94971,30.99217],[-97.94884,30.99097],[-97.94954,30.99035],[-97.95218,30.99014],[-97.95486,30.98815],[-97.9593,30.9875],[-97.9582,30.98337],[-97.95892,30.98153],[-97.962,30.98105],[-97.96421,30.98208],[-97.9665,30.97988],[-97.96878,30.98183],[-97.9689,30.9764],[-97.9644,30.9744],[-97.96328,30.97314],[-97.9641,30.97032],[-97.96232,30.96817],[-97.95996,30.96256],[-97.96267,30.96407],[-97.9683,30.96513],[-97.97437,30.96455],[-97.97947,30.96576],[-97.98112,30.96814],[-97.98293,30.9692],[-97.98968,30.96814],[-97.99814,30.96919],[-98.00387,30.96772],[-97.99968,30.9576],[-97.99532,30.9564],[-97.9964,30.95504],[-97.99568,30.95034],[-97.99321,30.94928],[-97.99197,30.94713],[-97.98998,30.94761],[-97.98983,30.94675],[-97.99146,30.94592],[-97.99218,30.94379],[-97.99421,30.94295],[-97.99878,30.94189],[-98.00146,30.94258],[-98.00285,30.94138],[-98.00421,30.94302],[-98.00694,30.9432],[-98.0136,30.93939],[-98.01931,30.93764],[-98.01965,30.93677]]]}},{"type":"Feature","properties":{"zip_code":"78611"},"geometry":{"type":"Polygon","coordinates":[[[-98.45738,30.87937],[-98.45635,30.87645],[-98.45079,30.87143],[-98.44587,30.87033],[-98.43778,30.87057],[-98.43239,30.86967],[-98.42482,30.8661],[-98.42147,30.86317],[-98.41935,30.85912],[-98.41925,30.85706],[-98.41963,30.85088],[-98.42221,30.83923],[-98.42159,30.835],[-98.41572,30.83473],[-98.40999,30.83599],[-98.4069,30.83905],[-98.40498,30.84382],[-98.40138,30.844],[-98.39365,30.84296],[-98.38137,30.8382],[-98.37757,30.83566],[-98.37659,30.83378],[-98.3776,30.82951],[-98.38007,30.826],[-98.38396,30.82189],[-98.38763,30.81935],[-98.391,30.81829],[-98.40089,30.8189],[-98.40334,30.81794],[-98.40816,30.80901],[-98.40938,30.79995],[-98.41255,30.79499],[-98.4156,30.79427],[-98.42537,30.79557],[-98.43088,30.7918],[-98.43254,30.78858],[-98.43121,30.7848],[-98.42355,30.77758],[-98.42253,30.77504],[-98.42387,30.77107],[-98.42786,30.76647],[-98.43021,30.76096],[-98.42991,30.75612],[-98.42796,30.75295],[-98.42663,30.75153],[-98.42405,30.75051],[-98.4155,30.75163],[-98.40171,30.74947],[-98.39984,30.74825],[-98.41217,30.74618],[-98.39874,30.74587],[-98.39096,30.74362],[-98.39001,30.74267],[-98.39236,30.73775],[-98.39448,30.73568],[-98.41144,30.74495],[-98.41397,30.74381],[-98.41853,30.74],[-98.43912,30.73624],[-98.43872,30.71299],[-98.4086,30.71309],[-98.40825,30.71567],[-98.40415,30.72108],[-98.40211,30.72184],[-98.39265,30.72123],[-98.3854,30.72947],[-98.39203,30.72104],[-98.39762,30.72071],[-98.4019,30.72158],[-98.40413,30.72084],[-98.4072,30.71619],[-98.40781,30.7144],[-98.40719,30.7128],[-98.40969,30.70764],[-98.4132,30.70449],[-98.41346,30.70249],[-98.40652,30.69362],[-98.40376,30.68727],[-98.40274,30.6881],[-98.4035,30.68868],[-98.40267,30.68826],[-98.40367,30.6867],[-98.40183,30.68222],[-98.4018,30.67827],[-98.40111,30.67792],[-98.40102,30.67902],[-98.39998,30.67896],[-98.39913,30.67719],[-98.39799,30.67802],[-98.39903,30.6768],[-98.39968,30.67861],[-98.4019,30.67787],[-98.40377,30.67549],[-98.40308,30.67405],[-98.40519,30.67283],[-98.40602,30.671],[-98.40517,30.66949],[-98.394,30.67315],[-98.39168,30.67238],[-98.38643,30.67468],[-98.38485,30.67378],[-98.38461,30.6757],[-98.38348,30.67589],[-98.38197,30.679],[-98.37589,30.67857],[-98.37556,30.68436],[-98.35685,30.68432],[-98.35694,30.69032],[-98.35272,30.68835],[-98.351,30.68575],[-98.34922,30.68454],[-98.34606,30.68347],[-98.3426,30.68362],[-98.31643,30.67071],[-98.31892,30.67769],[-98.31534,30.67426],[-98.31155,30.67269],[-98.3079,30.67274],[-98.30665,30.67151],[-98.30507,30.67158],[-98.30047,30.67927],[-98.29999,30.67752],[-98.29651,30.67486],[-98.29765,30.67339],[-98.29716,30.67303],[-98.2977,30.67171],[-98.29063,30.66696],[-98.28765,30.66706],[-98.28671,30.66599],[-98.28661,30.66393],[-98.27036,30.65333],[-98.26623,30.65414],[-98.25947,30.65322],[-98.25662,30.65406],[-98.255,30.68404],[-98.25259,30.68424],[-98.24934,30.68304],[-98.24659,30.67814],[-98.24365,30.67677],[-98.24028,30.67139],[-98.23659,30.66923],[-98.23213,30.66907],[-98.22917,30.66496],[-98.22929,30.65622],[-98.2304,30.64904],[-98.2371,30.6457],[-98.23754,30.642],[-98.23446,30.63564],[-98.22963,30.63231],[-98.23374,30.63734],[-98.22866,30.64862],[-98.2259,30.65236],[-98.22682,30.65478],[-98.22279,30.65567],[-98.22161,30.65755],[-98.21503,30.65456],[-98.21691,30.66109],[-98.20941,30.66273],[-98.20776,30.65661],[-98.20153,30.65818],[-98.19801,30.65737],[-98.19596,30.64917],[-98.19816,30.64998],[-98.19899,30.64477],[-98.19489,30.64344],[-98.18873,30.65293],[-98.18247,30.65006],[-98.17831,30.65101],[-98.16679,30.64516],[-98.16328,30.64422],[-98.16296,30.64543],[-98.16424,30.64732],[-98.16378,30.64909],[-98.15987,30.64714],[-98.16187,30.64335],[-98.14817,30.63692],[-98.14396,30.64589],[-98.14193,30.64794],[-98.13982,30.64818],[-98.13966,30.64894],[-98.14759,30.65786],[-98.15179,30.65691],[-98.1535,30.66096],[-98.15036,30.66929],[-98.15249,30.67606],[-98.14468,30.67868],[-98.15114,30.69385],[-98.14413,30.69635],[-98.14776,30.70113],[-98.16067,30.70684],[-98.15968,30.70657],[-98.15506,30.71113],[-98.15497,30.71228],[-98.14656,30.71781],[-98.14545,30.72032],[-98.14018,30.72521],[-98.14719,30.72937],[-98.14985,30.73235],[-98.15551,30.73301],[-98.15472,30.73553],[-98.1552,30.73614],[-98.16206,30.73898],[-98.1629,30.74076],[-98.16087,30.74941],[-98.16434,30.74943],[-98.16241,30.75296],[-98.16445,30.75787],[-98.1651,30.75768],[-98.16742,30.76458],[-98.16396,30.76567],[-98.16514,30.76663],[-98.16428,30.77115],[-98.16225,30.77283],[-98.15862,30.77384],[-98.15925,30.77541],[-98.14249,30.78061],[-98.14203,30.78184],[-98.13323,30.78493],[-98.12963,30.78705],[-98.12793,30.78697],[-98.12801,30.78435],[-98.12459,30.78482],[-98.12132,30.78746],[-98.12009,30.79008],[-98.11407,30.78927],[-98.11011,30.79081],[-98.10825,30.7898],[-98.10168,30.79024],[-98.09854,30.79243],[-98.09511,30.79292],[-98.09353,30.79836],[-98.08846,30.79779],[-98.08608,30.79879],[-98.08427,30.80422],[-98.0815,30.80504],[-98.07635,30.80439],[-98.07764,30.80521],[-98.07793,30.80704],[-98.08064,30.80745],[-98.083,30.80977],[-98.08438,30.80963],[-98.08195,30.81261],[-98.08334,30.81732],[-98.08045,30.81827],[-98.08311,30.8239],[-98.08995,30.82781],[-98.09142,30.83223],[-98.09817,30.84354],[-98.09773,30.84513],[-98.09698,30.84532],[-98.09783,30.84699],[-98.09449,30.85024],[-98.09421,30.85205],[-98.09538,30.85467],[-98.09171,30.85849],[-98.09338,30.86412],[-98.0931,30.87244],[-98.08817,30.87377],[-98.08335,30.87737],[-98.06465,30.88277],[-98.0628,30.87935],[-98.06059,30.88039],[-98.06274,30.88492],[-98.06477,30.88411],[-98.06796,30.8866],[-98.07338,30.89924],[-98.07424,30.89899],[-98.07505,30.90036],[-98.09867,30.89339],[-98.11267,30.8884],[-98.11374,30.89165],[-98.11969,30.88965],[-98.12202,30.89754],[-98.11882,30.89924],[-98.11849,30.90441],[-98.11912,30.90704],[-98.12622,30.91548],[-98.13236,30.92029],[-98.13435,30.92391],[-98.13721,30.92452],[-98.14279,30.92285],[-98.1477,30.91527],[-98.14476,30.91765],[-98.14014,30.91664],[-98.14053,30.91566],[-98.14222,30.91603],[-98.1433,30.91487],[-98.14303,30.91355],[-98.14406,30.91121],[-98.14676,30.90962],[-98.15126,30.91052],[-98.15351,30.90599],[-98.16173,30.90479],[-98.17948,30.90557],[-98.18744,30.90408],[-98.19226,30.90843],[-98.19534,30.89464],[-98.21122,30.88982],[-98.20905,30.90683],[-98.2376,30.89563],[-98.24248,30.89503],[-98.24616,30.89723],[-98.24859,30.90022],[-98.28084,30.8867],[-98.28426,30.88999],[-98.28867,30.88644],[-98.28869,30.89584],[-98.34035,30.89519],[-98.34416,30.91171],[-98.38032,30.91091],[-98.37958,30.90984],[-98.37866,30.91007],[-98.37933,30.90971],[-98.38246,30.91098],[-98.38341,30.90995],[-98.3828,30.90885],[-98.38494,30.90944],[-98.3849,30.91053],[-98.38365,30.91101],[-98.40574,30.91069],[-98.41023,30.90855],[-98.41026,30.90643],[-98.41111,30.90551],[-98.41758,30.90242],[-98.42308,30.90162],[-98.42725,30.90275],[-98.43084,30.90273],[-98.436,30.90474],[-98.44258,30.90441],[-98.44456,30.90895],[-98.44421,30.91025],[-98.44653,30.91017],[-98.44517,30.91175],[-98.44699,30.91225],[-98.44383,30.91372],[-98.44293,30.9174],[-98.44756,30.91592],[-98.44946,30.90316],[-98.44875,30.89033],[-98.45522,30.88475],[-98.45693,30.88207],[-98.45738,30.87937]]]}},{"type":"Feature","properties":{"zip_code":"78639"},"geometry":{"type":"Polygon","coordinates":[[[-98.55202,30.73485],[-98.54535,30.73044],[-98.53599,30.72217],[-98.53391,30.71872],[-98.5283,30.7149],[-98.52216,30.71338],[-98.52144,30.71235],[-98.5146,30.71],[-98.50798,30.70516],[-98.50237,30.70241],[-98.48389,30.70251],[-98.47888,30.70061],[-98.47487,30.69708],[-98.4753,30.69216],[-98.48083,30.68826],[-98.48548,30.68032],[-98.48615,30.67766],[-98.48498,30.6767],[-98.4846,30.67489],[-98.48736,30.66953],[-98.48862,30.66196],[-98.49223,30.66345],[-98.49331,30.66015],[-98.49487,30.65875],[-98.49909,30.65913],[-98.50113,30.65856],[-98.50681,30.65508],[-98.51137,30.656],[-98.51447,30.65571],[-98.51866,30.65323],[-98.51851,30.6481],[-98.52047,30.64372],[-98.52074,30.64084],[-98.52268,30.64079],[-98.52416,30.63972],[-98.52722,30.63027],[-98.52865,30.62933],[-98.52251,30.61822],[-98.51598,30.61098],[-98.50544,30.60893],[-98.49408,30.6105],[-98.48617,30.60959],[-98.48095,30.61134],[-98.47821,30.61352],[-98.47023,30.62736],[-98.4604,30.63431],[-98.46075,30.62758],[-98.46268,30.62609],[-98.46396,30.61627],[-98.46345,30.61533],[-98.45818,30.61483],[-98.45651,30.6159],[-98.45804,30.62035],[-98.45779,30.62453],[-98.45566,30.6258],[-98.45563,30.6271],[-98.45315,30.62639],[-98.45053,30.62439],[-98.4493,30.62483],[-98.44855,30.62603],[-98.45016,30.62814],[-98.45015,30.62939],[-98.44704,30.63155],[-98.44664,30.63297],[-98.44439,30.63196],[-98.44464,30.63039],[-98.44881,30.62237],[-98.44957,30.61759],[-98.45325,30.6132],[-98.45382,30.61138],[-98.45294,30.59287],[-98.45188,30.59034],[-98.44904,30.587],[-98.44114,30.59218],[-98.43362,30.59514],[-98.43124,30.59536],[-98.42657,30.59418],[-98.42403,30.59476],[-98.42203,30.59873],[-98.41789,30.6039],[-98.41464,30.60371],[-98.41365,30.60451],[-98.41382,30.60684],[-98.41841,30.61102],[-98.41982,30.6136],[-98.41193,30.61642],[-98.40059,30.59948],[-98.40141,30.60375],[-98.40051,30.60542],[-98.40131,30.60533],[-98.40164,30.6068],[-98.40243,30.60597],[-98.40698,30.61315],[-98.40815,30.61387],[-98.40601,30.61446],[-98.40686,30.61527],[-98.40849,30.61477],[-98.40916,30.61547],[-98.40806,30.61627],[-98.40866,30.6177],[-98.40775,30.61803],[-98.40832,30.6186],[-98.40953,30.61819],[-98.41015,30.61696],[-98.41042,30.62006],[-98.41176,30.62282],[-98.41074,30.62421],[-98.40681,30.62385],[-98.40449,30.62592],[-98.40843,30.62849],[-98.40966,30.63031],[-98.40854,30.63753],[-98.38077,30.63978],[-98.38189,30.64058],[-98.37892,30.6431],[-98.37894,30.64556],[-98.37643,30.6463],[-98.37406,30.64519],[-98.37015,30.64606],[-98.36905,30.64745],[-98.36771,30.65299],[-98.37117,30.65407],[-98.36778,30.65826],[-98.3689,30.66037],[-98.37148,30.66103],[-98.37367,30.65924],[-98.37747,30.65906],[-98.38017,30.66163],[-98.38633,30.66409],[-98.38643,30.66987],[-98.38174,30.67547],[-98.3834,30.67606],[-98.38461,30.6757],[-98.38485,30.67378],[-98.38643,30.67468],[-98.39168,30.67238],[-98.394,30.67315],[-98.40517,30.66949],[-98.40602,30.671],[-98.40519,30.67283],[-98.40308,30.67405],[-98.40377,30.67549],[-98.4019,30.67787],[-98.39968,30.67861],[-98.39903,30.6768],[-98.39799,30.67802],[-98.39913,30.67719],[-98.39998,30.67896],[-98.40102,30.67902],[-98.40111,30.67792],[-98.4018,30.67827],[-98.40183,30.68222],[-98.40367,30.6867],[-98.40267,30.68826],[-98.4035,30.68868],[-98.40274,30.6881],[-98.40376,30.68727],[-98.40652,30.69362],[-98.41346,30.70249],[-98.4132,30.70449],[-98.40969,30.70764],[-98.40719,30.7128],[-98.40781,30.7144],[-98.4072,30.71619],[-98.40413,30.72084],[-98.4019,30.72158],[-98.39762,30.72071],[-98.39203,30.72104],[-98.3854,30.72947],[-98.39265,30.72123],[-98.40211,30.72184],[-98.40415,30.72108],[-98.40825,30.71567],[-98.4086,30.71309],[-98.42425,30.71302],[-98.42539,30.70961],[-98.42877,30.7078],[-98.4312,30.70542],[-98.43507,30.70392],[-98.43655,30.70232],[-98.44629,30.70144],[-98.45802,30.69463],[-98.4611,30.69668],[-98.46642,30.70608],[-98.46866,30.70843],[-98.49188,30.71618],[-98.50939,30.72746],[-98.51135,30.73005],[-98.51301,30.7352],[-98.55202,30.73485]]]}},{"type":"Feature","properties":{"zip_code":"78654"},"geometry":{"type":"Polygon","coordinates":[[[-98.41375,30.58553],[-98.41371,30.58378],[-98.41335,30.58224],[-98.41243,30.58007],[-98.41216,30.57784],[-98.41115,30.57464],[-98.4106,30.57359],[-98.40817,30.56967],[-98.40536,30.56616],[-98.40338,30.56426],[-98.40227,30.56377],[-98.39991,30.5636],[-98.39754,30.56408],[-98.3902,30.56779],[-98.3863,30.56883],[-98.38239,30.57049],[-98.37595,30.57389],[-98.3732,30.5745],[-98.37031,30.57444],[-98.36733,30.57355],[-98.36606,30.57292],[-98.36429,30.57159],[-98.35198,30.55839],[-98.35198,30.55808],[-98.34253,30.55573],[-98.33926,30.55554],[-98.3377,30.55589],[-98.33616,30.55719],[-98.33276,30.55944],[-98.32775,30.56457],[-98.32586,30.56609],[-98.32388,30.56691],[-98.32273,30.56695],[-98.32109,30.56665],[-98.31686,30.56477],[-98.31502,30.5629],[-98.30933,30.55893],[-98.3004,30.5547],[-98.29482,30.55326],[-98.2915,30.55293],[-98.28905,30.55306],[-98.28602,30.55561],[-98.28479,30.55713],[-98.28407,30.55605],[-98.28872,30.55085],[-98.29094,30.54956],[-98.29091,30.54526],[-98.30042,30.54517],[-98.30063,30.54563],[-98.30267,30.54515],[-98.30238,30.52656],[-98.30504,30.52656],[-98.30506,30.51896],[-98.30547,30.51765],[-98.3078,30.51533],[-98.31107,30.5152],[-98.31222,30.51339],[-98.3118,30.51328],[-98.31188,30.51312],[-98.31233,30.51324],[-98.31286,30.51242],[-98.31202,30.51204],[-98.31307,30.51041],[-98.31561,30.50936],[-98.31559,30.50733],[-98.31828,30.50596],[-98.31846,30.50526],[-98.31824,30.50472],[-98.32191,30.50461],[-98.32149,30.49747],[-98.32127,30.48531],[-98.32299,30.4852],[-98.32307,30.48239],[-98.32118,30.48211],[-98.32088,30.47801],[-98.26768,30.46375],[-98.2503,30.45945],[-98.24946,30.45889],[-98.22616,30.45275],[-98.22606,30.45657],[-98.23069,30.45816],[-98.23065,30.46772],[-98.24385,30.46776],[-98.24391,30.47418],[-98.24615,30.47452],[-98.24698,30.47427],[-98.24681,30.47559],[-98.24711,30.47682],[-98.24774,30.47807],[-98.24924,30.4793],[-98.25003,30.48029],[-98.25104,30.48264],[-98.25063,30.48346],[-98.25321,30.48765],[-98.25267,30.48859],[-98.25135,30.48983],[-98.25008,30.49047],[-98.24719,30.4915],[-98.24398,30.49169],[-98.24098,30.49232],[-98.24014,30.49311],[-98.25038,30.49424],[-98.26144,30.49752],[-98.26375,30.4984],[-98.26344,30.49867],[-98.26226,30.49892],[-98.26118,30.49839],[-98.2597,30.4981],[-98.25812,30.49699],[-98.25738,30.49675],[-98.25584,30.497],[-98.25439,30.4968],[-98.25207,30.4977],[-98.25083,30.49743],[-98.2496,30.49754],[-98.2485,30.49708],[-98.24562,30.49911],[-98.24509,30.49986],[-98.24371,30.49925],[-98.2431,30.49928],[-98.24272,30.49992],[-98.24264,30.5011],[-98.24227,30.50157],[-98.24153,30.50205],[-98.24016,30.50196],[-98.23978,30.50326],[-98.23621,30.50675],[-98.23516,30.50882],[-98.23479,30.51017],[-98.23481,30.51302],[-98.23538,30.51561],[-98.23539,30.51675],[-98.23714,30.51953],[-98.23713,30.52094],[-98.23662,30.52139],[-98.23455,30.5218],[-98.23378,30.52153],[-98.2327,30.52042],[-98.23179,30.5199],[-98.23091,30.51997],[-98.22995,30.52068],[-98.2293,30.52214],[-98.22939,30.52515],[-98.22844,30.52815],[-98.22835,30.52964],[-98.22894,30.53114],[-98.22874,30.53222],[-98.22827,30.53251],[-98.22632,30.5324],[-98.22383,30.53269],[-98.2224,30.53324],[-98.22236,30.53409],[-98.22381,30.537],[-98.22308,30.53891],[-98.22286,30.53893],[-98.22031,30.53641],[-98.2186,30.53518],[-98.2175,30.53472],[-98.21658,30.53482],[-98.21276,30.53335],[-98.21131,30.53364],[-98.21045,30.53492],[-98.20854,30.53483],[-98.20628,30.53538],[-98.20005,30.53494],[-98.19543,30.53493],[-98.19614,30.53438],[-98.19579,30.53279],[-98.19588,30.53249],[-98.19636,30.53265],[-98.19601,30.5323],[-98.19564,30.53239],[-98.19548,30.53286],[-98.19533,30.53374],[-98.19573,30.53416],[-98.19534,30.53462],[-98.19443,30.5342],[-98.19212,30.53743],[-98.19027,30.53863],[-98.18907,30.53901],[-98.18868,30.53885],[-98.18774,30.53669],[-98.18633,30.53526],[-98.18575,30.53553],[-98.18521,30.53492],[-98.18314,30.53381],[-98.18143,30.53327],[-98.18131,30.53301],[-98.17966,30.53277],[-98.17904,30.53241],[-98.17869,30.53247],[-98.17793,30.53332],[-98.17598,30.5359],[-98.17394,30.53662],[-98.17261,30.53646],[-98.17097,30.53555],[-98.17036,30.53452],[-98.17099,30.53342],[-98.17134,30.53222],[-98.17119,30.53027],[-98.17081,30.52945],[-98.17002,30.52933],[-98.16757,30.52629],[-98.16677,30.5257],[-98.16393,30.52455],[-98.16121,30.5241],[-98.15944,30.52322],[-98.16044,30.52247],[-98.15959,30.52267],[-98.15913,30.52193],[-98.15909,30.52284],[-98.15848,30.52268],[-98.15487,30.52303],[-98.15402,30.52274],[-98.15399,30.52246],[-98.15455,30.52189],[-98.15428,30.52168],[-98.15376,30.522],[-98.15423,30.52176],[-98.15434,30.52195],[-98.15377,30.52244],[-98.15413,30.52316],[-98.15397,30.52323],[-98.14939,30.52443],[-98.14636,30.52439],[-98.14497,30.52402],[-98.14481,30.52366],[-98.14429,30.5237],[-98.14376,30.52312],[-98.14311,30.52312],[-98.143,30.5227],[-98.14337,30.52203],[-98.14387,30.5217],[-98.14299,30.52185],[-98.14251,30.52155],[-98.1425,30.52116],[-98.14224,30.52192],[-98.14262,30.52231],[-98.14253,30.52275],[-98.1407,30.52284],[-98.13916,30.52486],[-98.13748,30.52622],[-98.13553,30.52868],[-98.13462,30.52937],[-98.13383,30.53077],[-98.13322,30.5306],[-98.13338,30.53173],[-98.13183,30.53365],[-98.13159,30.53372],[-98.13165,30.53345],[-98.13116,30.53306],[-98.13153,30.53347],[-98.13137,30.5344],[-98.13003,30.53586],[-98.12919,30.53638],[-98.12755,30.53674],[-98.12576,30.53642],[-98.12597,30.53603],[-98.1251,30.53434],[-98.12493,30.53272],[-98.12423,30.53141],[-98.12423,30.53034],[-98.1249,30.5299],[-98.12419,30.52991],[-98.12391,30.52947],[-98.12161,30.52331],[-98.12258,30.52156],[-98.12315,30.52113],[-98.12336,30.52113],[-98.12323,30.5223],[-98.12378,30.52219],[-98.12394,30.52275],[-98.12427,30.52257],[-98.12528,30.52126],[-98.12529,30.51922],[-98.131,30.5168],[-98.13223,30.51589],[-98.13321,30.51473],[-98.13373,30.51335],[-98.13348,30.51029],[-98.1312,30.50225],[-98.13089,30.49758],[-98.1304,30.49609],[-98.12951,30.49486],[-98.12764,30.49037],[-98.12588,30.48799],[-98.12541,30.48851],[-98.12313,30.48704],[-98.12342,30.48648],[-98.12311,30.48472],[-98.12089,30.48502],[-98.11817,30.48479],[-98.11372,30.48558],[-98.11056,30.49091],[-98.10828,30.49358],[-98.10592,30.49534],[-98.10318,30.49669],[-98.10086,30.49746],[-98.09778,30.49806],[-98.09779,30.49744],[-98.09253,30.49803],[-98.08815,30.49757],[-98.08325,30.49642],[-98.08242,30.49613],[-98.08081,30.49506],[-98.07991,30.49389],[-98.07943,30.49261],[-98.07965,30.48957],[-98.08034,30.48824],[-98.08258,30.48535],[-98.09108,30.47597],[-98.09149,30.47498],[-98.09109,30.47239],[-98.08967,30.46925],[-98.08812,30.4672],[-98.08564,30.46544],[-98.08242,30.46408],[-98.07537,30.46301],[-98.0656,30.46285],[-98.06252,30.46245],[-98.05999,30.46103],[-98.05717,30.45879],[-98.05528,30.45652],[-98.05425,30.45325],[-98.05399,30.45182],[-98.05419,30.45091],[-98.05605,30.44888],[-98.061,30.44533],[-98.06219,30.44403],[-98.06328,30.44199],[-98.06199,30.43741],[-98.06087,30.43527],[-98.05936,30.43392],[-98.05778,30.43317],[-98.05589,30.433],[-98.054,30.43332],[-98.05064,30.43511],[-98.04069,30.44292],[-98.03629,30.44768],[-98.03157,30.45504],[-98.02904,30.45965],[-98.02791,30.46314],[-98.02698,30.46735],[-98.02641,30.4684],[-98.02474,30.47399],[-98.02378,30.47626],[-98.02223,30.47808],[-98.02072,30.47941],[-98.0177,30.48061],[-98.01216,30.48058],[-98.00955,30.48001],[-98.01019,30.48032],[-98.00826,30.48309],[-98.00732,30.48266],[-98.00743,30.48324],[-98.00552,30.4849],[-98.00284,30.48838],[-97.99952,30.49384],[-97.99988,30.49678],[-97.99953,30.49789],[-97.99957,30.49895],[-98.00247,30.50425],[-98.00154,30.50396],[-98.00033,30.50422],[-97.99978,30.50476],[-97.99878,30.50669],[-97.99727,30.50726],[-97.99611,30.50721],[-97.9931,30.50571],[-97.9821,30.52236],[-98.01948,30.54008],[-98.01184,30.55178],[-98.0537,30.57214],[-98.05335,30.57302],[-98.05425,30.57436],[-98.05584,30.57557],[-98.05753,30.57579],[-98.05967,30.57749],[-98.06198,30.58087],[-98.06391,30.58242],[-98.06404,30.58282],[-98.06347,30.58379],[-98.06268,30.58637],[-98.06245,30.58813],[-98.06308,30.58972],[-98.06441,30.59039],[-98.06474,30.59102],[-98.06592,30.59153],[-98.0667,30.59284],[-98.05479,30.61502],[-98.05549,30.61473],[-98.05565,30.61401],[-98.05683,30.61212],[-98.06048,30.61263],[-98.06317,30.61398],[-98.06308,30.617],[-98.06356,30.61744],[-98.06485,30.61689],[-98.06668,30.6187],[-98.0675,30.61868],[-98.06922,30.61925],[-98.07282,30.61873],[-98.0732,30.61896],[-98.07338,30.61988],[-98.07404,30.62049],[-98.07687,30.61816],[-98.08333,30.6091],[-98.08504,30.60483],[-98.08582,30.60376],[-98.08705,30.60302],[-98.09093,30.60223],[-98.09437,30.60025],[-98.09589,30.59971],[-98.0963,30.59971],[-98.09846,30.60204],[-98.09986,30.60286],[-98.10062,30.60446],[-98.10172,30.60546],[-98.10237,30.60562],[-98.10497,30.60492],[-98.10778,30.60798],[-98.1184,30.61317],[-98.12802,30.60671],[-98.12977,30.60764],[-98.13097,30.61054],[-98.12907,30.61443],[-98.1581,30.6283],[-98.15898,30.62698],[-98.15952,30.62797],[-98.16083,30.62923],[-98.16298,30.63034],[-98.16329,30.63124],[-98.16355,30.6341],[-98.16312,30.63507],[-98.16234,30.63594],[-98.16023,30.63637],[-98.15999,30.63745],[-98.16028,30.63807],[-98.16194,30.63956],[-98.16331,30.64141],[-98.16323,30.64232],[-98.16215,30.64335],[-98.16328,30.64422],[-98.16416,30.64472],[-98.16679,30.64516],[-98.16775,30.64585],[-98.16943,30.64657],[-98.17089,30.64779],[-98.17429,30.64901],[-98.17831,30.65101],[-98.17892,30.65102],[-98.18117,30.65005],[-98.18247,30.65006],[-98.18387,30.65073],[-98.18622,30.65129],[-98.18776,30.65204],[-98.18873,30.65293],[-98.19489,30.64344],[-98.19899,30.64477],[-98.19816,30.64998],[-98.19596,30.64917],[-98.19801,30.65737],[-98.20153,30.65818],[-98.20776,30.65661],[-98.20941,30.66273],[-98.21691,30.66109],[-98.21503,30.65456],[-98.22161,30.65755],[-98.22279,30.65567],[-98.22682,30.65478],[-98.2259,30.65236],[-98.22646,30.65116],[-98.22866,30.64862],[-98.23176,30.64168],[-98.23336,30.63889],[-98.23374,30.63734],[-98.23362,30.63671],[-98.22961,30.63275],[-98.22963,30.63231],[-98.23446,30.63564],[-98.23653,30.63901],[-98.23754,30.642],[-98.23744,30.64509],[-98.2371,30.6457],[-98.23661,30.64612],[-98.23218,30.64766],[-98.23118,30.6482],[-98.2304,30.64904],[-98.23004,30.65011],[-98.22929,30.65622],[-98.22946,30.66016],[-98.22888,30.66405],[-98.22917,30.66496],[-98.23213,30.66907],[-98.23284,30.66929],[-98.23659,30.66923],[-98.24028,30.67139],[-98.24221,30.67355],[-98.24365,30.67677],[-98.24447,30.6773],[-98.24575,30.67752],[-98.24659,30.67814],[-98.24934,30.68304],[-98.25259,30.68424],[-98.255,30.68404],[-98.2548,30.67945],[-98.25662,30.65406],[-98.2586,30.65337],[-98.26013,30.65318],[-98.26273,30.65335],[-98.26623,30.65414],[-98.27036,30.65333],[-98.2856,30.66357],[-98.28661,30.66393],[-98.28695,30.66441],[-98.28671,30.66599],[-98.28765,30.66706],[-98.29063,30.66696],[-98.2977,30.67171],[-98.29721,30.67243],[-98.29716,30.67303],[-98.29765,30.67339],[-98.29651,30.67486],[-98.29672,30.6752],[-98.29813,30.67586],[-98.29881,30.677],[-98.29999,30.67752],[-98.30047,30.67927],[-98.30507,30.67158],[-98.30665,30.67151],[-98.3079,30.67274],[-98.30966,30.67229],[-98.31155,30.67269],[-98.31294,30.67328],[-98.31375,30.67408],[-98.31534,30.67426],[-98.31785,30.67619],[-98.31892,30.67769],[-98.31643,30.67071],[-98.32469,30.67469],[-98.32459,30.67519],[-98.3426,30.68362],[-98.34606,30.68347],[-98.34922,30.68454],[-98.351,30.68575],[-98.35133,30.68652],[-98.35272,30.68835],[-98.35694,30.69032],[-98.35731,30.68766],[-98.35685,30.68432],[-98.37556,30.68436],[-98.37589,30.67857],[-98.38197,30.679],[-98.3834,30.67606],[-98.38278,30.67555],[-98.38174,30.67547],[-98.38184,30.67518],[-98.38394,30.6729],[-98.38523,30.67096],[-98.38643,30.66987],[-98.38636,30.66647],[-98.38605,30.6651],[-98.38633,30.66409],[-98.38017,30.66163],[-98.37874,30.6605],[-98.37837,30.65968],[-98.37747,30.65906],[-98.37571,30.65956],[-98.37367,30.65924],[-98.37232,30.66005],[-98.37148,30.66103],[-98.37049,30.66103],[-98.36861,30.66009],[-98.36834,30.65939],[-98.36781,30.65883],[-98.36778,30.65826],[-98.36796,30.65785],[-98.36863,30.65748],[-98.36892,30.65664],[-98.37016,30.65544],[-98.3709,30.65517],[-98.37114,30.65485],[-98.37117,30.65407],[-98.37043,30.65345],[-98.36771,30.65299],[-98.36887,30.64969],[-98.36918,30.64814],[-98.36905,30.64745],[-98.37015,30.64606],[-98.37101,30.64565],[-98.37205,30.64553],[-98.37312,30.64581],[-98.37423,30.6452],[-98.37643,30.6463],[-98.37741,30.6456],[-98.37894,30.64556],[-98.37892,30.6431],[-98.37995,30.64239],[-98.38006,30.64218],[-98.37983,30.64186],[-98.37999,30.64168],[-98.38109,30.64174],[-98.38156,30.64123],[-98.38141,30.64083],[-98.38189,30.64058],[-98.38146,30.63988],[-98.38077,30.63978],[-98.40633,30.63736],[-98.40854,30.63753],[-98.40833,30.6362],[-98.40847,30.63518],[-98.40957,30.63307],[-98.40987,30.63199],[-98.40966,30.63031],[-98.40843,30.62849],[-98.40449,30.62592],[-98.40593,30.62486],[-98.40681,30.62385],[-98.40774,30.62371],[-98.41074,30.62421],[-98.41127,30.6239],[-98.41176,30.62282],[-98.4114,30.62249],[-98.41104,30.62072],[-98.41042,30.62006],[-98.41078,30.61957],[-98.41042,30.61922],[-98.41053,30.6184],[-98.41015,30.61696],[-98.4097,30.61674],[-98.40953,30.61819],[-98.40881,30.61808],[-98.40832,30.6186],[-98.40806,30.61836],[-98.40826,30.61815],[-98.40775,30.61803],[-98.40866,30.6177],[-98.40841,30.6176],[-98.40865,30.61725],[-98.40806,30.61627],[-98.40917,30.61597],[-98.40916,30.61547],[-98.40849,30.61477],[-98.4078,30.61476],[-98.40686,30.61527],[-98.40601,30.61446],[-98.40697,30.61447],[-98.40815,30.61387],[-98.40698,30.61315],[-98.40703,30.6126],[-98.40633,30.61163],[-98.40597,30.61159],[-98.40594,30.611],[-98.40541,30.61044],[-98.40528,30.60978],[-98.40243,30.60597],[-98.40164,30.6068],[-98.40119,30.60624],[-98.40131,30.60533],[-98.40092,30.60556],[-98.40051,30.60542],[-98.40141,30.60375],[-98.4,30.5973],[-98.40013,30.59618],[-98.4007,30.59464],[-98.40158,30.59384],[-98.40252,30.5931],[-98.40794,30.5905],[-98.41183,30.58818],[-98.4132,30.58691],[-98.41375,30.58553]]]}},{"type":"Feature","properties":{"zip_code":"78657"},"geometry":{"type":"Polygon","coordinates":[[[-98.47282,30.55807],[-98.45759,30.54494],[-98.44895,30.54086],[-98.44301,30.53664],[-98.44502,30.53286],[-98.44766,30.52376],[-98.44027,30.5106],[-98.44098,30.50186],[-98.41146,30.5021],[-98.34364,30.48411],[-98.34257,30.49579],[-98.33337,30.49643],[-98.32849,30.49667],[-98.32811,30.4853],[-98.32127,30.48531],[-98.32191,30.50461],[-98.31824,30.50472],[-98.31828,30.50596],[-98.31559,30.50733],[-98.31561,30.50936],[-98.31307,30.51041],[-98.31202,30.51204],[-98.31286,30.51242],[-98.31107,30.5152],[-98.3078,30.51533],[-98.30547,30.51765],[-98.30504,30.52656],[-98.30238,30.52656],[-98.30267,30.54515],[-98.29091,30.54526],[-98.29094,30.54956],[-98.28872,30.55085],[-98.28404,30.5561],[-98.28479,30.55713],[-98.28905,30.55306],[-98.29482,30.55326],[-98.3004,30.5547],[-98.30933,30.55893],[-98.31686,30.56477],[-98.32225,30.56695],[-98.32586,30.56609],[-98.33276,30.55944],[-98.3377,30.55589],[-98.34253,30.55573],[-98.35198,30.55808],[-98.36429,30.57159],[-98.37031,30.57444],[-98.37595,30.57389],[-98.39754,30.56408],[-98.40227,30.56377],[-98.40536,30.56616],[-98.4106,30.57359],[-98.41309,30.58156],[-98.42063,30.57387],[-98.41905,30.56767],[-98.42186,30.56154],[-98.42278,30.56156],[-98.42343,30.55883],[-98.42492,30.55841],[-98.42683,30.5592],[-98.43071,30.56304],[-98.43166,30.56515],[-98.43342,30.56622],[-98.43767,30.56649],[-98.44455,30.56366],[-98.44556,30.56537],[-98.44472,30.56905],[-98.4458,30.57025],[-98.45098,30.57077],[-98.45337,30.57194],[-98.45886,30.57018],[-98.46271,30.57351],[-98.4653,30.57433],[-98.46771,30.5736],[-98.46991,30.57153],[-98.47025,30.56984],[-98.46769,30.56254],[-98.46888,30.56028],[-98.47282,30.55807]]]}}]}