{"type":"FeatureCollection","features":[{"type":"Feature","properties":{"zip_code":"78616"},"geometry":{"type":"Polygon","coordinates":[[[-97.67446,30.03052],[-97.6743,30.03036],[-97.67437,30.02888],[-97.6702,30.02452],[-97.65906,30.01504],[-97.66577,30.00903],[-97.66343,30.00677],[-97.66199,30.00765],[-97.65932,30.00514],[-97.65878,30.00572],[-97.65147,29.99948],[-97.6452,30.00506],[-97.64475,30.00497],[-97.63797,29.99929],[-97.64568,29.99209],[-97.64585,29.99159],[-97.64695,29.99082],[-97.64443,29.98833],[-97.64503,29.98731],[-97.64442,29.98656],[-97.64508,29.98579],[-97.64453,29.98478],[-97.64307,29.9852],[-97.64385,29.98167],[-97.64307,29.98082],[-97.6432,29.97965],[-97.63898,29.98339],[-97.63856,29.98303],[-97.63375,29.98718],[-97.63158,29.98533],[-97.62976,29.98624],[-97.62662,29.98959],[-97.62603,29.9918],[-97.62544,29.99284],[-97.6215,29.9904],[-97.62339,29.98758],[-97.61472,29.97985],[-97.60921,29.97586],[-97.61235,29.97295],[-97.61363,29.97138],[-97.60759,29.96639],[-97.61872,29.95604],[-97.60965,29.94898],[-97.60586,29.95218],[-97.6026,29.94931],[-97.6116,29.94124],[-97.59251,29.9251],[-97.59559,29.92437],[-97.59809,29.92303],[-97.6111,29.91183],[-97.61912,29.90671],[-97.62383,29.9024],[-97.62282,29.90293],[-97.61284,29.90444],[-97.61175,29.89863],[-97.59845,29.90059],[-97.59698,29.89629],[-97.59611,29.89616],[-97.59516,29.89558],[-97.59439,29.89143],[-97.59197,29.89176],[-97.5631,29.90519],[-97.55991,29.90205],[-97.55707,29.90325],[-97.5554,29.90358],[-97.55345,29.90211],[-97.55414,29.90091],[-97.55111,29.89857],[-97.54737,29.89429],[-97.54757,29.89202],[-97.54811,29.89093],[-97.54968,29.88981],[-97.55112,29.89031],[-97.55156,29.88975],[-97.53903,29.87906],[-97.5389,29.87948],[-97.53832,29.87926],[-97.5368,29.88011],[-97.53667,29.88053],[-97.5356,29.88106],[-97.53517,29.88172],[-97.53351,29.88272],[-97.52714,29.87863],[-97.52877,29.87655],[-97.52855,29.87632],[-97.529,29.87568],[-97.53258,29.87804],[-97.53389,29.87605],[-97.53394,29.87487],[-97.52642,29.86807],[-97.53131,29.86395],[-97.52519,29.85846],[-97.525,29.85392],[-97.52618,29.85259],[-97.52872,29.85215],[-97.5321,29.85105],[-97.53344,29.85086],[-97.53433,29.84276],[-97.57803,29.79177],[-97.57623,29.79083],[-97.57607,29.78986],[-97.57536,29.78945],[-97.57537,29.78912],[-97.57594,29.7888],[-97.57605,29.78703],[-97.57538,29.78679],[-97.57527,29.78569],[-97.57257,29.78289],[-97.57265,29.78244],[-97.57361,29.78128],[-97.57308,29.78008],[-97.57252,29.77958],[-97.57624,29.77579],[-97.57127,29.77585],[-97.57121,29.77312],[-97.57091,29.77213],[-97.57125,29.77142],[-97.57107,29.77059],[-97.57065,29.77002],[-97.57076,29.7685],[-97.55707,29.76856],[-97.557,29.76446],[-97.55395,29.76443],[-97.5504,29.76174],[-97.5395,29.76194],[-97.53959,29.77079],[-97.52678,29.77092],[-97.52681,29.77001],[-97.51654,29.76999],[-97.51641,29.76279],[-97.51771,29.76266],[-97.51792,29.76243],[-97.5179,29.76056],[-97.49629,29.76095],[-97.49613,29.7555],[-97.48513,29.75546],[-97.4799,29.7553],[-97.4798,29.75511],[-97.47966,29.76736],[-97.47674,29.77211],[-97.4817,29.77448],[-97.48144,29.77468],[-97.48223,29.77471],[-97.48308,29.77514],[-97.48291,29.78866],[-97.48248,29.79841],[-97.4658,29.7982],[-97.46562,29.79753],[-97.46103,29.79504],[-97.45486,29.79493],[-97.45442,29.79476],[-97.45423,29.79437],[-97.45421,29.79548],[-97.45491,29.79859],[-97.45584,29.79988],[-97.45714,29.80105],[-97.45662,29.80162],[-97.45667,29.80308],[-97.45615,29.80406],[-97.45684,29.80721],[-97.45784,29.80764],[-97.45953,29.80728],[-97.46131,29.8084],[-97.46576,29.80852],[-97.46767,29.81164],[-97.47036,29.81173],[-97.47033,29.82051],[-97.47605,29.8256],[-97.47774,29.82675],[-97.46441,29.84794],[-97.46082,29.8533],[-97.46022,29.85399],[-97.45972,29.85417],[-97.44829,29.87208],[-97.47538,29.88506],[-97.47996,29.87762],[-97.48496,29.87993],[-97.4853,29.87988],[-97.48735,29.87358],[-97.48852,29.87201],[-97.49175,29.8737],[-97.49124,29.87465],[-97.50316,29.88046],[-97.50018,29.88547],[-97.49897,29.88503],[-97.4969,29.8883],[-97.49911,29.89121],[-97.49794,29.89297],[-97.49983,29.894],[-97.49857,29.89598],[-97.4978,29.89802],[-97.49078,29.90902],[-97.48781,29.9125],[-97.48005,29.92479],[-97.49031,29.93344],[-97.51065,29.91922],[-97.51119,29.9184],[-97.51365,29.9171],[-97.51723,29.91456],[-97.5175,29.91499],[-97.51336,29.9205],[-97.51551,29.92172],[-97.50485,29.9376],[-97.50441,29.93878],[-97.50444,29.94095],[-97.50732,29.93976],[-97.50762,29.93995],[-97.51079,29.93779],[-97.51731,29.93462],[-97.52395,29.92968],[-97.51819,29.93846],[-97.5282,29.9418],[-97.5294,29.94568],[-97.52939,29.9492],[-97.52967,29.95065],[-97.53076,29.95303],[-97.53296,29.95607],[-97.52869,29.96288],[-97.5284,29.96289],[-97.52576,29.96062],[-97.52508,29.96061],[-97.50719,29.97648],[-97.51682,29.9805],[-97.53254,29.983],[-97.52705,29.99083],[-97.51537,30.00127],[-97.51679,30.00238],[-97.51851,30.00088],[-97.52216,30.00388],[-97.52453,30.00182],[-97.53315,30.00941],[-97.5385,30.00457],[-97.53592,30.00209],[-97.54152,29.9973],[-97.54835,30.00285],[-97.55092,30.00055],[-97.55307,30.00237],[-97.55582,30],[-97.56609,30.00895],[-97.5625,30.01203],[-97.55784,30.00804],[-97.55617,30.00969],[-97.55664,30.0098],[-97.56647,30.018],[-97.56628,30.0194],[-97.56256,30.02355],[-97.56304,30.02432],[-97.55681,30.03035],[-97.55577,30.02979],[-97.55541,30.03005],[-97.55439,30.03127],[-97.55498,30.03171],[-97.55224,30.03553],[-97.54853,30.03787],[-97.54788,30.03693],[-97.54662,30.03656],[-97.5441,30.03625],[-97.54351,30.03632],[-97.54232,30.03698],[-97.54147,30.03603],[-97.54114,30.03594],[-97.54045,30.0416],[-97.54079,30.04345],[-97.54172,30.04543],[-97.54318,30.04695],[-97.54591,30.04445],[-97.54861,30.0467],[-97.54575,30.04913],[-97.58383,30.08129],[-97.59028,30.0758],[-97.59842,30.08279],[-97.60418,30.07784],[-97.60668,30.07634],[-97.61199,30.07115],[-97.6163,30.07485],[-97.62333,30.06869],[-97.62482,30.06976],[-97.63379,30.06161],[-97.64426,30.07013],[-97.6481,30.06689],[-97.65369,30.07156],[-97.66266,30.06357],[-97.66442,30.065],[-97.66777,30.06501],[-97.66768,30.06399],[-97.6649,30.06156],[-97.66624,30.06027],[-97.66536,30.0596],[-97.66861,30.05669],[-97.65992,30.04963],[-97.67204,30.03889],[-97.66572,30.03327],[-97.66948,30.03163],[-97.67446,30.03052]]]}},{"type":"Feature","properties":{"zip_code":"78622"},"geometry":{"type":"Polygon","coordinates":[[[-97.80562,29.76777],[-97.8049,29.76724],[-97.80294,29.76669],[-97.80195,29.76658],[-97.80121,29.76703],[-97.80028,29.76621],[-97.80007,29.76552],[-97.80026,29.76466],[-97.79974,29.76322],[-97.80049,29.75996],[-97.80115,29.75899],[-97.80298,29.75865],[-97.80382,29.75743],[-97.80378,29.75706],[-97.80303,29.75672],[-97.80303,29.75635],[-97.80396,29.75527],[-97.8036,29.75373],[-97.80317,29.75363],[-97.80203,29.75417],[-97.80136,29.75419],[-97.80104,29.75388],[-97.80124,29.75346],[-97.80112,29.75318],[-97.7994,29.75226],[-97.79593,29.75233],[-97.79422,29.75277],[-97.79292,29.75419],[-97.79293,29.7564],[-97.79327,29.75786],[-97.79307,29.75881],[-97.79268,29.75939],[-97.79092,29.75959],[-97.78896,29.76042],[-97.78667,29.76099],[-97.78162,29.75972],[-97.78077,29.75912],[-97.78046,29.75848],[-97.78068,29.75809],[-97.78153,29.75827],[-97.78172,29.75783],[-97.78038,29.75679],[-97.78014,29.75627],[-97.78016,29.75606],[-97.78079,29.75572],[-97.78023,29.75476],[-97.78044,29.75385],[-97.78124,29.75271],[-97.78106,29.7516],[-97.78085,29.75094],[-97.78003,29.7502],[-97.77997,29.74938],[-97.77944,29.74842],[-97.7798,29.74777],[-97.78027,29.7477],[-97.78113,29.74862],[-97.78149,29.74865],[-97.78211,29.74834],[-97.78219,29.74786],[-97.78066,29.7473],[-97.77802,29.74721],[-97.77711,29.74669],[-97.77512,29.7444],[-97.774,29.74394],[-97.77385,29.74321],[-97.77437,29.74194],[-97.77406,29.74158],[-97.77355,29.74164],[-97.773,29.74234],[-97.77073,29.74243],[-97.77046,29.74267],[-97.77147,29.74303],[-97.77178,29.74348],[-97.77171,29.74396],[-97.76502,29.7473],[-97.77769,29.76154],[-97.77849,29.76288],[-97.78183,29.7705],[-97.7609,29.78612],[-97.77694,29.80228],[-97.79068,29.77908],[-97.79256,29.77706],[-97.79372,29.77617],[-97.80562,29.76777]]]}},{"type":"Feature","properties":{"zip_code":"78644"},"geometry":{"type":"Polygon","coordinates":[[[-97.8151,29.78073],[-97.81293,29.77832],[-97.81249,29.77813],[-97.81213,29.77816],[-97.8109,29.77925],[-97.81099,29.77951],[-97.81155,29.7795],[-97.81184,29.77975],[-97.8119,29.77994],[-97.81137,29.78029],[-97.81057,29.78022],[-97.80975,29.77978],[-97.80845,29.77977],[-97.80695,29.77829],[-97.80648,29.77809],[-97.80623,29.77738],[-97.80565,29.77706],[-97.80646,29.77534],[-97.80611,29.77429],[-97.80523,29.77376],[-97.80554,29.77316],[-97.8064,29.77325],[-97.80797,29.77464],[-97.80988,29.77431],[-97.81117,29.7745],[-97.81126,29.77424],[-97.81045,29.7729],[-97.80902,29.77212],[-97.80845,29.77122],[-97.80841,29.7707],[-97.80706,29.76899],[-97.80573,29.76818],[-97.80562,29.76777],[-97.79372,29.77617],[-97.79256,29.77706],[-97.79068,29.77908],[-97.77694,29.80228],[-97.7609,29.78612],[-97.78183,29.7705],[-97.77813,29.76219],[-97.77431,29.75772],[-97.74807,29.77767],[-97.74664,29.77847],[-97.74416,29.77593],[-97.73109,29.78568],[-97.72123,29.77578],[-97.72137,29.77544],[-97.72514,29.77261],[-97.72352,29.77081],[-97.72558,29.76908],[-97.71978,29.76302],[-97.71571,29.76608],[-97.71572,29.76637],[-97.71672,29.76738],[-97.71671,29.76762],[-97.7089,29.77378],[-97.70233,29.76745],[-97.70004,29.76911],[-97.6992,29.76844],[-97.69747,29.76972],[-97.69823,29.77055],[-97.69205,29.78181],[-97.68952,29.77907],[-97.68904,29.77771],[-97.68825,29.7768],[-97.68691,29.77661],[-97.68504,29.77489],[-97.68238,29.77525],[-97.68055,29.77614],[-97.67746,29.77689],[-97.67208,29.77565],[-97.67118,29.77596],[-97.6709,29.77528],[-97.6696,29.77443],[-97.66905,29.77283],[-97.66827,29.77227],[-97.66772,29.77293],[-97.66717,29.77277],[-97.66685,29.77204],[-97.66679,29.77042],[-97.66529,29.76768],[-97.66267,29.7668],[-97.66202,29.76595],[-97.66186,29.76604],[-97.66098,29.76451],[-97.65636,29.76789],[-97.65593,29.76521],[-97.65407,29.76172],[-97.65357,29.7616],[-97.65235,29.76179],[-97.65194,29.76208],[-97.65176,29.7625],[-97.65089,29.76302],[-97.65003,29.76457],[-97.64901,29.76499],[-97.64926,29.76582],[-97.64927,29.7687],[-97.64671,29.77052],[-97.64419,29.76867],[-97.64309,29.7672],[-97.63821,29.77106],[-97.63135,29.76458],[-97.61659,29.7825],[-97.61457,29.78065],[-97.61327,29.77869],[-97.61184,29.77852],[-97.61163,29.77808],[-97.61208,29.77777],[-97.61196,29.77709],[-97.61118,29.7763],[-97.61205,29.77538],[-97.61123,29.77461],[-97.61082,29.77376],[-97.61098,29.7718],[-97.60999,29.77122],[-97.60877,29.771],[-97.60857,29.77077],[-97.60876,29.77039],[-97.60856,29.76982],[-97.60794,29.76902],[-97.60718,29.7688],[-97.60677,29.76831],[-97.60601,29.76847],[-97.60589,29.76743],[-97.60504,29.76598],[-97.59503,29.77292],[-97.59266,29.77495],[-97.58592,29.78252],[-97.57628,29.79398],[-97.53767,29.83871],[-97.53433,29.84276],[-97.53344,29.85086],[-97.5321,29.85105],[-97.52872,29.85215],[-97.52618,29.85259],[-97.525,29.85392],[-97.52519,29.85846],[-97.53131,29.86395],[-97.52642,29.86807],[-97.53394,29.87487],[-97.53389,29.87605],[-97.53258,29.87804],[-97.529,29.87568],[-97.52855,29.87632],[-97.52877,29.87655],[-97.52714,29.87863],[-97.53351,29.88272],[-97.53517,29.88172],[-97.5356,29.88106],[-97.53667,29.88053],[-97.5368,29.88011],[-97.53832,29.87926],[-97.5389,29.87948],[-97.53903,29.87906],[-97.55156,29.88975],[-97.55112,29.89031],[-97.54968,29.88981],[-97.54811,29.89093],[-97.54757,29.89202],[-97.54737,29.89429],[-97.55111,29.89857],[-97.55414,29.90091],[-97.55345,29.90211],[-97.5554,29.90358],[-97.55707,29.90325],[-97.55991,29.90205],[-97.5631,29.90519],[-97.59197,29.89176],[-97.59439,29.89143],[-97.59516,29.89558],[-97.59611,29.89616],[-97.59698,29.89629],[-97.59845,29.90059],[-97.61175,29.89863],[-97.61284,29.90444],[-97.62282,29.90293],[-97.62383,29.9024],[-97.61912,29.90671],[-97.6111,29.91183],[-97.59809,29.92303],[-97.59559,29.92437],[-97.59251,29.9251],[-97.6116,29.94124],[-97.6026,29.94931],[-97.60586,29.95218],[-97.60965,29.94898],[-97.61872,29.95604],[-97.60759,29.96639],[-97.61363,29.97138],[-97.61235,29.97295],[-97.60921,29.97586],[-97.61472,29.97985],[-97.62339,29.98758],[-97.6215,29.9904],[-97.62544,29.99284],[-97.62603,29.9918],[-97.62662,29.98959],[-97.62976,29.98624],[-97.63158,29.98533],[-97.63375,29.98718],[-97.63856,29.98303],[-97.63898,29.98339],[-97.6432,29.97965],[-97.64307,29.98082],[-97.64385,29.98167],[-97.64307,29.9852],[-97.64453,29.98478],[-97.64508,29.98579],[-97.64442,29.98656],[-97.64503,29.98731],[-97.64443,29.98833],[-97.64695,29.99082],[-97.64585,29.99159],[-97.64568,29.99209],[-97.63797,29.99929],[-97.64475,30.00497],[-97.6452,30.00506],[-97.65147,29.99948],[-97.65878,30.00572],[-97.65932,30.00514],[-97.66199,30.00765],[-97.66343,30.00677],[-97.66577,30.00903],[-97.65906,30.01504],[-97.6702,30.02452],[-97.67437,30.02888],[-97.6743,30.03036],[-97.67446,30.03052],[-97.69425,30.02655],[-97.6946,30.02722],[-97.70051,30.02595],[-97.70007,30.02509],[-97.69931,30.02436],[-97.68783,30.01475],[-97.68644,30.00187],[-97.68512,29.9952],[-97.7001,29.98276],[-97.71068,29.97434],[-97.71189,29.98035],[-97.72864,29.97764],[-97.72897,29.97751],[-97.72878,29.97504],[-97.74223,29.973],[-97.74004,29.96234],[-97.74823,29.96103],[-97.74814,29.95997],[-97.74771,29.95925],[-97.74564,29.95924],[-97.74505,29.95864],[-97.74562,29.95738],[-97.74633,29.95726],[-97.7466,29.95744],[-97.74739,29.95684],[-97.74779,29.95703],[-97.7472,29.9543],[-97.74677,29.95436],[-97.74534,29.94693],[-97.75225,29.94137],[-97.7622,29.93229],[-97.78716,29.91382],[-97.78326,29.90926],[-97.78195,29.90712],[-97.78081,29.90434],[-97.77968,29.90347],[-97.77782,29.9029],[-97.77701,29.90206],[-97.77673,29.90125],[-97.77636,29.90107],[-97.77577,29.90123],[-97.77415,29.90216],[-97.77363,29.90192],[-97.77258,29.90199],[-97.77217,29.90248],[-97.77044,29.90293],[-97.76977,29.90268],[-97.76884,29.9014],[-97.76836,29.90141],[-97.76728,29.90216],[-97.76659,29.90202],[-97.76605,29.90141],[-97.76531,29.90132],[-97.76446,29.90048],[-97.76399,29.89882],[-97.76359,29.89837],[-97.76151,29.89778],[-97.7609,29.89796],[-97.75979,29.89762],[-97.75899,29.8961],[-97.75732,29.89475],[-97.75707,29.89422],[-97.75565,29.89312],[-97.75523,29.89246],[-97.75029,29.88956],[-97.74859,29.88913],[-97.74679,29.88597],[-97.74563,29.8858],[-97.74426,29.88424],[-97.74315,29.88417],[-97.74463,29.8835],[-97.74873,29.88269],[-97.74038,29.87057],[-97.76187,29.87172],[-97.76248,29.87214],[-97.76278,29.87185],[-97.76337,29.87205],[-97.78969,29.87287],[-97.80699,29.85987],[-97.81325,29.86616],[-97.81367,29.86587],[-97.81158,29.86297],[-97.80975,29.86167],[-97.80913,29.86152],[-97.80706,29.85945],[-97.80349,29.85834],[-97.80203,29.85866],[-97.80111,29.85933],[-97.79966,29.85921],[-97.79879,29.85791],[-97.79853,29.85727],[-97.79853,29.85635],[-97.79734,29.85472],[-97.79719,29.85401],[-97.79629,29.85339],[-97.79521,29.85211],[-97.79372,29.84957],[-97.79211,29.84469],[-97.7922,29.84432],[-97.78682,29.83878],[-97.78667,29.83838],[-97.78668,29.83818],[-97.78754,29.83832],[-97.78802,29.83746],[-97.78969,29.83684],[-97.79147,29.83518],[-97.79254,29.83501],[-97.79372,29.83445],[-97.79587,29.83408],[-97.79637,29.83384],[-97.79657,29.83343],[-97.79568,29.83065],[-97.79594,29.82996],[-97.7958,29.82915],[-97.79546,29.82874],[-97.79468,29.82871],[-97.79418,29.82827],[-97.79382,29.82712],[-97.79423,29.82654],[-97.79625,29.82549],[-97.79644,29.82445],[-97.79629,29.82283],[-97.79598,29.82221],[-97.79796,29.82027],[-97.79827,29.81881],[-97.79746,29.81735],[-97.79753,29.8159],[-97.79677,29.8148],[-97.79673,29.81412],[-97.79763,29.813],[-97.79863,29.81229],[-97.79877,29.81126],[-97.7986,29.81021],[-97.79984,29.80756],[-97.79939,29.80695],[-97.79945,29.80636],[-97.7956,29.79929],[-97.81452,29.7851],[-97.81373,29.78425],[-97.81283,29.78392],[-97.812,29.784],[-97.81184,29.78369],[-97.81387,29.78215],[-97.81449,29.78094],[-97.81476,29.78103],[-97.8151,29.78073]]]}},{"type":"Feature","properties":{"zip_code":"78648"},"geometry":{"type":"MultiPolygon","coordinates":[[[[-97.77431,29.75772],[-97.76074,29.74245],[-97.75164,29.72959],[-97.75013,29.72838],[-97.74487,29.72596],[-97.72589,29.74026],[-97.72539,29.74026],[-97.72454,29.73945],[-97.72331,29.73966],[-97.71732,29.74421],[-97.7168,29.74379],[-97.7166,29.74392],[-97.71565,29.74594],[-97.71089,29.75235],[-97.70563,29.74688],[-97.70607,29.74593],[-97.71021,29.74291],[-97.71129,29.74181],[-97.7118,29.74043],[-97.71169,29.73764],[-97.71191,29.73694],[-97.7157,29.73356],[-97.71649,29.7319],[-97.71699,29.72977],[-97.7175,29.72909],[-97.72229,29.7257],[-97.72575,29.7292],[-97.7252,29.72448],[-97.72593,29.72387],[-97.72659,29.72207],[-97.72735,29.72257],[-97.72811,29.7226],[-97.72984,29.72383],[-97.73076,29.72358],[-97.73142,29.7237],[-97.73231,29.72347],[-97.73297,29.72278],[-97.73382,29.72092],[-97.74054,29.72399],[-97.73779,29.72095],[-97.73574,29.71908],[-97.73416,29.71863],[-97.73008,29.71801],[-97.72852,29.71744],[-97.7348,29.71276],[-97.73606,29.71239],[-97.73685,29.71312],[-97.73742,29.71327],[-97.73831,29.71274],[-97.73795,29.7119],[-97.73719,29.71148],[-97.73658,29.71073],[-97.73659,29.7092],[-97.73594,29.70563],[-97.7368,29.70222],[-97.73982,29.70037],[-97.74199,29.69975],[-97.74335,29.69884],[-97.74365,29.69764],[-97.74329,29.69697],[-97.7427,29.69667],[-97.74034,29.69678],[-97.73947,29.6965],[-97.7387,29.69659],[-97.73766,29.69599],[-97.73623,29.6948],[-97.73541,29.69362],[-97.73543,29.69266],[-97.73601,29.69134],[-97.73459,29.69108],[-97.73198,29.69013],[-97.72758,29.68789],[-97.72715,29.68755],[-97.7267,29.68638],[-97.72563,29.68567],[-97.72335,29.68577],[-97.7221,29.68552],[-97.72138,29.68445],[-97.72285,29.68256],[-97.72274,29.68215],[-97.72185,29.68209],[-97.72075,29.68248],[-97.71967,29.68289],[-97.71939,29.68333],[-97.71812,29.68397],[-97.7172,29.68415],[-97.71676,29.68374],[-97.71695,29.68307],[-97.71779,29.68248],[-97.71769,29.68213],[-97.71721,29.6818],[-97.71463,29.68209],[-97.7117,29.6815],[-97.71072,29.68247],[-97.709,29.68326],[-97.70869,29.68373],[-97.7076,29.68345],[-97.70638,29.68271],[-97.70456,29.68261],[-97.70426,29.68242],[-97.7038,29.68184],[-97.70385,29.68127],[-97.70564,29.68022],[-97.70576,29.67986],[-97.70549,29.67943],[-97.70478,29.67911],[-97.70537,29.67829],[-97.70533,29.67749],[-97.70586,29.67715],[-97.70656,29.67735],[-97.70518,29.67558],[-97.70607,29.67455],[-97.70552,29.674],[-97.70385,29.67425],[-97.7033,29.67307],[-97.70342,29.67048],[-97.7022,29.6701],[-97.70252,29.66918],[-97.70223,29.66859],[-97.70098,29.66867],[-97.70054,29.66841],[-97.70616,29.664],[-97.70931,29.66219],[-97.71263,29.66093],[-97.71716,29.65974],[-97.72021,29.65921],[-97.72041,29.65881],[-97.74035,29.64406],[-97.74081,29.64149],[-97.73975,29.6402],[-97.73469,29.63538],[-97.72166,29.63889],[-97.71907,29.64069],[-97.70956,29.63114],[-97.70993,29.62813],[-97.71155,29.62583],[-97.71267,29.62477],[-97.72668,29.6142],[-97.72865,29.6105],[-97.72765,29.61084],[-97.7265,29.61089],[-97.72091,29.6099],[-97.71965,29.60947],[-97.71849,29.60862],[-97.71232,29.60205],[-97.71112,29.60137],[-97.70971,29.60125],[-97.70284,29.60211],[-97.70116,29.60042],[-97.70192,29.59984],[-97.6913,29.58891],[-97.69039,29.58916],[-97.68982,29.58899],[-97.68392,29.58274],[-97.66184,29.61186],[-97.66125,29.6123],[-97.66051,29.6126],[-97.65619,29.6125],[-97.6551,29.61217],[-97.65406,29.61147],[-97.65291,29.61145],[-97.64951,29.61296],[-97.64619,29.60963],[-97.64583,29.60951],[-97.64124,29.61303],[-97.63829,29.61775],[-97.63467,29.61811],[-97.63034,29.62153],[-97.62786,29.62237],[-97.62614,29.62361],[-97.62515,29.62163],[-97.62269,29.61929],[-97.62135,29.61857],[-97.61951,29.61559],[-97.61523,29.61385],[-97.61067,29.61107],[-97.60817,29.60872],[-97.60589,29.60615],[-97.60214,29.60384],[-97.60161,29.60178],[-97.60146,29.59767],[-97.59449,29.59641],[-97.59383,29.59488],[-97.5929,29.59396],[-97.59062,29.59276],[-97.58881,29.59122],[-97.58788,29.59255],[-97.58952,29.59302],[-97.59017,29.59362],[-97.59084,29.59526],[-97.59122,29.59547],[-97.59216,29.59537],[-97.59292,29.59465],[-97.59328,29.59476],[-97.5938,29.5966],[-97.59379,29.59754],[-97.59299,29.59834],[-97.59048,29.59985],[-97.58751,29.6001],[-97.58695,29.60041],[-97.58602,29.6019],[-97.58608,29.60232],[-97.5867,29.60307],[-97.58611,29.60583],[-97.58658,29.60712],[-97.58763,29.60826],[-97.58968,29.60927],[-97.59069,29.61003],[-97.59343,29.61069],[-97.59368,29.61098],[-97.593,29.61162],[-97.59134,29.61169],[-97.58999,29.61265],[-97.5866,29.61375],[-97.58655,29.6152],[-97.5868,29.61635],[-97.58891,29.61755],[-97.58962,29.61865],[-97.58891,29.61838],[-97.58839,29.6187],[-97.58852,29.6214],[-97.58785,29.62259],[-97.58764,29.62391],[-97.58827,29.62414],[-97.58877,29.62296],[-97.58931,29.62306],[-97.59018,29.6242],[-97.59141,29.625],[-97.5912,29.62588],[-97.59142,29.62638],[-97.59485,29.62921],[-97.59635,29.62991],[-97.59757,29.63082],[-97.5657,29.64854],[-97.56662,29.64731],[-97.56651,29.64658],[-97.56685,29.64589],[-97.56719,29.6432],[-97.56697,29.64284],[-97.56712,29.64217],[-97.56681,29.64142],[-97.56684,29.64043],[-97.56605,29.6396],[-97.56627,29.63627],[-97.56806,29.63445],[-97.5685,29.63429],[-97.56847,29.63372],[-97.56803,29.63283],[-97.56936,29.63186],[-97.56973,29.63119],[-97.56991,29.62953],[-97.56972,29.62791],[-97.57063,29.62428],[-97.57068,29.62072],[-97.57131,29.62021],[-97.5705,29.61801],[-97.56943,29.61643],[-97.56695,29.61411],[-97.56115,29.6097],[-97.5575,29.61499],[-97.55663,29.61665],[-97.5448,29.63505],[-97.54231,29.63411],[-97.53332,29.64111],[-97.5523,29.65031],[-97.55407,29.65251],[-97.55772,29.65293],[-97.53045,29.66792],[-97.55729,29.67484],[-97.5452,29.68383],[-97.54944,29.68825],[-97.53459,29.69954],[-97.53446,29.70426],[-97.5292,29.70391],[-97.52134,29.70157],[-97.5175,29.70132],[-97.51808,29.70355],[-97.51941,29.70646],[-97.52045,29.70791],[-97.52438,29.71223],[-97.52531,29.71426],[-97.52596,29.71709],[-97.52675,29.71925],[-97.52666,29.73556],[-97.5269,29.74086],[-97.52679,29.74271],[-97.52547,29.74281],[-97.52501,29.74316],[-97.52489,29.7452],[-97.51853,29.74512],[-97.51799,29.74532],[-97.51799,29.75843],[-97.51765,29.7589],[-97.51792,29.76243],[-97.51771,29.76266],[-97.51641,29.76279],[-97.51654,29.76999],[-97.52681,29.77001],[-97.52678,29.77092],[-97.53959,29.77079],[-97.5395,29.76194],[-97.55051,29.76177],[-97.55395,29.76443],[-97.557,29.76446],[-97.55707,29.76856],[-97.57076,29.7685],[-97.57065,29.77002],[-97.57107,29.77059],[-97.57125,29.77142],[-97.57091,29.77213],[-97.57121,29.77312],[-97.57127,29.77585],[-97.57624,29.77579],[-97.57252,29.77958],[-97.57308,29.78008],[-97.57361,29.78128],[-97.57265,29.78244],[-97.57257,29.78289],[-97.57527,29.78569],[-97.57538,29.78679],[-97.57605,29.78703],[-97.57594,29.7888],[-97.57537,29.78912],[-97.57536,29.78945],[-97.57607,29.78986],[-97.57623,29.79083],[-97.57803,29.79177],[-97.59303,29.77457],[-97.59503,29.77292],[-97.60504,29.76598],[-97.60589,29.76743],[-97.60601,29.76847],[-97.60677,29.76831],[-97.60718,29.7688],[-97.60794,29.76902],[-97.60856,29.76982],[-97.60876,29.77039],[-97.60857,29.77077],[-97.60877,29.771],[-97.60999,29.77122],[-97.61098,29.7718],[-97.61082,29.77376],[-97.61123,29.77461],[-97.61205,29.77538],[-97.61118,29.7763],[-97.61196,29.77709],[-97.61208,29.77777],[-97.61163,29.77808],[-97.61184,29.77852],[-97.61327,29.77869],[-97.61457,29.78065],[-97.61659,29.7825],[-97.63135,29.76458],[-97.63821,29.77106],[-97.64309,29.7672],[-97.64419,29.76867],[-97.64671,29.77052],[-97.64927,29.7687],[-97.64926,29.76582],[-97.64901,29.76499],[-97.65003,29.76457],[-97.65089,29.76302],[-97.65176,29.7625],[-97.65194,29.76208],[-97.65235,29.76179],[-97.65357,29.7616],[-97.65407,29.76172],[-97.65593,29.76521],[-97.65636,29.76789],[-97.66098,29.76451],[-97.66186,29.76604],[-97.66202,29.76595],[-97.66267,29.7668],[-97.66529,29.76768],[-97.66679,29.77042],[-97.66685,29.77204],[-97.66717,29.77277],[-97.66772,29.77293],[-97.66827,29.77227],[-97.66905,29.77283],[-97.6696,29.77443],[-97.6709,29.77528],[-97.67118,29.77596],[-97.67208,29.77565],[-97.67746,29.77689],[-97.68055,29.77614],[-97.68238,29.77525],[-97.68504,29.77489],[-97.68691,29.77661],[-97.68825,29.7768],[-97.68904,29.77771],[-97.68952,29.77907],[-97.69205,29.78181],[-97.69823,29.77055],[-97.69747,29.76972],[-97.6992,29.76844],[-97.70004,29.76911],[-97.70233,29.76745],[-97.7089,29.77378],[-97.71671,29.76762],[-97.71672,29.76738],[-97.71572,29.76637],[-97.71571,29.76608],[-97.71978,29.76302],[-97.72558,29.76908],[-97.72352,29.77081],[-97.72514,29.77261],[-97.72137,29.77544],[-97.72123,29.77578],[-97.73109,29.78568],[-97.74416,29.77593],[-97.74664,29.77847],[-97.74807,29.77767],[-97.77431,29.75772]]],[[[-97.66395,29.6069],[-97.66463,29.60698],[-97.65487,29.58653],[-97.65355,29.58596],[-97.6509,29.58312],[-97.64922,29.57894],[-97.64765,29.57692],[-97.64712,29.57295],[-97.64106,29.57724],[-97.64013,29.57781],[-97.63948,29.57787],[-97.63967,29.58095],[-97.64202,29.58334],[-97.63817,29.58603],[-97.6393,29.58746],[-97.64562,29.59398],[-97.64625,29.59422],[-97.64869,29.5944],[-97.64911,29.59712],[-97.65105,29.59948],[-97.65385,29.60145],[-97.65583,29.60245],[-97.65765,29.60454],[-97.66127,29.60616],[-97.66395,29.6069]]]]}},{"type":"Feature","properties":{"zip_code":"78655"},"geometry":{"type":"Polygon","coordinates":[[[-97.88606,29.82888],[-97.88394,29.82681],[-97.88504,29.82576],[-97.87948,29.82011],[-97.87902,29.82039],[-97.87636,29.81804],[-97.87944,29.81556],[-97.87607,29.81185],[-97.87746,29.81061],[-97.87666,29.80967],[-97.87847,29.80848],[-97.8779,29.80813],[-97.87689,29.80807],[-97.87704,29.80756],[-97.87746,29.80721],[-97.87697,29.80658],[-97.87669,29.80672],[-97.87518,29.80482],[-97.87542,29.80464],[-97.87444,29.8034],[-97.87768,29.80108],[-97.8752,29.7985],[-97.87194,29.80075],[-97.86903,29.79785],[-97.86797,29.79865],[-97.86547,29.79589],[-97.86848,29.79319],[-97.86203,29.78668],[-97.86044,29.78794],[-97.85831,29.78577],[-97.86023,29.78413],[-97.85827,29.78209],[-97.86643,29.77583],[-97.86305,29.77241],[-97.84486,29.78599],[-97.83843,29.78186],[-97.8389,29.78153],[-97.83811,29.78086],[-97.84624,29.77446],[-97.84537,29.77341],[-97.83567,29.78064],[-97.83687,29.78228],[-97.83833,29.7835],[-97.83739,29.78329],[-97.83615,29.78256],[-97.83547,29.78285],[-97.83375,29.7815],[-97.83265,29.782],[-97.8314,29.78301],[-97.8312,29.78248],[-97.83056,29.7821],[-97.83052,29.78134],[-97.83015,29.78087],[-97.83317,29.77893],[-97.8288,29.7721],[-97.82587,29.76881],[-97.8268,29.76813],[-97.82324,29.76449],[-97.82248,29.76342],[-97.82067,29.7573],[-97.80562,29.76777],[-97.80573,29.76818],[-97.80706,29.76899],[-97.80841,29.7707],[-97.80845,29.77122],[-97.80902,29.77212],[-97.81045,29.7729],[-97.81126,29.77424],[-97.81117,29.7745],[-97.80988,29.77431],[-97.80797,29.77464],[-97.8064,29.77325],[-97.80554,29.77316],[-97.80523,29.77376],[-97.80611,29.77429],[-97.80646,29.77534],[-97.80565,29.77706],[-97.80623,29.77738],[-97.80648,29.77809],[-97.80695,29.77829],[-97.80821,29.77964],[-97.80975,29.77978],[-97.81057,29.78022],[-97.81137,29.78029],[-97.8119,29.77994],[-97.81155,29.7795],[-97.81092,29.77942],[-97.81117,29.77885],[-97.81213,29.77816],[-97.81293,29.77832],[-97.8151,29.78073],[-97.81476,29.78103],[-97.81449,29.78094],[-97.81387,29.78215],[-97.81195,29.78347],[-97.81188,29.78391],[-97.81347,29.78413],[-97.81404,29.78442],[-97.81452,29.7851],[-97.7956,29.79929],[-97.79945,29.80636],[-97.79939,29.80695],[-97.79984,29.80756],[-97.7986,29.81021],[-97.79877,29.81126],[-97.79863,29.81229],[-97.79763,29.813],[-97.79673,29.81412],[-97.79677,29.8148],[-97.79753,29.8159],[-97.79746,29.81735],[-97.79827,29.81881],[-97.79796,29.82027],[-97.79598,29.82221],[-97.79629,29.82283],[-97.79644,29.82445],[-97.79625,29.82549],[-97.79423,29.82654],[-97.79382,29.82712],[-97.79418,29.82827],[-97.79468,29.82871],[-97.79546,29.82874],[-97.7958,29.82915],[-97.79594,29.82996],[-97.79568,29.83065],[-97.79657,29.83343],[-97.79637,29.83384],[-97.79587,29.83408],[-97.79372,29.83445],[-97.79254,29.83501],[-97.79147,29.83518],[-97.78969,29.83684],[-97.78802,29.83746],[-97.78754,29.83832],[-97.78668,29.83818],[-97.78682,29.83878],[-97.7922,29.84432],[-97.79211,29.84469],[-97.79372,29.84957],[-97.79521,29.85211],[-97.79629,29.85339],[-97.79719,29.85401],[-97.79734,29.85472],[-97.79853,29.85635],[-97.79853,29.85727],[-97.79879,29.85791],[-97.79966,29.85921],[-97.80111,29.85933],[-97.80203,29.85866],[-97.80349,29.85834],[-97.80706,29.85945],[-97.80913,29.86152],[-97.80975,29.86167],[-97.81158,29.86297],[-97.81367,29.86587],[-97.80267,29.87315],[-97.80283,29.87332],[-97.8144,29.87369],[-97.81555,29.87293],[-97.81662,29.87385],[-97.83613,29.87453],[-97.84276,29.86943],[-97.84213,29.86733],[-97.84695,29.86374],[-97.84808,29.86485],[-97.85355,29.85937],[-97.85592,29.86169],[-97.8552,29.8626],[-97.86001,29.86756],[-97.86536,29.86331],[-97.86735,29.86418],[-97.86884,29.8631],[-97.88052,29.86532],[-97.87965,29.8636],[-97.8798,29.86309],[-97.8791,29.86074],[-97.87601,29.86055],[-97.87463,29.8599],[-97.87456,29.8595],[-97.87541,29.85854],[-97.8749,29.85759],[-97.87344,29.85637],[-97.87429,29.85575],[-97.87321,29.85318],[-97.87432,29.85197],[-97.86823,29.84555],[-97.88606,29.82888]]]}},{"type":"Feature","properties":{"zip_code":"78656"},"geometry":{"type":"Polygon","coordinates":[[[-97.89016,29.88632],[-97.88867,29.88502],[-97.88908,29.88471],[-97.88736,29.88267],[-97.88704,29.88379],[-97.88391,29.88414],[-97.88325,29.88389],[-97.87979,29.88689],[-97.8793,29.88637],[-97.87781,29.88742],[-97.87795,29.88758],[-97.87638,29.88846],[-97.87551,29.88807],[-97.87323,29.88806],[-97.87285,29.88787],[-97.86624,29.88803],[-97.86484,29.88699],[-97.86434,29.88741],[-97.86238,29.88585],[-97.86205,29.88615],[-97.86172,29.88588],[-97.86079,29.88674],[-97.85943,29.88564],[-97.85937,29.88428],[-97.85692,29.88229],[-97.85682,29.88013],[-97.85314,29.87998],[-97.85163,29.88115],[-97.84859,29.87812],[-97.85267,29.87509],[-97.85905,29.8752],[-97.85626,29.87243],[-97.86735,29.86418],[-97.86536,29.86331],[-97.86001,29.86756],[-97.8552,29.8626],[-97.85592,29.86169],[-97.85355,29.85937],[-97.84808,29.86485],[-97.84695,29.86374],[-97.84213,29.86733],[-97.84276,29.86943],[-97.83613,29.87453],[-97.81662,29.87385],[-97.81555,29.87293],[-97.8144,29.87369],[-97.80283,29.87332],[-97.80267,29.87315],[-97.81325,29.86616],[-97.80699,29.85987],[-97.78969,29.87287],[-97.76337,29.87205],[-97.76278,29.87185],[-97.76248,29.87214],[-97.76187,29.87172],[-97.74038,29.87057],[-97.74873,29.88269],[-97.74463,29.8835],[-97.74315,29.88417],[-97.74426,29.88424],[-97.74563,29.8858],[-97.74679,29.88597],[-97.74859,29.88913],[-97.75029,29.88956],[-97.75523,29.89246],[-97.75565,29.89312],[-97.75707,29.89422],[-97.75732,29.89475],[-97.75899,29.8961],[-97.75979,29.89762],[-97.7609,29.89796],[-97.76151,29.89778],[-97.76359,29.89837],[-97.76399,29.89882],[-97.76446,29.90048],[-97.76531,29.90132],[-97.76605,29.90141],[-97.76659,29.90202],[-97.76728,29.90216],[-97.76836,29.90141],[-97.76884,29.9014],[-97.76977,29.90268],[-97.77044,29.90293],[-97.77217,29.90248],[-97.77258,29.90199],[-97.77363,29.90192],[-97.77415,29.90216],[-97.77577,29.90123],[-97.77636,29.90107],[-97.77673,29.90125],[-97.77701,29.90206],[-97.77782,29.9029],[-97.77968,29.90347],[-97.78081,29.90434],[-97.78195,29.90712],[-97.78326,29.90926],[-97.78716,29.91382],[-97.7622,29.93229],[-97.75225,29.94137],[-97.74534,29.94693],[-97.74677,29.95436],[-97.75235,29.95358],[-97.75274,29.95553],[-97.75884,29.95447],[-97.75769,29.94866],[-97.76952,29.9469],[-97.77092,29.95402],[-97.77979,29.95206],[-97.77828,29.95006],[-97.78488,29.94951],[-97.78749,29.94903],[-97.784,29.94587],[-97.78597,29.94463],[-97.78785,29.94593],[-97.78978,29.94661],[-97.79192,29.94465],[-97.79243,29.94518],[-97.80313,29.94108],[-97.80345,29.94124],[-97.80745,29.93934],[-97.79959,29.93114],[-97.80258,29.92872],[-97.80545,29.9334],[-97.80744,29.93257],[-97.8094,29.93576],[-97.80861,29.93618],[-97.80988,29.93791],[-97.81212,29.93697],[-97.81185,29.93651],[-97.81238,29.93627],[-97.81271,29.93687],[-97.82125,29.93257],[-97.82736,29.92909],[-97.83671,29.92222],[-97.85073,29.91508],[-97.85176,29.91605],[-97.85375,29.91489],[-97.85675,29.91726],[-97.8588,29.91569],[-97.86325,29.91944],[-97.86426,29.91846],[-97.86608,29.91879],[-97.86807,29.91685],[-97.86616,29.91517],[-97.86714,29.91426],[-97.86665,29.91384],[-97.86706,29.90904],[-97.86363,29.90598],[-97.86959,29.90177],[-97.87684,29.90808],[-97.88462,29.90109],[-97.88191,29.89877],[-97.88131,29.89928],[-97.87778,29.89616],[-97.88126,29.89363],[-97.88112,29.89341],[-97.89016,29.88632]]]}},{"type":"Feature","properties":{"zip_code":"78661"},"geometry":{"type":"Polygon","coordinates":[[[-97.7733,29.74193],[-97.77286,29.74224],[-97.77253,29.74199],[-97.77113,29.74198],[-97.77094,29.74175],[-97.7696,29.74191],[-97.76887,29.74178],[-97.76825,29.74125],[-97.7702,29.73925],[-97.7707,29.73782],[-97.77067,29.73632],[-97.77018,29.73482],[-97.7705,29.73347],[-97.77127,29.73284],[-97.77145,29.73371],[-97.77193,29.73419],[-97.77231,29.73404],[-97.77129,29.73263],[-97.76563,29.72903],[-97.76528,29.72848],[-97.76374,29.7279],[-97.763,29.72791],[-97.76187,29.72839],[-97.76128,29.7283],[-97.76069,29.72776],[-97.76059,29.72708],[-97.76112,29.72591],[-97.76104,29.72555],[-97.76021,29.72549],[-97.75982,29.72505],[-97.75934,29.72523],[-97.75922,29.72594],[-97.7587,29.72552],[-97.7586,29.72505],[-97.75922,29.72384],[-97.76057,29.72358],[-97.76354,29.72177],[-97.7652,29.72159],[-97.76647,29.72176],[-97.76847,29.72005],[-97.76832,29.71888],[-97.76566,29.71713],[-97.76374,29.71342],[-97.76279,29.71285],[-97.76147,29.71372],[-97.75904,29.71459],[-97.75869,29.71489],[-97.7585,29.71602],[-97.75731,29.717],[-97.75683,29.71775],[-97.75566,29.71773],[-97.75294,29.71663],[-97.74998,29.71463],[-97.74739,29.71427],[-97.74653,29.71344],[-97.74641,29.71301],[-97.74665,29.71256],[-97.74724,29.71212],[-97.7477,29.71227],[-97.74956,29.71203],[-97.74985,29.71181],[-97.74982,29.71156],[-97.74899,29.7111],[-97.74692,29.7111],[-97.74593,29.71141],[-97.74493,29.71269],[-97.74394,29.71186],[-97.74136,29.71259],[-97.73978,29.71252],[-97.73854,29.713],[-97.73831,29.71274],[-97.73742,29.71327],[-97.73685,29.71312],[-97.73606,29.71239],[-97.73502,29.71266],[-97.72869,29.71724],[-97.72852,29.71744],[-97.72979,29.71793],[-97.73416,29.71863],[-97.73589,29.71917],[-97.74054,29.72399],[-97.73382,29.72092],[-97.73297,29.72278],[-97.73231,29.72347],[-97.73142,29.7237],[-97.73076,29.72358],[-97.72984,29.72383],[-97.72811,29.7226],[-97.72735,29.72257],[-97.72659,29.72207],[-97.72593,29.72387],[-97.7252,29.72448],[-97.72575,29.7292],[-97.72229,29.7257],[-97.7175,29.72909],[-97.71699,29.72977],[-97.71649,29.7319],[-97.7157,29.73356],[-97.71191,29.73694],[-97.71169,29.73764],[-97.7118,29.74043],[-97.71129,29.74181],[-97.71021,29.74291],[-97.70607,29.74593],[-97.70563,29.74688],[-97.71089,29.75235],[-97.71565,29.74594],[-97.7166,29.74392],[-97.7168,29.74379],[-97.71732,29.74421],[-97.72331,29.73966],[-97.72454,29.73945],[-97.72539,29.74026],[-97.72589,29.74026],[-97.74487,29.72596],[-97.75013,29.72838],[-97.75144,29.72937],[-97.76074,29.74245],[-97.76502,29.7473],[-97.77171,29.74396],[-97.77178,29.74348],[-97.77147,29.74303],[-97.77046,29.74267],[-97.77073,29.74243],[-97.773,29.74234],[-97.7733,29.74193]]]}}]}