{"type":"FeatureCollection","features":[{"type":"Feature","properties":{"zip_code":"78932"},"geometry":{"type":"Polygon","coordinates":[[[-96.79273,30.14773],[-96.79202,30.14401],[-96.79247,30.12624],[-96.79158,30.1252],[-96.79111,30.12206],[-96.78843,30.12119],[-96.78864,30.11869],[-96.78527,30.11622],[-96.78714,30.11358],[-96.78646,30.10868],[-96.78417,30.10723],[-96.77913,30.11177],[-96.77526,30.113],[-96.77154,30.11057],[-96.76794,30.10482],[-96.75891,30.10116],[-96.75788,30.09807],[-96.74806,30.10237],[-96.7425,30.10035],[-96.73875,30.09642],[-96.73641,30.09848],[-96.73514,30.10098],[-96.73164,30.10357],[-96.72804,30.10845],[-96.72522,30.10969],[-96.7249,30.11157],[-96.72317,30.11217],[-96.72235,30.1115],[-96.72101,30.11233],[-96.72043,30.11579],[-96.71543,30.11927],[-96.71564,30.12134],[-96.71751,30.12223],[-96.71626,30.12385],[-96.69748,30.10804],[-96.6914,30.10785],[-96.68548,30.10299],[-96.68325,30.10218],[-96.66867,30.11577],[-96.65589,30.10578],[-96.64985,30.11136],[-96.63674,30.10114],[-96.63357,30.10418],[-96.63367,30.10614],[-96.64065,30.12058],[-96.65311,30.12999],[-96.64748,30.14452],[-96.6459,30.14609],[-96.65149,30.15107],[-96.63342,30.15059],[-96.62994,30.15136],[-96.62931,30.15222],[-96.63281,30.15114],[-96.64696,30.16318],[-96.64416,30.1657],[-96.64236,30.16477],[-96.63792,30.17164],[-96.66691,30.19613],[-96.66147,30.19871],[-96.65654,30.19843],[-96.65304,30.20061],[-96.66171,30.20804],[-96.66276,30.21115],[-96.67222,30.22326],[-96.68268,30.2271],[-96.69144,30.23762],[-96.67736,30.24658],[-96.68058,30.25083],[-96.67884,30.25415],[-96.68296,30.25885],[-96.68527,30.25601],[-96.68432,30.25451],[-96.68456,30.25296],[-96.68584,30.25259],[-96.68453,30.25213],[-96.68523,30.25126],[-96.68425,30.25],[-96.68719,30.24802],[-96.69254,30.24855],[-96.69421,30.25042],[-96.69528,30.24934],[-96.69656,30.25007],[-96.69711,30.24899],[-96.70059,30.24955],[-96.70157,30.24733],[-96.70575,30.24586],[-96.70663,30.24463],[-96.70774,30.24539],[-96.71088,30.24545],[-96.71214,30.24633],[-96.71232,30.24763],[-96.71442,30.24728],[-96.71383,30.24851],[-96.71482,30.25105],[-96.71512,30.24962],[-96.71831,30.25051],[-96.72099,30.24822],[-96.72177,30.24846],[-96.72202,30.24682],[-96.72311,30.24593],[-96.72529,30.24691],[-96.72651,30.24379],[-96.72795,30.24346],[-96.72893,30.24414],[-96.72992,30.24314],[-96.73165,30.24389],[-96.73304,30.24195],[-96.73442,30.24153],[-96.73407,30.24021],[-96.73534,30.23966],[-96.73402,30.23871],[-96.73483,30.23829],[-96.73524,30.2365],[-96.73607,30.237],[-96.73704,30.23623],[-96.73612,30.23536],[-96.73721,30.23322],[-96.73697,30.23188],[-96.73863,30.23248],[-96.73848,30.23101],[-96.74254,30.227],[-96.74136,30.22637],[-96.74141,30.22339],[-96.74023,30.22403],[-96.73904,30.22235],[-96.74399,30.21731],[-96.74331,30.21449],[-96.74262,30.21439],[-96.74314,30.21319],[-96.74206,30.21343],[-96.74204,30.21211],[-96.7406,30.21215],[-96.74172,30.21064],[-96.74071,30.20886],[-96.74112,30.20769],[-96.73985,30.20682],[-96.74073,30.20574],[-96.73991,30.20315],[-96.7418,30.19979],[-96.74151,30.19743],[-96.76904,30.17829],[-96.76172,30.17162],[-96.74532,30.15949],[-96.7467,30.15823],[-96.73214,30.14702],[-96.73545,30.14739],[-96.74723,30.14417],[-96.75091,30.136],[-96.75646,30.12964],[-96.75981,30.13397],[-96.76591,30.13903],[-96.76694,30.13875],[-96.77302,30.14947],[-96.78067,30.1521],[-96.78497,30.1482],[-96.79062,30.15057],[-96.79108,30.14964],[-96.79204,30.15001],[-96.79273,30.14773]]]}},{"type":"Feature","properties":{"zip_code":"78938"},"geometry":{"type":"Polygon","coordinates":[[[-96.73544,29.80213],[-96.73327,29.7996],[-96.73082,29.79873],[-96.72434,29.78528],[-96.70448,29.80674],[-96.67293,29.8431],[-96.6768,29.84495],[-96.67944,29.84904],[-96.67778,29.85116],[-96.67897,29.85245],[-96.67863,29.85559],[-96.68223,29.85688],[-96.68363,29.85555],[-96.69495,29.86327],[-96.69635,29.86227],[-96.69483,29.86064],[-96.69946,29.8574],[-96.69882,29.85589],[-96.7005,29.85217],[-96.70214,29.85145],[-96.70342,29.85241],[-96.70242,29.85676],[-96.70326,29.85676],[-96.70609,29.85341],[-96.70952,29.85609],[-96.71142,29.85658],[-96.71134,29.85458],[-96.71482,29.8529],[-96.71465,29.84991],[-96.71199,29.84236],[-96.70961,29.84093],[-96.71216,29.83807],[-96.71052,29.83652],[-96.71144,29.83594],[-96.7148,29.82834],[-96.71489,29.82576],[-96.73086,29.80734],[-96.73327,29.80572],[-96.73544,29.80213]]]}},{"type":"Feature","properties":{"zip_code":"78940"},"geometry":{"type":"Polygon","coordinates":[[[-96.82451,30.00257],[-96.81079,29.99027],[-96.80842,29.98917],[-96.80575,29.98941],[-96.81047,29.98434],[-96.80536,29.9797],[-96.8062,29.97901],[-96.80212,29.97606],[-96.7975,29.98022],[-96.79432,29.97756],[-96.79855,29.97381],[-96.79065,29.96727],[-96.78999,29.96806],[-96.7873,29.96608],[-96.78522,29.96559],[-96.78182,29.96844],[-96.77741,29.96498],[-96.77789,29.96432],[-96.76943,29.95826],[-96.77512,29.95207],[-96.77301,29.95016],[-96.77353,29.94963],[-96.7659,29.94428],[-96.77295,29.93847],[-96.75283,29.92234],[-96.75219,29.92468],[-96.7509,29.92587],[-96.75007,29.92545],[-96.74817,29.92626],[-96.7466,29.92544],[-96.74199,29.92635],[-96.74694,29.92491],[-96.7473,29.92388],[-96.74922,29.92335],[-96.74988,29.92222],[-96.74919,29.92142],[-96.75037,29.92037],[-96.73619,29.90851],[-96.73811,29.9054],[-96.73813,29.9029],[-96.73893,29.90197],[-96.74307,29.90326],[-96.74125,29.89738],[-96.74425,29.89494],[-96.74371,29.89108],[-96.74646,29.89177],[-96.74619,29.8883],[-96.74945,29.88898],[-96.74938,29.88676],[-96.74566,29.88649],[-96.73112,29.89539],[-96.75251,29.87567],[-96.74881,29.87146],[-96.75058,29.87066],[-96.74637,29.8669],[-96.78287,29.83334],[-96.7757,29.83174],[-96.76871,29.83198],[-96.763,29.83335],[-96.7598,29.83289],[-96.75828,29.83174],[-96.75734,29.82682],[-96.76071,29.82155],[-96.76048,29.81678],[-96.75922,29.81428],[-96.75939,29.8129],[-96.76117,29.81136],[-96.7595,29.80633],[-96.7579,29.80515],[-96.7546,29.8056],[-96.75216,29.80695],[-96.74664,29.81532],[-96.74275,29.81646],[-96.73985,29.81467],[-96.74016,29.80833],[-96.73563,29.8019],[-96.73504,29.80256],[-96.73327,29.80572],[-96.73086,29.80734],[-96.71489,29.82576],[-96.7148,29.82834],[-96.71144,29.83594],[-96.71052,29.83652],[-96.71216,29.83807],[-96.70961,29.84093],[-96.71199,29.84236],[-96.71465,29.84991],[-96.71482,29.8529],[-96.71134,29.85458],[-96.71142,29.85658],[-96.70952,29.85609],[-96.70609,29.85341],[-96.70326,29.85676],[-96.70242,29.85676],[-96.70342,29.85241],[-96.70214,29.85145],[-96.7005,29.85217],[-96.69882,29.85589],[-96.69946,29.8574],[-96.69483,29.86064],[-96.69635,29.86227],[-96.69495,29.86327],[-96.68363,29.85555],[-96.68223,29.85688],[-96.67867,29.85563],[-96.67897,29.85245],[-96.67778,29.85116],[-96.67948,29.84919],[-96.67702,29.84519],[-96.6753,29.84384],[-96.66749,29.84124],[-96.66663,29.83965],[-96.66416,29.83896],[-96.6621,29.84316],[-96.656,29.84423],[-96.65248,29.84353],[-96.64992,29.84195],[-96.64627,29.84147],[-96.64579,29.83805],[-96.64506,29.83749],[-96.63586,29.83727],[-96.63644,29.83862],[-96.63546,29.83961],[-96.63265,29.84732],[-96.62833,29.84698],[-96.62821,29.8523],[-96.62062,29.85247],[-96.62067,29.85892],[-96.6166,29.85876],[-96.61654,29.86494],[-96.60881,29.86525],[-96.60363,29.86703],[-96.59824,29.87557],[-96.59928,29.87862],[-96.59764,29.88092],[-96.59626,29.88103],[-96.59778,29.88335],[-96.5896,29.88187],[-96.58943,29.8832],[-96.58454,29.8833],[-96.58142,29.88483],[-96.58133,29.88707],[-96.56885,29.88725],[-96.56889,29.89042],[-96.54735,29.89089],[-96.54372,29.90103],[-96.54485,29.91685],[-96.54811,29.91674],[-96.54802,29.91379],[-96.55284,29.91338],[-96.55391,29.92274],[-96.55889,29.92291],[-96.55893,29.92078],[-96.5646,29.92067],[-96.56871,29.92391],[-96.55447,29.93709],[-96.55836,29.94328],[-96.59842,29.94908],[-96.61438,29.95029],[-96.60647,29.9549],[-96.60808,29.95835],[-96.60608,29.9601],[-96.60965,29.96293],[-96.60375,29.96578],[-96.5935,29.967],[-96.59095,29.96808],[-96.5776,29.97829],[-96.57812,29.98104],[-96.56617,29.99258],[-96.56363,29.98969],[-96.5422,30.01035],[-96.54197,30.01117],[-96.54416,30.01326],[-96.54626,30.01388],[-96.55016,30.01929],[-96.54862,30.02079],[-96.54791,30.02436],[-96.54578,30.02576],[-96.54629,30.02718],[-96.54513,30.02711],[-96.54457,30.0287],[-96.54338,30.02913],[-96.54386,30.03014],[-96.54308,30.03219],[-96.54698,30.03438],[-96.54839,30.03615],[-96.55316,30.03628],[-96.55398,30.03733],[-96.55506,30.03725],[-96.55546,30.0363],[-96.55713,30.03627],[-96.5588,30.03847],[-96.54963,30.04739],[-96.55115,30.04872],[-96.55214,30.05192],[-96.55664,30.05537],[-96.566,30.04736],[-96.56878,30.04671],[-96.56941,30.04503],[-96.58042,30.03456],[-96.5794,30.03283],[-96.58202,30.03013],[-96.58132,30.02794],[-96.58364,30.02642],[-96.58701,30.02663],[-96.58794,30.02517],[-96.59421,30.02825],[-96.59806,30.02316],[-96.60142,30.02762],[-96.6109,30.02831],[-96.61857,30.03406],[-96.62689,30.02596],[-96.62329,30.02285],[-96.62715,30.01877],[-96.62195,30.01449],[-96.64396,29.99357],[-96.65582,29.99473],[-96.66212,29.99675],[-96.66207,29.99829],[-96.65402,30.00551],[-96.64914,30.00689],[-96.65517,30.01144],[-96.65797,30.011],[-96.66711,30.00244],[-96.67248,30.0078],[-96.67672,30.00885],[-96.68083,30.01239],[-96.68579,30.00772],[-96.69651,30.01113],[-96.71024,29.99774],[-96.71239,29.99984],[-96.71234,30.00146],[-96.7145,30.00159],[-96.72202,29.99242],[-96.72558,29.98925],[-96.72592,29.98485],[-96.72923,29.98254],[-96.72715,29.98134],[-96.7327,29.97621],[-96.73751,29.97873],[-96.74209,29.97805],[-96.74224,29.97893],[-96.74889,29.98098],[-96.74996,29.97988],[-96.75109,29.98055],[-96.75601,29.97584],[-96.7615,29.98101],[-96.75842,29.98417],[-96.77106,29.98816],[-96.78124,29.99579],[-96.7779,29.99933],[-96.78378,30.00393],[-96.78299,30.00498],[-96.78638,30.00771],[-96.79708,29.99742],[-96.8014,29.99846],[-96.81894,30.01172],[-96.82432,30.00653],[-96.82212,30.0058],[-96.82227,30.00398],[-96.82451,30.00257]]]}},{"type":"Feature","properties":{"zip_code":"78941"},"geometry":{"type":"Polygon","coordinates":[[[-97.26117,29.78769],[-97.26021,29.78571],[-97.25972,29.78373],[-97.25887,29.78396],[-97.25856,29.78461],[-97.24724,29.78472],[-97.24525,29.78433],[-97.24337,29.78298],[-97.23643,29.78153],[-97.23601,29.78183],[-97.23603,29.78438],[-97.23537,29.78566],[-97.22563,29.78585],[-97.22538,29.78061],[-97.25474,29.77717],[-97.25455,29.76719],[-97.2552,29.75943],[-97.25515,29.75482],[-97.25562,29.75334],[-97.25554,29.75057],[-97.24341,29.7505],[-97.24416,29.75231],[-97.24271,29.76069],[-97.24042,29.76049],[-97.23776,29.75944],[-97.23649,29.75847],[-97.233,29.75937],[-97.23058,29.75969],[-97.23066,29.75641],[-97.23128,29.75541],[-97.23199,29.75484],[-97.2313,29.75445],[-97.22714,29.75438],[-97.22538,29.75357],[-97.21871,29.74669],[-97.21626,29.74243],[-97.21443,29.74128],[-97.21181,29.74069],[-97.2117,29.73615],[-97.21018,29.7359],[-97.2101,29.73377],[-97.2093,29.69686],[-97.21052,29.69682],[-97.21038,29.68292],[-97.19147,29.6803],[-97.19123,29.6798],[-97.19095,29.66417],[-97.19169,29.6574],[-97.19176,29.65255],[-97.20613,29.65232],[-97.2186,29.6328],[-97.222,29.63422],[-97.22264,29.63415],[-97.22374,29.63502],[-97.231,29.63863],[-97.23148,29.63701],[-97.23232,29.63619],[-97.23262,29.63527],[-97.23533,29.63255],[-97.23585,29.63153],[-97.23553,29.62963],[-97.2367,29.62892],[-97.23659,29.62778],[-97.23902,29.62564],[-97.23951,29.62429],[-97.23908,29.62329],[-97.23936,29.62205],[-97.23836,29.62141],[-97.23783,29.6202],[-97.23798,29.61915],[-97.23738,29.61867],[-97.23742,29.61741],[-97.23862,29.61554],[-97.23838,29.61428],[-97.2388,29.61384],[-97.23884,29.61344],[-97.24317,29.61568],[-97.24292,29.6065],[-97.24317,29.60617],[-97.24238,29.60469],[-97.24205,29.59603],[-97.22912,29.5961],[-97.22922,29.61359],[-97.20803,29.61376],[-97.20235,29.60965],[-97.19451,29.60513],[-97.19187,29.60287],[-97.18432,29.59741],[-97.18332,29.59646],[-97.17768,29.58875],[-97.17675,29.58784],[-97.17521,29.5896],[-97.17389,29.59055],[-97.17218,29.59121],[-97.16992,29.59156],[-97.16944,29.5951],[-97.16712,29.60168],[-97.1669,29.60393],[-97.16665,29.60416],[-97.16582,29.60417],[-97.16576,29.60671],[-97.16472,29.60878],[-97.16716,29.60896],[-97.16721,29.60944],[-97.1484,29.62414],[-97.14264,29.6281],[-97.04938,29.62955],[-97.04921,29.63016],[-97.04894,29.63005],[-97.04068,29.63151],[-97.03983,29.63274],[-97.03694,29.63508],[-97.03552,29.63479],[-97.03179,29.63499],[-97.03215,29.65054],[-97.03537,29.65089],[-97.03598,29.65437],[-97.03946,29.65411],[-97.03984,29.67244],[-97.04631,29.67266],[-97.04636,29.67973],[-97.04847,29.67977],[-97.04845,29.7004],[-97.05211,29.7005],[-97.05225,29.70895],[-97.05288,29.71045],[-97.05298,29.72002],[-97.04863,29.72011],[-97.04909,29.73501],[-97.05457,29.73483],[-97.05465,29.74614],[-97.06065,29.74219],[-97.0615,29.74117],[-97.0619,29.74012],[-97.0667,29.74007],[-97.06527,29.74541],[-97.0569,29.77034],[-97.07266,29.77002],[-97.08481,29.76941],[-97.10173,29.76943],[-97.0994,29.77404],[-97.09896,29.78175],[-97.09863,29.78343],[-97.09472,29.79054],[-97.09497,29.79066],[-97.09523,29.79021],[-97.09775,29.79046],[-97.09838,29.79066],[-97.09967,29.79164],[-97.10373,29.79175],[-97.13194,29.79132],[-97.1327,29.79338],[-97.13411,29.79574],[-97.1355,29.79703],[-97.13607,29.79923],[-97.13848,29.80342],[-97.13885,29.80524],[-97.13889,29.80851],[-97.13958,29.81151],[-97.13898,29.81859],[-97.13769,29.82215],[-97.1369,29.834],[-97.13621,29.83558],[-97.14209,29.83549],[-97.14183,29.83398],[-97.14191,29.83143],[-97.14363,29.82985],[-97.14454,29.82979],[-97.14556,29.82981],[-97.14563,29.83013],[-97.14666,29.83005],[-97.14762,29.83134],[-97.14788,29.8328],[-97.14772,29.83369],[-97.14785,29.83541],[-97.15167,29.83536],[-97.15408,29.83565],[-97.15337,29.86233],[-97.15432,29.86212],[-97.15456,29.86238],[-97.16536,29.86529],[-97.16546,29.88295],[-97.17446,29.88289],[-97.17462,29.89599],[-97.19422,29.89571],[-97.1946,29.92013],[-97.19387,29.92217],[-97.18796,29.92993],[-97.18455,29.93712],[-97.18515,29.93772],[-97.1856,29.93777],[-97.18651,29.93847],[-97.18806,29.93838],[-97.1882,29.93898],[-97.18857,29.93903],[-97.18959,29.9391],[-97.19052,29.93877],[-97.19136,29.93932],[-97.19172,29.94012],[-97.21995,29.93968],[-97.21998,29.93491],[-97.21955,29.93263],[-97.22123,29.92359],[-97.22183,29.9217],[-97.22137,29.90243],[-97.22164,29.90228],[-97.2335,29.90228],[-97.23408,29.90203],[-97.23437,29.90159],[-97.23433,29.89904],[-97.23453,29.89885],[-97.24089,29.89869],[-97.24037,29.88213],[-97.24011,29.88189],[-97.23788,29.88182],[-97.2377,29.87321],[-97.23787,29.87173],[-97.23841,29.87121],[-97.24632,29.86852],[-97.24369,29.86516],[-97.24318,29.86341],[-97.239,29.85623],[-97.25839,29.83855],[-97.25403,29.83875],[-97.25312,29.84061],[-97.2504,29.84078],[-97.25027,29.84272],[-97.23729,29.84301],[-97.23707,29.83529],[-97.23207,29.8352],[-97.2272,29.82212],[-97.22658,29.82106],[-97.22614,29.80194],[-97.22684,29.80264],[-97.24227,29.80259],[-97.25994,29.80217],[-97.25957,29.79881],[-97.2593,29.79195],[-97.26032,29.79138],[-97.26061,29.78928],[-97.26117,29.78769]]]}},{"type":"Feature","properties":{"zip_code":"78945"},"geometry":{"type":"Polygon","coordinates":[[[-97.06911,30.04274],[-97.06875,30.04106],[-97.06707,30.03647],[-97.06717,30.03335],[-97.06804,30.03134],[-97.06797,30.02937],[-97.0681,30.02889],[-97.06854,30.02857],[-97.06853,30.02821],[-97.06542,30.02477],[-97.0643,30.02479],[-97.06339,30.0253],[-97.06219,30.02454],[-97.06062,30.02294],[-97.06031,30.02226],[-97.06151,30.02151],[-97.06226,30.0207],[-97.06248,30.01915],[-97.06221,30.01886],[-97.06282,30.01741],[-97.06261,30.01712],[-97.05771,30.01555],[-97.05724,30.01518],[-97.05687,30.01463],[-97.05666,30.01356],[-97.0574,30.01152],[-97.05724,30.0101],[-97.05635,30.00781],[-97.05595,30.00739],[-97.05538,30.00714],[-97.05469,30.00723],[-97.05414,30.00778],[-97.05314,30.00962],[-97.05224,30.00994],[-97.05158,30.00959],[-97.05129,30.00895],[-97.0518,30.0062],[-97.05151,30.00455],[-97.05206,30.00359],[-97.05209,30.00205],[-97.05135,30.00143],[-97.04859,30.00047],[-97.04825,29.99981],[-97.04731,29.99938],[-97.04717,29.99871],[-97.04797,29.99697],[-97.04947,29.99535],[-97.05076,29.99457],[-97.05086,29.9937],[-97.05179,29.99409],[-97.05218,29.99473],[-97.05331,29.99551],[-97.05947,29.99599],[-97.06,29.9956],[-97.05989,29.99506],[-97.05908,29.99418],[-97.05634,29.99228],[-97.05545,29.99187],[-97.05326,29.99148],[-97.05113,29.98948],[-97.05095,29.98767],[-97.05058,29.98696],[-97.0509,29.98579],[-97.0515,29.9857],[-97.0535,29.98639],[-97.05456,29.98593],[-97.05487,29.98541],[-97.05493,29.98481],[-97.05466,29.98442],[-97.0534,29.98398],[-97.05322,29.98357],[-97.05259,29.98002],[-97.05159,29.97864],[-97.05104,29.97839],[-97.05048,29.97846],[-97.05009,29.97947],[-97.0503,29.98096],[-97.04956,29.98311],[-97.04914,29.98352],[-97.04782,29.98414],[-97.047,29.98423],[-97.04637,29.9854],[-97.04589,29.98561],[-97.04449,29.98616],[-97.04243,29.98629],[-97.04081,29.98529],[-97.03624,29.98418],[-97.03453,29.98416],[-97.03464,29.98375],[-97.03131,29.98278],[-97.0284,29.98107],[-97.02492,29.97824],[-97.02036,29.97565],[-97.01987,29.975],[-97.01963,29.97413],[-97.0197,29.97303],[-97.02006,29.97237],[-97.02163,29.97177],[-97.02214,29.97112],[-97.02243,29.97063],[-97.02256,29.96852],[-97.02448,29.96574],[-97.02663,29.96443],[-97.02716,29.96377],[-97.02757,29.96285],[-97.02749,29.96188],[-97.02693,29.96114],[-97.0243,29.95956],[-97.02206,29.95949],[-97.01987,29.96059],[-97.01376,29.95956],[-97.01137,29.95873],[-97.00921,29.95929],[-97.00716,29.96109],[-97.00628,29.96252],[-97.00464,29.96687],[-97.00377,29.96779],[-97.00018,29.97003],[-96.99685,29.97091],[-96.99685,29.97033],[-96.99485,29.97039],[-96.99288,29.96996],[-96.99201,29.96881],[-96.99058,29.9682],[-96.98883,29.96846],[-96.98719,29.96925],[-96.98496,29.97198],[-96.98441,29.97411],[-96.98423,29.97801],[-96.98333,29.98085],[-96.98273,29.98145],[-96.98068,29.98243],[-96.9756,29.98329],[-96.97309,29.98329],[-96.96942,29.98419],[-96.96801,29.98413],[-96.96692,29.98301],[-96.96654,29.98217],[-96.96636,29.98059],[-96.9668,29.97804],[-96.96827,29.97545],[-96.96825,29.97355],[-96.9688,29.97138],[-96.97125,29.96453],[-96.971,29.96266],[-96.97026,29.96184],[-96.96929,29.96143],[-96.96787,29.96132],[-96.96271,29.96347],[-96.95848,29.96398],[-96.95631,29.96451],[-96.95594,29.96247],[-96.95511,29.9515],[-96.95489,29.94029],[-96.94887,29.93631],[-96.95091,29.93454],[-96.96824,29.93716],[-96.96889,29.93654],[-96.96816,29.93601],[-96.96849,29.93556],[-96.97537,29.92913],[-96.9756,29.92845],[-96.97553,29.92149],[-96.98269,29.91493],[-96.98414,29.9138],[-96.98415,29.9146],[-96.98444,29.91482],[-96.99168,29.9147],[-96.99581,29.91487],[-96.99543,29.90139],[-96.99556,29.90045],[-96.99583,29.90028],[-96.99789,29.89396],[-96.99785,29.88645],[-96.99804,29.88605],[-96.99835,29.87409],[-96.99921,29.87428],[-97.00026,29.87389],[-97.00075,29.87341],[-97.00149,29.87325],[-97.0018,29.87238],[-97.00262,29.87167],[-97.00336,29.87137],[-97.00346,29.87098],[-97.00289,29.87014],[-97.00199,29.86965],[-97.00197,29.8694],[-97.00265,29.86881],[-97.00436,29.86883],[-97.00478,29.86778],[-97.00433,29.86739],[-97.00352,29.86762],[-97.00273,29.86668],[-97.00273,29.8662],[-97.00331,29.86551],[-97.00528,29.86448],[-97.00531,29.8498],[-97.00464,29.8498],[-97.00472,29.84274],[-97.0033,29.83777],[-97.00257,29.8376],[-97.00166,29.83674],[-97.00028,29.83503],[-97.00007,29.83445],[-96.99722,29.83338],[-96.99659,29.83269],[-96.99724,29.83152],[-96.99702,29.83012],[-96.99687,29.82274],[-96.99596,29.82239],[-96.99624,29.82126],[-96.99808,29.82109],[-96.99828,29.82077],[-96.99811,29.80723],[-96.99785,29.80705],[-96.99171,29.80713],[-96.99112,29.80694],[-96.9988,29.80183],[-96.99864,29.79023],[-96.99842,29.79004],[-96.99078,29.79004],[-96.99055,29.78023],[-96.98955,29.77929],[-96.98937,29.77728],[-96.96679,29.77689],[-96.96654,29.77671],[-96.96667,29.77978],[-96.96266,29.77999],[-96.96281,29.7876],[-96.95629,29.7877],[-96.95276,29.7867],[-96.95211,29.78912],[-96.95227,29.79715],[-96.94715,29.79725],[-96.94575,29.7991],[-96.93929,29.79916],[-96.93809,29.79952],[-96.9367,29.79921],[-96.93107,29.79928],[-96.93088,29.80515],[-96.91701,29.80549],[-96.91696,29.80386],[-96.91651,29.80372],[-96.91634,29.80075],[-96.91015,29.80062],[-96.90998,29.79148],[-96.88834,29.79484],[-96.88828,29.79395],[-96.88668,29.79432],[-96.86371,29.79486],[-96.86244,29.79456],[-96.8615,29.79388],[-96.86099,29.793],[-96.86065,29.79081],[-96.85893,29.78913],[-96.84508,29.78939],[-96.84323,29.78916],[-96.84145,29.78841],[-96.84042,29.78894],[-96.82157,29.78952],[-96.82032,29.79015],[-96.81949,29.79118],[-96.81935,29.7933],[-96.81883,29.79453],[-96.81798,29.79526],[-96.81681,29.79565],[-96.79668,29.79607],[-96.79651,29.78856],[-96.79618,29.78651],[-96.79609,29.7837],[-96.79568,29.78167],[-96.79496,29.77996],[-96.79309,29.77751],[-96.78301,29.76897],[-96.78156,29.76707],[-96.76875,29.7673],[-96.769,29.77586],[-96.74125,29.78787],[-96.73828,29.78753],[-96.72886,29.79185],[-96.72841,29.79132],[-96.72824,29.7928],[-96.72798,29.79217],[-96.72797,29.79109],[-96.72596,29.78818],[-96.72757,29.79091],[-96.72745,29.7923],[-96.72856,29.79487],[-96.7304,29.79766],[-96.73082,29.79873],[-96.73327,29.7996],[-96.73516,29.80127],[-96.73698,29.8045],[-96.74016,29.80833],[-96.74047,29.80897],[-96.7404,29.81197],[-96.73985,29.81363],[-96.73985,29.81467],[-96.74032,29.81545],[-96.74124,29.81608],[-96.74275,29.81646],[-96.74354,29.81638],[-96.74664,29.81532],[-96.75088,29.80854],[-96.75216,29.80695],[-96.75361,29.8061],[-96.75692,29.80494],[-96.75905,29.80574],[-96.7595,29.80633],[-96.76093,29.80942],[-96.76117,29.81136],[-96.76072,29.81203],[-96.75939,29.8129],[-96.75922,29.81428],[-96.75944,29.81532],[-96.76048,29.81678],[-96.76071,29.82155],[-96.76026,29.82247],[-96.75855,29.82435],[-96.75734,29.82682],[-96.75731,29.82895],[-96.75775,29.83071],[-96.75791,29.83126],[-96.75872,29.83223],[-96.7598,29.83289],[-96.763,29.83335],[-96.76871,29.83198],[-96.77063,29.83208],[-96.77641,29.83174],[-96.77728,29.83183],[-96.77904,29.83256],[-96.78287,29.83334],[-96.7792,29.83698],[-96.74637,29.8669],[-96.75058,29.87066],[-96.75016,29.87105],[-96.74881,29.87146],[-96.75251,29.87567],[-96.73112,29.89539],[-96.74566,29.88649],[-96.74938,29.88676],[-96.74976,29.88733],[-96.74968,29.88869],[-96.74945,29.88898],[-96.74889,29.88901],[-96.74684,29.88793],[-96.74619,29.8883],[-96.74595,29.88878],[-96.74646,29.89177],[-96.74568,29.89199],[-96.74528,29.89124],[-96.74479,29.89092],[-96.74362,29.8912],[-96.74346,29.89245],[-96.74422,29.89378],[-96.74425,29.89494],[-96.74343,29.89593],[-96.74191,29.89659],[-96.74125,29.89738],[-96.74147,29.89889],[-96.74307,29.90191],[-96.74307,29.90326],[-96.74252,29.90361],[-96.74023,29.90202],[-96.73948,29.90182],[-96.73893,29.90197],[-96.73813,29.9029],[-96.73811,29.9054],[-96.73685,29.90714],[-96.73619,29.90851],[-96.73621,29.90896],[-96.75037,29.92037],[-96.74919,29.92142],[-96.74917,29.92163],[-96.74988,29.92222],[-96.74983,29.92268],[-96.74922,29.92335],[-96.7473,29.92388],[-96.74694,29.92491],[-96.74194,29.92606],[-96.74199,29.92635],[-96.7466,29.92544],[-96.74817,29.92626],[-96.74949,29.92603],[-96.75007,29.92545],[-96.75053,29.92587],[-96.7509,29.92587],[-96.75219,29.92468],[-96.75283,29.92234],[-96.77295,29.93847],[-96.77175,29.93943],[-96.77136,29.94007],[-96.77041,29.94056],[-96.7659,29.94428],[-96.77098,29.94826],[-96.77142,29.94788],[-96.77353,29.94963],[-96.77301,29.95016],[-96.77512,29.95207],[-96.77479,29.95278],[-96.77366,29.95392],[-96.77317,29.95478],[-96.76943,29.95826],[-96.77789,29.96432],[-96.77723,29.96465],[-96.77761,29.96489],[-96.77741,29.96498],[-96.78182,29.96844],[-96.78522,29.96559],[-96.7873,29.96608],[-96.78999,29.96806],[-96.79065,29.96727],[-96.79855,29.97381],[-96.79432,29.97756],[-96.7975,29.98022],[-96.80212,29.97606],[-96.8062,29.97901],[-96.80536,29.9797],[-96.80668,29.98073],[-96.80664,29.98116],[-96.81047,29.98434],[-96.80577,29.98901],[-96.80575,29.98941],[-96.80686,29.98915],[-96.80842,29.98917],[-96.80949,29.98949],[-96.81079,29.99027],[-96.8138,29.99272],[-96.81575,29.99525],[-96.8248,30.00238],[-96.82294,30.00375],[-96.82227,30.00398],[-96.8226,30.00483],[-96.82212,30.0058],[-96.82432,30.00653],[-96.81618,30.01434],[-96.83372,30.02824],[-96.83093,30.03127],[-96.8368,30.03607],[-96.83363,30.04049],[-96.83604,30.04233],[-96.83742,30.04314],[-96.83918,30.04358],[-96.84823,30.04377],[-96.85672,30.04768],[-96.85891,30.04782],[-96.86077,30.04699],[-96.86154,30.04767],[-96.86167,30.04835],[-96.86117,30.04956],[-96.86148,30.05083],[-96.8564,30.05487],[-96.85692,30.05579],[-96.85731,30.05569],[-96.86245,30.06503],[-96.88216,30.05894],[-96.88298,30.05888],[-96.8853,30.058],[-96.89915,30.05434],[-96.91423,30.05143],[-96.91397,30.04347],[-96.91466,30.04325],[-96.91525,30.04152],[-96.91928,30.04052],[-96.92512,30.04206],[-96.93546,30.03891],[-96.94986,30.04525],[-96.95024,30.04448],[-96.95349,30.04587],[-96.95411,30.04766],[-96.95588,30.04977],[-96.9561,30.05064],[-96.95373,30.04952],[-96.9501,30.05071],[-96.94756,30.05303],[-96.94094,30.05251],[-96.93919,30.05272],[-96.93879,30.05255],[-96.93911,30.05526],[-96.93964,30.05615],[-96.94125,30.05765],[-96.94149,30.05836],[-96.94126,30.05918],[-96.94081,30.0596],[-96.93892,30.06033],[-96.93826,30.06093],[-96.93776,30.06189],[-96.9369,30.06245],[-96.93136,30.06517],[-96.93103,30.06557],[-96.93235,30.06754],[-96.93427,30.07252],[-96.93491,30.07314],[-96.96631,30.05786],[-96.96661,30.05868],[-96.96897,30.06232],[-96.97093,30.06363],[-96.98319,30.0496],[-96.98438,30.04884],[-96.98714,30.04779],[-97.01111,30.03617],[-97.01916,30.032],[-97.02446,30.05144],[-97.0343,30.04239],[-97.0599,30.04193],[-97.0603,30.04205],[-97.06043,30.04285],[-97.06911,30.04274]]]}},{"type":"Feature","properties":{"zip_code":"78949"},"geometry":{"type":"Polygon","coordinates":[[[-97.19423,29.89678],[-97.19422,29.89571],[-97.17462,29.89599],[-97.17446,29.88289],[-97.16546,29.88295],[-97.16536,29.86529],[-97.15337,29.86233],[-97.15408,29.83565],[-97.14785,29.83541],[-97.14762,29.83134],[-97.14666,29.83005],[-97.14454,29.82979],[-97.14191,29.83143],[-97.14209,29.83549],[-97.13621,29.83558],[-97.13958,29.81151],[-97.13848,29.80342],[-97.13194,29.79132],[-97.10373,29.79175],[-97.09472,29.79054],[-97.09863,29.78343],[-97.0994,29.77404],[-97.10173,29.76943],[-97.0569,29.77034],[-97.0667,29.74007],[-97.0619,29.74012],[-97.06065,29.74219],[-97.05465,29.74614],[-97.05457,29.73483],[-97.04928,29.73507],[-97.04918,29.74732],[-97.02394,29.74785],[-97.02599,29.74809],[-97.02695,29.76705],[-97.01442,29.7672],[-97.01458,29.78029],[-97.01314,29.78043],[-97.01244,29.77845],[-97.01159,29.76958],[-97.00809,29.76965],[-97.00853,29.7615],[-96.99323,29.76162],[-96.99326,29.76405],[-96.9838,29.76463],[-96.98364,29.77713],[-96.98943,29.77735],[-96.98955,29.77929],[-96.99055,29.78023],[-96.99078,29.79004],[-96.99863,29.79019],[-96.9988,29.80183],[-96.99112,29.80694],[-96.9981,29.80719],[-96.99828,29.82077],[-96.99624,29.82126],[-96.99596,29.82239],[-96.99687,29.82274],[-96.99724,29.83152],[-96.99659,29.83269],[-97.00007,29.83445],[-97.0033,29.83777],[-97.00472,29.84274],[-97.00528,29.86448],[-97.00655,29.86294],[-97.00942,29.86251],[-97.00979,29.85974],[-97.00889,29.85736],[-97.00945,29.85527],[-97.01447,29.85322],[-97.01502,29.85438],[-97.01765,29.85468],[-97.01942,29.85136],[-97.02202,29.85086],[-97.02189,29.84921],[-97.02328,29.84772],[-97.02273,29.846],[-97.02423,29.84415],[-97.02626,29.8447],[-97.02747,29.84383],[-97.03698,29.84317],[-97.0333,29.85394],[-97.0324,29.86069],[-97.0297,29.87092],[-97.0334,29.87086],[-97.03404,29.87162],[-97.03575,29.88046],[-97.03409,29.89343],[-97.03659,29.90027],[-97.03724,29.90555],[-97.03796,29.90472],[-97.04721,29.90301],[-97.04839,29.90094],[-97.04884,29.8962],[-97.05154,29.8953],[-97.05675,29.88571],[-97.05969,29.88714],[-97.06058,29.88927],[-97.06076,29.88669],[-97.08649,29.88715],[-97.08758,29.89471],[-97.08797,29.89352],[-97.09062,29.89357],[-97.09286,29.89727],[-97.09183,29.89789],[-97.09176,29.90683],[-97.09,29.90685],[-97.09064,29.90999],[-97.0918,29.91161],[-97.09481,29.91256],[-97.09521,29.91715],[-97.0975,29.92191],[-97.09937,29.92326],[-97.14134,29.92338],[-97.14164,29.91954],[-97.12653,29.91978],[-97.12609,29.91649],[-97.12351,29.91595],[-97.12155,29.91721],[-97.12156,29.91173],[-97.1274,29.91134],[-97.12765,29.91352],[-97.13713,29.91331],[-97.13656,29.90922],[-97.14564,29.90883],[-97.15533,29.9107],[-97.15829,29.91447],[-97.162,29.91483],[-97.16182,29.91938],[-97.16583,29.92006],[-97.16382,29.92188],[-97.16403,29.92299],[-97.16535,29.92297],[-97.19423,29.89678]]]}},{"type":"Feature","properties":{"zip_code":"78950"},"geometry":{"type":"Polygon","coordinates":[[[-96.61137,29.95198],[-96.61438,29.95029],[-96.59842,29.94908],[-96.55836,29.94328],[-96.55447,29.93709],[-96.56871,29.92391],[-96.5646,29.92067],[-96.55893,29.92078],[-96.55889,29.92291],[-96.55391,29.92274],[-96.55284,29.91338],[-96.54802,29.91379],[-96.54811,29.91674],[-96.54485,29.91685],[-96.54372,29.90103],[-96.54735,29.89089],[-96.56889,29.89042],[-96.56885,29.88725],[-96.58133,29.88707],[-96.58142,29.88483],[-96.58454,29.8833],[-96.58943,29.8832],[-96.5896,29.88187],[-96.59778,29.88335],[-96.59626,29.88103],[-96.59764,29.88092],[-96.59932,29.87851],[-96.59824,29.87557],[-96.60371,29.86702],[-96.60291,29.86566],[-96.5973,29.86303],[-96.59614,29.86109],[-96.5968,29.85836],[-96.60187,29.85527],[-96.60244,29.85388],[-96.60208,29.85242],[-96.59716,29.8483],[-96.59915,29.84656],[-96.60147,29.84653],[-96.60211,29.84476],[-96.59889,29.84008],[-96.59914,29.83539],[-96.59791,29.83478],[-96.59492,29.83559],[-96.59663,29.83569],[-96.5969,29.83811],[-96.59494,29.83999],[-96.58791,29.84012],[-96.5865,29.84143],[-96.58606,29.8429],[-96.58829,29.84442],[-96.58457,29.84614],[-96.58472,29.84995],[-96.5811,29.85116],[-96.58066,29.85262],[-96.58136,29.85441],[-96.57945,29.85611],[-96.5775,29.8559],[-96.5775,29.85801],[-96.5734,29.85919],[-96.57053,29.86127],[-96.56991,29.86267],[-96.56682,29.86359],[-96.56559,29.86552],[-96.56274,29.865],[-96.55941,29.86614],[-96.55682,29.8653],[-96.55005,29.86776],[-96.54948,29.8537],[-96.54632,29.85358],[-96.5461,29.84857],[-96.53795,29.84859],[-96.53235,29.84306],[-96.52827,29.84306],[-96.52886,29.84715],[-96.51895,29.84703],[-96.51961,29.84289],[-96.51868,29.8356],[-96.52247,29.83487],[-96.52198,29.83154],[-96.52275,29.83099],[-96.52112,29.8297],[-96.51842,29.82978],[-96.51843,29.82849],[-96.51598,29.82568],[-96.51726,29.82556],[-96.5123,29.81999],[-96.5075,29.81666],[-96.50426,29.80985],[-96.50205,29.80791],[-96.50128,29.80317],[-96.49758,29.79874],[-96.48808,29.79136],[-96.48351,29.78681],[-96.48256,29.7846],[-96.48252,29.78133],[-96.4808,29.77897],[-96.48231,29.7755],[-96.48142,29.77638],[-96.47575,29.77688],[-96.47578,29.78013],[-96.47338,29.78418],[-96.47343,29.79217],[-96.47045,29.79237],[-96.46944,29.8042],[-96.46642,29.80476],[-96.46711,29.80766],[-96.46468,29.80637],[-96.46468,29.80844],[-96.46194,29.80853],[-96.46185,29.8107],[-96.46348,29.8136],[-96.46792,29.81525],[-96.47272,29.81899],[-96.47496,29.81692],[-96.47795,29.81814],[-96.47799,29.82287],[-96.48211,29.82608],[-96.48024,29.82808],[-96.48029,29.83294],[-96.47432,29.84041],[-96.47033,29.83671],[-96.46568,29.84008],[-96.46271,29.83949],[-96.45643,29.83415],[-96.45627,29.8315],[-96.45512,29.83302],[-96.44421,29.8316],[-96.44594,29.83445],[-96.44724,29.84016],[-96.4534,29.85269],[-96.45157,29.85433],[-96.44314,29.85117],[-96.43824,29.84686],[-96.43539,29.84721],[-96.4344,29.84568],[-96.43502,29.84443],[-96.43406,29.84317],[-96.43448,29.84162],[-96.42785,29.84089],[-96.42501,29.8383],[-96.42518,29.83658],[-96.42366,29.83651],[-96.4238,29.83465],[-96.42266,29.83481],[-96.4217,29.83397],[-96.4222,29.83085],[-96.42061,29.83036],[-96.4212,29.82938],[-96.41916,29.82945],[-96.41907,29.83743],[-96.42011,29.8391],[-96.41691,29.84209],[-96.41506,29.84597],[-96.41134,29.84288],[-96.40879,29.83878],[-96.40626,29.8395],[-96.39984,29.84551],[-96.40273,29.84929],[-96.4043,29.854],[-96.40592,29.85458],[-96.40656,29.85654],[-96.42494,29.87124],[-96.42438,29.87281],[-96.42732,29.87599],[-96.42119,29.87585],[-96.40908,29.87166],[-96.38729,29.86642],[-96.38237,29.86234],[-96.37048,29.87354],[-96.39604,29.88139],[-96.39276,29.88585],[-96.39172,29.8902],[-96.38992,29.89358],[-96.39086,29.89734],[-96.39015,29.89826],[-96.39073,29.90053],[-96.38926,29.90109],[-96.38488,29.8989],[-96.3837,29.90006],[-96.38276,29.89888],[-96.38071,29.89869],[-96.3802,29.89677],[-96.37806,29.89657],[-96.37852,29.89746],[-96.37574,29.89807],[-96.36938,29.89434],[-96.3682,29.89594],[-96.36738,29.89568],[-96.36284,29.89887],[-96.36042,29.90121],[-96.35995,29.90306],[-96.35747,29.90395],[-96.35891,29.91472],[-96.36099,29.91707],[-96.36643,29.91689],[-96.36662,29.92092],[-96.37017,29.92169],[-96.36991,29.92502],[-96.37357,29.93098],[-96.37274,29.93366],[-96.36992,29.93345],[-96.36964,29.93446],[-96.36724,29.93553],[-96.36313,29.93486],[-96.36319,29.93598],[-96.36576,29.93662],[-96.36495,29.93728],[-96.36513,29.93879],[-96.36593,29.9385],[-96.36735,29.9397],[-96.3657,29.93996],[-96.36898,29.94218],[-96.37179,29.9422],[-96.37248,29.94111],[-96.3736,29.94263],[-96.37547,29.94248],[-96.37849,29.94612],[-96.38086,29.94434],[-96.38009,29.94416],[-96.38075,29.94377],[-96.37999,29.94234],[-96.3832,29.94341],[-96.38344,29.94245],[-96.38649,29.94257],[-96.38789,29.9438],[-96.3879,29.94525],[-96.389,29.9445],[-96.38891,29.94533],[-96.38994,29.94582],[-96.39225,29.9436],[-96.39663,29.94462],[-96.39735,29.94922],[-96.39674,29.9536],[-96.38996,29.96041],[-96.39626,29.963],[-96.40895,29.97311],[-96.41827,29.96491],[-96.42477,29.9701],[-96.42758,29.96751],[-96.43448,29.97274],[-96.43303,29.97461],[-96.44801,29.97068],[-96.44791,29.97128],[-96.4509,29.9728],[-96.45575,29.98059],[-96.45667,29.98069],[-96.45739,29.97899],[-96.46009,29.97819],[-96.46377,29.98067],[-96.46486,29.98385],[-96.4681,29.98095],[-96.46258,29.97631],[-96.46394,29.97377],[-96.468,29.9698],[-96.46839,29.96813],[-96.4906,29.97181],[-96.49091,29.97107],[-96.49213,29.97127],[-96.4939,29.96479],[-96.49684,29.95949],[-96.49905,29.96165],[-96.50071,29.96585],[-96.50267,29.96556],[-96.50293,29.96734],[-96.5103,29.96704],[-96.51051,29.97163],[-96.51217,29.97204],[-96.51176,29.97302],[-96.51284,29.97369],[-96.51367,29.97285],[-96.51485,29.9737],[-96.51357,29.97492],[-96.51225,29.97407],[-96.50806,29.97476],[-96.5077,29.9736],[-96.50662,29.97613],[-96.50527,29.97702],[-96.5045,29.97441],[-96.50285,29.97502],[-96.50394,29.97775],[-96.50557,29.97844],[-96.50445,29.9789],[-96.50966,29.9788],[-96.5058,29.98535],[-96.50645,29.98741],[-96.50931,29.98957],[-96.51292,29.99024],[-96.51327,29.99125],[-96.5163,29.9922],[-96.51945,29.99485],[-96.52065,29.99657],[-96.52063,29.99953],[-96.52171,30.00037],[-96.52151,30.0015],[-96.52255,30.00235],[-96.52283,30.00423],[-96.5266,30.00624],[-96.52754,30.00833],[-96.53007,30.01026],[-96.53265,30.00971],[-96.53427,30.01102],[-96.53952,30.01036],[-96.54197,30.01117],[-96.54251,30.00982],[-96.56363,29.98969],[-96.56617,29.99258],[-96.57812,29.98104],[-96.5776,29.97829],[-96.59095,29.96808],[-96.5935,29.967],[-96.60375,29.96578],[-96.60965,29.96293],[-96.60608,29.9601],[-96.60808,29.95835],[-96.60634,29.95538],[-96.6073,29.95401],[-96.61137,29.95198]]]}},{"type":"Feature","properties":{"zip_code":"78954"},"geometry":{"type":"Polygon","coordinates":[[[-96.81894,30.01172],[-96.8014,29.99846],[-96.79708,29.99742],[-96.78638,30.00771],[-96.78299,30.00498],[-96.78378,30.00393],[-96.7779,29.99933],[-96.78124,29.99579],[-96.77106,29.98816],[-96.75842,29.98417],[-96.7615,29.98101],[-96.75601,29.97584],[-96.75109,29.98055],[-96.74996,29.97988],[-96.74889,29.98098],[-96.74224,29.97893],[-96.74209,29.97805],[-96.73751,29.97873],[-96.7327,29.97621],[-96.72715,29.98134],[-96.72923,29.98254],[-96.72592,29.98485],[-96.72558,29.98925],[-96.72202,29.99242],[-96.7145,30.00159],[-96.71234,30.00146],[-96.71239,29.99984],[-96.71024,29.99774],[-96.69651,30.01113],[-96.68579,30.00772],[-96.68083,30.01239],[-96.67672,30.00885],[-96.67248,30.0078],[-96.66711,30.00244],[-96.65797,30.011],[-96.65517,30.01144],[-96.64914,30.00689],[-96.65402,30.00551],[-96.66207,29.99829],[-96.66212,29.99675],[-96.65582,29.99473],[-96.64396,29.99357],[-96.62195,30.01449],[-96.62715,30.01877],[-96.62329,30.02285],[-96.62689,30.02596],[-96.61857,30.03406],[-96.6109,30.02831],[-96.60142,30.02762],[-96.59806,30.02316],[-96.59421,30.02825],[-96.58794,30.02517],[-96.58711,30.02659],[-96.58364,30.02642],[-96.58132,30.02794],[-96.58202,30.03013],[-96.5794,30.03283],[-96.58042,30.03456],[-96.56941,30.04503],[-96.56878,30.04671],[-96.56764,30.04689],[-96.5689,30.04908],[-96.57096,30.04922],[-96.5718,30.05074],[-96.57456,30.0516],[-96.5752,30.05276],[-96.57452,30.05361],[-96.57894,30.05872],[-96.57574,30.06149],[-96.57436,30.06476],[-96.5859,30.06467],[-96.59003,30.0689],[-96.59392,30.07105],[-96.62198,30.04428],[-96.62386,30.06671],[-96.63085,30.07029],[-96.63429,30.0757],[-96.63248,30.08404],[-96.63357,30.10418],[-96.63674,30.10114],[-96.64985,30.11136],[-96.65589,30.10578],[-96.66867,30.11577],[-96.68325,30.10218],[-96.68548,30.10299],[-96.6914,30.10785],[-96.69748,30.10804],[-96.71626,30.12385],[-96.71751,30.12223],[-96.71564,30.12134],[-96.71543,30.11927],[-96.72043,30.11579],[-96.72101,30.11233],[-96.72235,30.1115],[-96.72317,30.11217],[-96.7249,30.11157],[-96.72522,30.10969],[-96.72804,30.10845],[-96.73164,30.10357],[-96.73514,30.10098],[-96.73641,30.09848],[-96.73896,30.09633],[-96.73877,30.0947],[-96.73743,30.09369],[-96.7379,30.09076],[-96.7369,30.08907],[-96.73149,30.08591],[-96.73339,30.08263],[-96.73322,30.07535],[-96.73151,30.07512],[-96.72937,30.0726],[-96.72774,30.07205],[-96.72421,30.07137],[-96.72142,30.0721],[-96.71939,30.0687],[-96.72501,30.06343],[-96.73106,30.06796],[-96.74163,30.05821],[-96.74399,30.06012],[-96.74521,30.05949],[-96.75237,30.06506],[-96.75565,30.06306],[-96.75913,30.06544],[-96.76084,30.06368],[-96.76665,30.06275],[-96.76881,30.06044],[-96.77535,30.06542],[-96.78016,30.0607],[-96.7833,30.06308],[-96.78692,30.05959],[-96.79195,30.06309],[-96.79444,30.06199],[-96.79718,30.06275],[-96.80289,30.05728],[-96.78591,30.044],[-96.8098,30.02133],[-96.80812,30.02019],[-96.81336,30.01515],[-96.81481,30.01572],[-96.81894,30.01172]]]}},{"type":"Feature","properties":{"zip_code":"78956"},"geometry":{"type":"Polygon","coordinates":[[[-97.05298,29.72002],[-97.05211,29.7005],[-97.04845,29.70036],[-97.04847,29.67977],[-97.04636,29.67973],[-97.04631,29.67266],[-97.03984,29.67244],[-97.03946,29.65411],[-97.03598,29.65437],[-97.03537,29.65089],[-97.03215,29.65054],[-97.03179,29.63499],[-97.03694,29.63508],[-97.04068,29.63151],[-97.04921,29.63016],[-97.04938,29.62955],[-97.04525,29.62972],[-97.04367,29.62762],[-97.04224,29.62763],[-97.04261,29.62649],[-97.0391,29.62592],[-97.03774,29.61689],[-97.01501,29.61718],[-97.01439,29.61495],[-97.00946,29.61502],[-97.00837,29.61425],[-96.99631,29.61446],[-96.99633,29.60973],[-96.99498,29.60799],[-96.99537,29.59541],[-96.99465,29.59392],[-96.99463,29.58982],[-97.00013,29.58981],[-97.00009,29.58499],[-97.02058,29.58394],[-97.02058,29.58016],[-97.022,29.58024],[-97.02253,29.57646],[-97.03347,29.57621],[-97.03339,29.57251],[-97.01498,29.57264],[-97.01284,29.56961],[-96.99801,29.56978],[-96.99356,29.57243],[-96.98472,29.57266],[-96.9848,29.57749],[-96.96636,29.57773],[-96.96606,29.57106],[-96.9524,29.57109],[-96.9525,29.57945],[-96.94734,29.57963],[-96.94525,29.58234],[-96.93901,29.5856],[-96.93611,29.58913],[-96.93128,29.59217],[-96.92959,29.58874],[-96.92633,29.58589],[-96.92566,29.58158],[-96.92384,29.58112],[-96.91974,29.58179],[-96.9171,29.57927],[-96.90688,29.58149],[-96.9064,29.57749],[-96.9052,29.57539],[-96.90292,29.57505],[-96.89862,29.57671],[-96.88788,29.57121],[-96.8836,29.5706],[-96.88258,29.56615],[-96.88048,29.56653],[-96.87765,29.56497],[-96.87417,29.56533],[-96.87317,29.56267],[-96.87181,29.56207],[-96.86395,29.5628],[-96.8597,29.55988],[-96.85904,29.55623],[-96.85576,29.55623],[-96.8528,29.55515],[-96.85018,29.55711],[-96.84944,29.5594],[-96.84703,29.56063],[-96.84006,29.55678],[-96.83323,29.55538],[-96.83216,29.55778],[-96.82782,29.55769],[-96.82557,29.55865],[-96.82872,29.56188],[-96.82882,29.56582],[-96.83508,29.56834],[-96.83263,29.57235],[-96.83192,29.57565],[-96.83445,29.57958],[-96.83857,29.58274],[-96.83929,29.58524],[-96.83649,29.58816],[-96.83572,29.5929],[-96.83329,29.59581],[-96.83709,29.59878],[-96.83793,29.60379],[-96.84035,29.60523],[-96.84126,29.60765],[-96.84425,29.60894],[-96.84234,29.61283],[-96.84299,29.61642],[-96.84622,29.61661],[-96.84871,29.61818],[-96.84895,29.61892],[-96.84724,29.62017],[-96.84782,29.62088],[-96.85714,29.62321],[-96.85914,29.62438],[-96.85907,29.62672],[-96.86306,29.62828],[-96.86289,29.62974],[-96.86586,29.63043],[-96.865,29.63271],[-96.87422,29.63271],[-96.85262,29.65479],[-96.85262,29.6572],[-96.85495,29.65862],[-96.8529,29.66443],[-96.85466,29.66658],[-96.85469,29.67089],[-96.85175,29.67178],[-96.84957,29.67393],[-96.85051,29.67794],[-96.84942,29.67948],[-96.83941,29.68042],[-96.83949,29.68307],[-96.84226,29.68304],[-96.83549,29.68878],[-96.83805,29.68979],[-96.8361,29.69332],[-96.83584,29.69596],[-96.83794,29.69766],[-96.82885,29.69827],[-96.82914,29.70246],[-96.82448,29.70597],[-96.82449,29.70903],[-96.82824,29.70898],[-96.82845,29.71517],[-96.83232,29.71545],[-96.83196,29.71901],[-96.8338,29.73023],[-96.83571,29.73546],[-96.8359,29.74642],[-96.83819,29.75219],[-96.83844,29.78374],[-96.8393,29.7863],[-96.84126,29.78829],[-96.84508,29.78939],[-96.85893,29.78913],[-96.86065,29.79081],[-96.8615,29.79388],[-96.86371,29.79486],[-96.88828,29.79395],[-96.88834,29.79484],[-96.90998,29.79148],[-96.91015,29.80062],[-96.91634,29.80075],[-96.91701,29.80549],[-96.93088,29.80515],[-96.93107,29.79928],[-96.94575,29.7991],[-96.94715,29.79725],[-96.95227,29.79715],[-96.95211,29.78912],[-96.95276,29.7867],[-96.95629,29.7877],[-96.96281,29.7876],[-96.96266,29.77999],[-96.96667,29.77978],[-96.96654,29.77671],[-96.98371,29.77725],[-96.9838,29.76463],[-96.99326,29.76405],[-96.99323,29.76162],[-97.00853,29.7615],[-97.00809,29.76965],[-97.01159,29.76958],[-97.01244,29.77845],[-97.01314,29.78043],[-97.01458,29.78029],[-97.01442,29.7672],[-97.02695,29.76705],[-97.02599,29.74809],[-97.02394,29.74785],[-97.04918,29.74732],[-97.04863,29.72011],[-97.05298,29.72002]]]}},{"type":"Feature","properties":{"zip_code":"78962"},"geometry":{"type":"Polygon","coordinates":[[[-96.85474,29.65895],[-96.85262,29.6572],[-96.85252,29.63289],[-96.85168,29.63163],[-96.84637,29.63171],[-96.84583,29.6376],[-96.84457,29.63872],[-96.82415,29.63812],[-96.82268,29.63717],[-96.82247,29.63325],[-96.82661,29.63273],[-96.82792,29.63098],[-96.82804,29.62157],[-96.82684,29.61676],[-96.82694,29.60478],[-96.82936,29.60464],[-96.82999,29.59974],[-96.82161,29.59935],[-96.82131,29.59722],[-96.81778,29.59718],[-96.81758,29.59382],[-96.8131,29.59372],[-96.81252,29.58567],[-96.80978,29.58569],[-96.80956,29.57717],[-96.77256,29.57748],[-96.77211,29.57181],[-96.76472,29.56452],[-96.77072,29.56446],[-96.77082,29.56329],[-96.77949,29.5632],[-96.7578,29.54065],[-96.7375,29.54961],[-96.73768,29.55661],[-96.71479,29.55681],[-96.71438,29.56329],[-96.68941,29.56325],[-96.68256,29.55622],[-96.68245,29.55129],[-96.67081,29.55013],[-96.67017,29.5562],[-96.67171,29.56112],[-96.67487,29.56706],[-96.64434,29.56766],[-96.64335,29.57178],[-96.64586,29.57596],[-96.642,29.57863],[-96.63761,29.58008],[-96.63728,29.59354],[-96.6388,29.59344],[-96.63895,29.6009],[-96.62879,29.60106],[-96.62951,29.64239],[-96.60905,29.64273],[-96.60839,29.65157],[-96.61022,29.65125],[-96.61214,29.65486],[-96.61354,29.65532],[-96.61361,29.65651],[-96.61223,29.65758],[-96.61289,29.65913],[-96.61496,29.66009],[-96.61612,29.65947],[-96.6191,29.66038],[-96.62556,29.6659],[-96.62985,29.66604],[-96.62883,29.66744],[-96.6292,29.66806],[-96.63041,29.66801],[-96.63367,29.67006],[-96.63458,29.6717],[-96.63631,29.6714],[-96.63761,29.67233],[-96.63856,29.6705],[-96.64252,29.67032],[-96.64313,29.67334],[-96.64908,29.67456],[-96.64835,29.69168],[-96.61965,29.69341],[-96.60531,29.69352],[-96.62411,29.70432],[-96.63773,29.70777],[-96.63793,29.69808],[-96.64344,29.698],[-96.64356,29.70078],[-96.64905,29.70408],[-96.64919,29.71732],[-96.65225,29.71876],[-96.65388,29.72049],[-96.66288,29.73342],[-96.66961,29.73912],[-96.67704,29.74375],[-96.68087,29.74923],[-96.68081,29.75479],[-96.67269,29.75969],[-96.66867,29.76395],[-96.67168,29.77032],[-96.67028,29.77411],[-96.67169,29.77605],[-96.67385,29.77729],[-96.6793,29.77829],[-96.68819,29.77749],[-96.69568,29.78046],[-96.71085,29.77631],[-96.71911,29.77205],[-96.72429,29.77252],[-96.72838,29.77586],[-96.72825,29.77859],[-96.72521,29.78175],[-96.72433,29.78525],[-96.72797,29.79109],[-96.72824,29.7928],[-96.72841,29.79132],[-96.72886,29.79185],[-96.73828,29.78753],[-96.74125,29.78787],[-96.769,29.77586],[-96.76875,29.7673],[-96.78156,29.76707],[-96.79496,29.77996],[-96.79609,29.7837],[-96.79668,29.79607],[-96.81681,29.79565],[-96.81883,29.79453],[-96.81949,29.79118],[-96.82157,29.78952],[-96.84145,29.78841],[-96.8393,29.7863],[-96.83844,29.78374],[-96.83819,29.75219],[-96.8359,29.74642],[-96.83571,29.73546],[-96.8338,29.73023],[-96.83196,29.71901],[-96.83232,29.71545],[-96.82845,29.71517],[-96.82824,29.70898],[-96.82449,29.70903],[-96.82448,29.70597],[-96.82914,29.70246],[-96.82885,29.69827],[-96.83794,29.69766],[-96.83584,29.69596],[-96.8361,29.69332],[-96.83805,29.68979],[-96.83549,29.68878],[-96.84226,29.68304],[-96.83949,29.68307],[-96.83941,29.68042],[-96.84942,29.67948],[-96.85038,29.67831],[-96.84957,29.67393],[-96.85175,29.67178],[-96.85469,29.67089],[-96.85466,29.66658],[-96.8529,29.66443],[-96.85474,29.65895]]]}},{"type":"Feature","properties":{"zip_code":"78963"},"geometry":{"type":"Polygon","coordinates":[[[-97.10032,29.92365],[-97.09715,29.92124],[-97.09521,29.91715],[-97.09481,29.91256],[-97.0918,29.91161],[-97.09064,29.90999],[-97.09,29.90685],[-97.09176,29.90683],[-97.09183,29.89789],[-97.09286,29.89727],[-97.09062,29.89357],[-97.08797,29.89352],[-97.08758,29.89471],[-97.08649,29.88715],[-97.06076,29.88669],[-97.06058,29.88927],[-97.05969,29.88714],[-97.05675,29.88571],[-97.05154,29.8953],[-97.04884,29.8962],[-97.04839,29.90094],[-97.04721,29.90301],[-97.03796,29.90472],[-97.03724,29.90555],[-97.03659,29.90027],[-97.03409,29.89343],[-97.03575,29.88046],[-97.03404,29.87162],[-97.0334,29.87086],[-97.0297,29.87092],[-97.0324,29.86069],[-97.0333,29.85394],[-97.03698,29.84317],[-97.03488,29.84294],[-97.02747,29.84383],[-97.02626,29.8447],[-97.02423,29.84415],[-97.02273,29.846],[-97.02328,29.84772],[-97.02189,29.84921],[-97.02202,29.85086],[-97.01942,29.85136],[-97.01765,29.85468],[-97.01502,29.85438],[-97.01447,29.85322],[-97.0099,29.85484],[-97.00889,29.85736],[-97.00979,29.85974],[-97.00942,29.86251],[-97.00655,29.86294],[-97.00292,29.86588],[-97.00318,29.86741],[-97.00478,29.86778],[-97.00436,29.86883],[-97.00197,29.8694],[-97.00336,29.87137],[-97.00149,29.87325],[-96.99835,29.87409],[-96.99789,29.89396],[-96.99543,29.90139],[-96.99581,29.91487],[-96.98444,29.91482],[-96.98414,29.9138],[-96.98269,29.91493],[-96.97553,29.92149],[-96.97537,29.92913],[-96.96849,29.93556],[-96.96889,29.93654],[-96.96824,29.93716],[-96.95091,29.93454],[-96.94887,29.93631],[-96.95489,29.94029],[-96.95631,29.96451],[-96.96271,29.96347],[-96.96787,29.96132],[-96.971,29.96266],[-96.97125,29.96453],[-96.96636,29.98059],[-96.96692,29.98301],[-96.96801,29.98413],[-96.98068,29.98243],[-96.98273,29.98145],[-96.98423,29.97801],[-96.98496,29.97198],[-96.98756,29.96896],[-96.99058,29.9682],[-96.99288,29.96996],[-96.99685,29.97033],[-96.99685,29.97091],[-97.00018,29.97003],[-97.00464,29.96687],[-97.00628,29.96252],[-97.00815,29.96002],[-97.01137,29.95873],[-97.01987,29.96059],[-97.02206,29.95949],[-97.0243,29.95956],[-97.02693,29.96114],[-97.02716,29.96377],[-97.02448,29.96574],[-97.02256,29.96852],[-97.02214,29.97112],[-97.0197,29.97303],[-97.01987,29.975],[-97.03131,29.98278],[-97.04359,29.98595],[-97.04586,29.98529],[-97.0468,29.98377],[-97.04582,29.97746],[-97.04418,29.97287],[-97.04594,29.97105],[-97.04809,29.9659],[-97.04963,29.96476],[-97.06121,29.95879],[-97.0714,29.9603],[-97.08585,29.95709],[-97.08583,29.95309],[-97.08639,29.95381],[-97.09121,29.95334],[-97.09133,29.95145],[-97.09409,29.94929],[-97.0939,29.94667],[-97.092,29.9408],[-97.08576,29.93412],[-97.08582,29.92382],[-97.10032,29.92365]]]}}]}