{"type":"FeatureCollection","features":[{"type":"Feature","properties":{"zip_code":"77954"},"geometry":{"type":"Polygon","coordinates":[[[-97.49933,29.04637],[-97.48141,29.03939],[-97.48214,29.03743],[-97.46907,29.03209],[-97.47906,29.01278],[-97.4651,29.00714],[-97.41714,29.04003],[-97.41316,29.03857],[-97.40098,29.03848],[-97.38314,29.04661],[-97.38303,29.03281],[-97.38103,29.03282],[-97.38038,29.02074],[-97.38434,29.02052],[-97.38423,29.01191],[-97.38798,29.01002],[-97.39078,29.00716],[-97.39276,29.00701],[-97.3934,29.00453],[-97.39788,28.99996],[-97.39233,28.99868],[-97.38928,29.00151],[-97.38352,28.99735],[-97.38039,29.00076],[-97.3758,29.00211],[-97.37464,29.00345],[-97.3727,29.0019],[-97.36758,28.99258],[-97.36328,28.98958],[-97.35912,28.98962],[-97.36316,28.98464],[-97.36096,28.98319],[-97.36178,28.97651],[-97.36111,28.97386],[-97.35859,28.97198],[-97.35859,28.97096],[-97.35676,28.97082],[-97.35553,28.96882],[-97.35973,28.96553],[-97.35463,28.96344],[-97.34154,28.9541],[-97.34493,28.95058],[-97.34676,28.94741],[-97.35269,28.94361],[-97.35266,28.94183],[-97.35094,28.94059],[-97.34617,28.93253],[-97.34744,28.92648],[-97.34448,28.92569],[-97.337,28.95096],[-97.32953,28.94554],[-97.32755,28.94286],[-97.32729,28.94658],[-97.32621,28.94794],[-97.3158,28.94289],[-97.31806,28.93982],[-97.3152,28.93804],[-97.31685,28.93536],[-97.31249,28.93199],[-97.31299,28.93054],[-97.31181,28.92944],[-97.30544,28.93218],[-97.29519,28.93115],[-97.2997,28.92706],[-97.27921,28.91544],[-97.27299,28.92257],[-97.26339,28.91425],[-97.24772,28.90718],[-97.09473,29.01917],[-97.0965,29.02792],[-97.09386,29.02925],[-97.10256,29.07176],[-97.10155,29.08274],[-97.10413,29.08626],[-97.1135,29.09434],[-97.10373,29.10287],[-97.09929,29.10514],[-97.09371,29.10944],[-97.09586,29.11206],[-97.0971,29.11811],[-97.10564,29.1226],[-97.10843,29.12525],[-97.10829,29.12591],[-97.10684,29.12439],[-97.10144,29.12455],[-97.09458,29.12862],[-97.09048,29.12901],[-97.08834,29.13206],[-97.08988,29.13997],[-97.10001,29.14491],[-97.1056,29.14587],[-97.11411,29.14049],[-97.12754,29.15442],[-97.1249,29.15748],[-97.12898,29.16193],[-97.13039,29.16493],[-97.15145,29.15084],[-97.16237,29.14567],[-97.16765,29.15125],[-97.18102,29.14163],[-97.18533,29.14004],[-97.1823,29.13665],[-97.19621,29.13624],[-97.20282,29.13423],[-97.2034,29.14427],[-97.21061,29.14641],[-97.20787,29.15312],[-97.21779,29.15377],[-97.21426,29.19317],[-97.21169,29.19298],[-97.21009,29.21321],[-97.23075,29.21453],[-97.21869,29.22599],[-97.2231,29.2266],[-97.22243,29.23635],[-97.24877,29.23825],[-97.24977,29.23926],[-97.24923,29.24973],[-97.25154,29.24849],[-97.27622,29.2497],[-97.27806,29.24863],[-97.27888,29.24546],[-97.28076,29.24427],[-97.30017,29.24532],[-97.29736,29.22244],[-97.30273,29.22134],[-97.30231,29.21992],[-97.30414,29.21964],[-97.30438,29.21875],[-97.30328,29.21694],[-97.30153,29.21632],[-97.30174,29.2154],[-97.30566,29.21387],[-97.30642,29.2124],[-97.31138,29.211],[-97.30957,29.20764],[-97.3123,29.20768],[-97.31409,29.21041],[-97.31717,29.21297],[-97.31973,29.21248],[-97.32013,29.21032],[-97.32126,29.21009],[-97.32374,29.21264],[-97.32391,29.21397],[-97.32317,29.21444],[-97.32123,29.21318],[-97.31919,29.21407],[-97.3187,29.21542],[-97.32152,29.21819],[-97.32485,29.21854],[-97.32327,29.22048],[-97.32268,29.22394],[-97.3254,29.22507],[-97.3252,29.22201],[-97.32933,29.22085],[-97.3303,29.22265],[-97.32769,29.22574],[-97.33011,29.22654],[-97.33212,29.22606],[-97.33334,29.22752],[-97.32917,29.22965],[-97.32653,29.2296],[-97.32695,29.2342],[-97.32588,29.2367],[-97.32691,29.23799],[-97.33171,29.23914],[-97.33297,29.24076],[-97.33149,29.24769],[-97.33348,29.25002],[-97.33314,29.25181],[-97.33519,29.25476],[-97.3335,29.25917],[-97.32968,29.25857],[-97.32954,29.25711],[-97.32864,29.25661],[-97.32711,29.25749],[-97.32653,29.25944],[-97.33179,29.26076],[-97.33149,29.26439],[-97.33267,29.26637],[-97.33474,29.2666],[-97.33784,29.26373],[-97.33885,29.26426],[-97.34015,29.26688],[-97.33984,29.26901],[-97.33864,29.26984],[-97.33648,29.26808],[-97.33536,29.26841],[-97.33542,29.27187],[-97.33423,29.27307],[-97.33154,29.27176],[-97.32953,29.27262],[-97.32698,29.27633],[-97.32883,29.28],[-97.33345,29.28075],[-97.33392,29.27703],[-97.33555,29.27576],[-97.33927,29.27778],[-97.33943,29.27957],[-97.35481,29.27984],[-97.36289,29.28656],[-97.36501,29.28508],[-97.37028,29.28937],[-97.37905,29.28297],[-97.41684,29.31448],[-97.42158,29.30978],[-97.43,29.31056],[-97.43236,29.31271],[-97.43678,29.31417],[-97.43462,29.32237],[-97.44861,29.32681],[-97.458,29.30347],[-97.46697,29.30625],[-97.47326,29.3017],[-97.46922,29.29742],[-97.47934,29.28901],[-97.48047,29.29008],[-97.48645,29.28614],[-97.48631,29.28351],[-97.48511,29.28273],[-97.48255,29.28266],[-97.48326,29.2858],[-97.48245,29.2869],[-97.48124,29.28676],[-97.48117,29.28589],[-97.47594,29.28252],[-97.47319,29.27638],[-97.47418,29.27393],[-97.47353,29.27322],[-97.46798,29.27063],[-97.46406,29.27017],[-97.45591,29.26566],[-97.45721,29.26351],[-97.4551,29.26144],[-97.45541,29.25922],[-97.45233,29.25922],[-97.45065,29.25734],[-97.45047,29.25528],[-97.44859,29.25349],[-97.4478,29.25073],[-97.44482,29.24887],[-97.44456,29.24517],[-97.44331,29.24371],[-97.44453,29.24279],[-97.44477,29.2402],[-97.44707,29.24048],[-97.44992,29.23867],[-97.45159,29.23635],[-97.45065,29.23527],[-97.45056,29.23081],[-97.44449,29.23522],[-97.44137,29.22811],[-97.42612,29.24121],[-97.42051,29.24874],[-97.40538,29.25393],[-97.40509,29.24709],[-97.40074,29.24691],[-97.39322,29.24071],[-97.38046,29.22258],[-97.37425,29.21748],[-97.36177,29.20135],[-97.35835,29.19811],[-97.36606,29.19623],[-97.36642,29.19515],[-97.37531,29.19504],[-97.37512,29.17497],[-97.37271,29.17455],[-97.37239,29.1642],[-97.37449,29.16409],[-97.37665,29.16142],[-97.38081,29.15969],[-97.38087,29.15565],[-97.38147,29.15512],[-97.38314,29.15639],[-97.38568,29.16041],[-97.3851,29.16658],[-97.38225,29.16944],[-97.38481,29.17162],[-97.38585,29.17629],[-97.38541,29.18296],[-97.38708,29.18367],[-97.38841,29.18351],[-97.3938,29.18551],[-97.39378,29.17863],[-97.40788,29.17818],[-97.41011,29.17639],[-97.4115,29.17376],[-97.414,29.17263],[-97.41826,29.17548],[-97.41855,29.17781],[-97.4215,29.18073],[-97.42461,29.18151],[-97.42701,29.18105],[-97.43022,29.18247],[-97.43341,29.18167],[-97.43529,29.18231],[-97.43732,29.18164],[-97.43922,29.17974],[-97.44236,29.18013],[-97.44448,29.17876],[-97.44669,29.17937],[-97.45035,29.17892],[-97.45087,29.17817],[-97.45524,29.1771],[-97.44888,29.16002],[-97.46069,29.15579],[-97.47273,29.14222],[-97.47132,29.14223],[-97.46954,29.14032],[-97.46165,29.13899],[-97.45941,29.13945],[-97.45539,29.13418],[-97.45367,29.1337],[-97.45677,29.13111],[-97.45881,29.13264],[-97.46032,29.13223],[-97.46105,29.12975],[-97.45985,29.12453],[-97.46087,29.12291],[-97.46345,29.12059],[-97.46595,29.12047],[-97.46772,29.11943],[-97.47062,29.11389],[-97.47304,29.11249],[-97.47587,29.11287],[-97.47954,29.11026],[-97.48096,29.09601],[-97.48334,29.09052],[-97.48816,29.08385],[-97.49446,29.05787],[-97.49933,29.04637]]]}},{"type":"Feature","properties":{"zip_code":"77984"},"geometry":{"type":"Polygon","coordinates":[[[-97.32072,29.38165],[-97.31859,29.37356],[-97.32026,29.37134],[-97.31988,29.36979],[-97.31746,29.36871],[-97.31402,29.36919],[-97.31293,29.37005],[-97.3131,29.37218],[-97.31109,29.37229],[-97.30916,29.36868],[-97.30551,29.36449],[-97.30538,29.36156],[-97.30404,29.35906],[-97.30176,29.35713],[-97.29774,29.35657],[-97.29675,29.35275],[-97.29332,29.35314],[-97.29264,29.35247],[-97.29337,29.35019],[-97.29062,29.35029],[-97.28915,29.34871],[-97.27435,29.35958],[-97.27587,29.35073],[-97.26417,29.3488],[-97.25975,29.35547],[-97.25698,29.36376],[-97.25406,29.36354],[-97.25051,29.36713],[-97.24498,29.36692],[-97.24507,29.36988],[-97.22778,29.36867],[-97.22398,29.36767],[-97.2027,29.34559],[-97.19517,29.34513],[-97.19461,29.35077],[-97.17404,29.3495],[-97.174,29.36469],[-97.16664,29.36426],[-97.16424,29.36311],[-97.16144,29.36516],[-97.16669,29.38481],[-97.16487,29.38567],[-97.16226,29.38471],[-97.15984,29.38606],[-97.15366,29.38679],[-97.15045,29.3863],[-97.14115,29.38689],[-97.1373,29.38973],[-97.13405,29.38973],[-97.13311,29.38877],[-97.1318,29.38962],[-97.12968,29.38804],[-97.12654,29.38838],[-97.12576,29.38653],[-97.12166,29.38572],[-97.11444,29.38121],[-97.11318,29.38163],[-97.11158,29.3803],[-97.10517,29.37922],[-97.10282,29.37936],[-97.10002,29.38072],[-97.09858,29.37737],[-97.09209,29.37394],[-97.08998,29.37421],[-97.08943,29.37538],[-97.07986,29.3743],[-97.0792,29.38115],[-97.08307,29.38181],[-97.08812,29.38651],[-97.08791,29.39373],[-97.08291,29.39379],[-97.08284,29.40346],[-97.07775,29.40363],[-97.07788,29.40685],[-97.08143,29.40681],[-97.07608,29.41314],[-97.07077,29.4095],[-97.06957,29.40991],[-97.06917,29.41186],[-97.06219,29.41115],[-97.05988,29.40749],[-97.05829,29.40682],[-97.05735,29.40753],[-97.05643,29.41152],[-97.05465,29.41239],[-97.05235,29.41221],[-97.05018,29.40762],[-97.0491,29.40735],[-97.0474,29.40824],[-97.0485,29.41138],[-97.04622,29.41172],[-97.04594,29.41246],[-97.04588,29.41663],[-97.04701,29.41682],[-97.04698,29.42659],[-97.04767,29.42781],[-97.04702,29.42778],[-97.04697,29.43863],[-97.05652,29.43877],[-97.05618,29.45103],[-97.07287,29.45089],[-97.07376,29.45954],[-97.06345,29.45931],[-97.06412,29.4851],[-97.08335,29.49655],[-97.09895,29.49706],[-97.0973,29.4998],[-97.10697,29.50547],[-97.10509,29.50843],[-97.11967,29.51034],[-97.14176,29.51085],[-97.13878,29.53755],[-97.13997,29.53755],[-97.14189,29.56221],[-97.14862,29.56228],[-97.14926,29.56359],[-97.15095,29.56426],[-97.16489,29.55919],[-97.17382,29.56285],[-97.1762,29.56509],[-97.18817,29.56489],[-97.18806,29.57188],[-97.18481,29.57466],[-97.18494,29.58547],[-97.17965,29.58561],[-97.17611,29.58746],[-97.18332,29.59646],[-97.19451,29.60513],[-97.20803,29.61376],[-97.22916,29.61361],[-97.22917,29.59667],[-97.22819,29.59429],[-97.22814,29.59061],[-97.21803,29.59062],[-97.21802,29.5864],[-97.22519,29.58803],[-97.22831,29.58789],[-97.22714,29.57115],[-97.21709,29.57094],[-97.21604,29.56895],[-97.2159,29.55932],[-97.21396,29.55908],[-97.21907,29.55593],[-97.21982,29.54797],[-97.22564,29.54328],[-97.22609,29.53733],[-97.2295,29.53677],[-97.22938,29.52967],[-97.2309,29.52781],[-97.23623,29.52764],[-97.23778,29.52343],[-97.23178,29.52364],[-97.22556,29.52083],[-97.22243,29.5215],[-97.2213,29.52093],[-97.22041,29.51902],[-97.22189,29.51903],[-97.25084,29.48558],[-97.25649,29.48533],[-97.2645,29.4829],[-97.27903,29.49336],[-97.2763,29.49608],[-97.28493,29.50232],[-97.28745,29.49947],[-97.28291,29.48749],[-97.28468,29.47927],[-97.28703,29.48043],[-97.3065,29.47687],[-97.30964,29.47303],[-97.30872,29.4715],[-97.28426,29.45333],[-97.29459,29.46131],[-97.29579,29.45754],[-97.31479,29.46108],[-97.31597,29.45998],[-97.31685,29.4602],[-97.31829,29.45776],[-97.31719,29.45565],[-97.31803,29.45309],[-97.31659,29.45235],[-97.31651,29.45029],[-97.31481,29.44809],[-97.31504,29.4469],[-97.31303,29.44564],[-97.31316,29.44495],[-97.31481,29.44458],[-97.31319,29.44053],[-97.31429,29.43702],[-97.31353,29.43583],[-97.31371,29.43166],[-97.31269,29.43038],[-97.31266,29.42836],[-97.31379,29.42575],[-97.31129,29.42571],[-97.3112,29.42343],[-97.30745,29.4249],[-97.30607,29.42467],[-97.28976,29.40892],[-97.28874,29.40729],[-97.28926,29.40564],[-97.28642,29.40052],[-97.28757,29.39891],[-97.28657,29.39866],[-97.28744,29.39765],[-97.28697,29.39545],[-97.28775,29.39467],[-97.28893,29.39513],[-97.2906,29.39408],[-97.29194,29.39476],[-97.29372,29.39346],[-97.29375,29.39197],[-97.29631,29.39337],[-97.29691,29.39231],[-97.29851,29.3922],[-97.29866,29.39126],[-97.29751,29.39018],[-97.29887,29.38929],[-97.29874,29.38738],[-97.30311,29.38862],[-97.30317,29.39103],[-97.3045,29.39256],[-97.3059,29.3925],[-97.30704,29.39008],[-97.30987,29.39105],[-97.31116,29.38841],[-97.31591,29.38431],[-97.31954,29.38337],[-97.32072,29.38165]]]}},{"type":"Feature","properties":{"zip_code":"77994"},"geometry":{"type":"Polygon","coordinates":[[[-97.57567,29.13791],[-97.55358,29.12248],[-97.54381,29.12193],[-97.53124,29.11326],[-97.52787,29.10929],[-97.52545,29.10924],[-97.52307,29.10783],[-97.51843,29.11301],[-97.49926,29.10754],[-97.49174,29.10744],[-97.48414,29.10499],[-97.47951,29.1065],[-97.47954,29.11026],[-97.47587,29.11287],[-97.47304,29.11249],[-97.47062,29.11389],[-97.46772,29.11943],[-97.46595,29.12047],[-97.46345,29.12059],[-97.46087,29.12291],[-97.45985,29.12453],[-97.46105,29.12975],[-97.46032,29.13223],[-97.45881,29.13264],[-97.45677,29.13111],[-97.45367,29.1337],[-97.45539,29.13418],[-97.45941,29.13945],[-97.46165,29.13899],[-97.46954,29.14032],[-97.47132,29.14223],[-97.47273,29.14222],[-97.46069,29.15579],[-97.44888,29.16002],[-97.45524,29.1771],[-97.45087,29.17817],[-97.45035,29.17892],[-97.44669,29.17937],[-97.44448,29.17876],[-97.44236,29.18013],[-97.43922,29.17974],[-97.43732,29.18164],[-97.43529,29.18231],[-97.43341,29.18167],[-97.43022,29.18247],[-97.42701,29.18105],[-97.42461,29.18151],[-97.4215,29.18073],[-97.41855,29.17781],[-97.41826,29.17548],[-97.414,29.17263],[-97.4115,29.17376],[-97.41011,29.17639],[-97.40788,29.17818],[-97.39378,29.17863],[-97.3938,29.18551],[-97.38841,29.18351],[-97.38708,29.18367],[-97.38541,29.18296],[-97.38585,29.17629],[-97.38481,29.17162],[-97.38225,29.16944],[-97.3851,29.16658],[-97.38568,29.16041],[-97.38314,29.15639],[-97.38147,29.15512],[-97.38087,29.15565],[-97.38081,29.15969],[-97.37665,29.16142],[-97.37449,29.16409],[-97.37239,29.1642],[-97.37271,29.17455],[-97.37512,29.17497],[-97.37531,29.19504],[-97.36642,29.19515],[-97.36606,29.19623],[-97.35835,29.19811],[-97.36177,29.20135],[-97.37425,29.21748],[-97.38046,29.22258],[-97.39322,29.24071],[-97.40074,29.24691],[-97.40509,29.24709],[-97.40538,29.25393],[-97.42051,29.24874],[-97.42612,29.24121],[-97.44137,29.22811],[-97.44449,29.23522],[-97.45056,29.23081],[-97.45065,29.23527],[-97.45159,29.23635],[-97.44992,29.23867],[-97.4472,29.24009],[-97.44722,29.24142],[-97.44885,29.24231],[-97.45156,29.24151],[-97.45329,29.2419],[-97.45324,29.24527],[-97.45473,29.24692],[-97.46209,29.2454],[-97.46343,29.24779],[-97.47135,29.2471],[-97.47388,29.2487],[-97.47865,29.24702],[-97.47975,29.24755],[-97.48318,29.2471],[-97.48767,29.23052],[-97.48653,29.22422],[-97.48953,29.21865],[-97.48865,29.21605],[-97.48694,29.21502],[-97.48346,29.20697],[-97.57567,29.13791]]]}},{"type":"Feature","properties":{"zip_code":"78122"},"geometry":{"type":"Polygon","coordinates":[[[-97.79111,29.44049],[-97.77989,29.4382],[-97.77944,29.43577],[-97.77767,29.43506],[-97.77363,29.43564],[-97.77251,29.43683],[-97.77195,29.43939],[-97.76779,29.43825],[-97.76371,29.43978],[-97.76287,29.43918],[-97.76282,29.4371],[-97.76138,29.43398],[-97.75978,29.43382],[-97.75599,29.42985],[-97.75468,29.42942],[-97.75248,29.43036],[-97.75086,29.43015],[-97.74742,29.42334],[-97.74395,29.42282],[-97.742,29.42143],[-97.74507,29.40693],[-97.75313,29.40614],[-97.75379,29.40753],[-97.76112,29.40739],[-97.76135,29.39683],[-97.76328,29.39644],[-97.76428,29.39018],[-97.76266,29.38883],[-97.76059,29.38979],[-97.75871,29.38821],[-97.75632,29.39118],[-97.75157,29.39214],[-97.75109,29.38984],[-97.74933,29.38827],[-97.74616,29.38623],[-97.74478,29.38676],[-97.7438,29.38581],[-97.74347,29.3882],[-97.7348,29.3883],[-97.73452,29.38236],[-97.73042,29.38213],[-97.72985,29.38005],[-97.72753,29.38005],[-97.72139,29.38554],[-97.70396,29.38535],[-97.70345,29.38431],[-97.69762,29.38447],[-97.69757,29.39278],[-97.69434,29.39319],[-97.69436,29.41669],[-97.67749,29.41778],[-97.66992,29.41977],[-97.65255,29.41706],[-97.65968,29.4279],[-97.66277,29.42989],[-97.66548,29.43494],[-97.66961,29.43417],[-97.66926,29.44138],[-97.68435,29.44234],[-97.68351,29.45054],[-97.68198,29.45468],[-97.6816,29.45886],[-97.68062,29.4592],[-97.6801,29.46574],[-97.67918,29.46616],[-97.67729,29.48303],[-97.68083,29.48756],[-97.68813,29.49187],[-97.693,29.49647],[-97.69719,29.49754],[-97.70357,29.4978],[-97.70894,29.50191],[-97.71382,29.50442],[-97.72749,29.50532],[-97.73327,29.50401],[-97.73973,29.49928],[-97.74522,29.49833],[-97.7476,29.49875],[-97.75386,29.48858],[-97.79111,29.44049]]]}},{"type":"Feature","properties":{"zip_code":"78140"},"geometry":{"type":"Polygon","coordinates":[[[-97.88689,29.37725],[-97.87335,29.37709],[-97.87343,29.37209],[-97.87085,29.36943],[-97.88052,29.35343],[-97.87438,29.35038],[-97.88155,29.33906],[-97.87634,29.33671],[-97.87753,29.33483],[-97.868,29.32482],[-97.85539,29.3254],[-97.84484,29.32038],[-97.85296,29.30781],[-97.8557,29.3084],[-97.8606,29.30022],[-97.85669,29.29774],[-97.86107,29.29066],[-97.86363,29.29152],[-97.86525,29.28888],[-97.8657,29.28565],[-97.86816,29.27933],[-97.86594,29.27829],[-97.86569,29.27717],[-97.86038,29.27475],[-97.86177,29.27219],[-97.86077,29.27037],[-97.8558,29.2677],[-97.85338,29.2642],[-97.8419,29.25872],[-97.8406,29.25737],[-97.82925,29.2775],[-97.82615,29.28095],[-97.82545,29.28021],[-97.82606,29.27953],[-97.81806,29.27388],[-97.803,29.28973],[-97.80169,29.28843],[-97.79888,29.28848],[-97.79781,29.2877],[-97.8132,29.27018],[-97.81365,29.26742],[-97.80492,29.25817],[-97.83327,29.25159],[-97.83831,29.25023],[-97.838,29.24951],[-97.84333,29.24838],[-97.84308,29.24916],[-97.84607,29.24864],[-97.85075,29.24092],[-97.84208,29.22803],[-97.81371,29.17012],[-97.808,29.16149],[-97.79753,29.16642],[-97.79304,29.16651],[-97.79169,29.16807],[-97.79023,29.16735],[-97.79021,29.16626],[-97.77075,29.15706],[-97.75907,29.17884],[-97.76376,29.17737],[-97.77229,29.18129],[-97.77313,29.18899],[-97.7377,29.21489],[-97.73359,29.21295],[-97.7262,29.19598],[-97.72064,29.20952],[-97.72128,29.21169],[-97.71496,29.20865],[-97.69727,29.19147],[-97.69266,29.19189],[-97.68978,29.19578],[-97.69037,29.19676],[-97.66141,29.18257],[-97.66497,29.19126],[-97.66539,29.19428],[-97.66836,29.19989],[-97.66793,29.20203],[-97.66587,29.20466],[-97.68096,29.21239],[-97.68204,29.21823],[-97.68865,29.22158],[-97.69167,29.22165],[-97.69593,29.22428],[-97.70114,29.22994],[-97.70363,29.23434],[-97.7187,29.24177],[-97.71,29.25543],[-97.7088,29.25483],[-97.70751,29.25126],[-97.69966,29.25253],[-97.69724,29.25388],[-97.69162,29.26294],[-97.66926,29.25248],[-97.66567,29.25539],[-97.65946,29.26501],[-97.64427,29.26692],[-97.64255,29.26947],[-97.66035,29.27073],[-97.66103,29.27257],[-97.66015,29.27712],[-97.65853,29.27775],[-97.65498,29.28382],[-97.658,29.28549],[-97.65587,29.28896],[-97.65583,29.29085],[-97.65414,29.28829],[-97.65281,29.28806],[-97.6478,29.28282],[-97.64691,29.28286],[-97.64519,29.28354],[-97.64372,29.28842],[-97.64032,29.28878],[-97.63941,29.29109],[-97.6372,29.29342],[-97.6361,29.29368],[-97.63208,29.29189],[-97.62767,29.29508],[-97.62433,29.29639],[-97.62047,29.29208],[-97.61595,29.29924],[-97.6162,29.30154],[-97.62717,29.3129],[-97.62763,29.31474],[-97.62946,29.31516],[-97.6726,29.35895],[-97.65989,29.3684],[-97.6571,29.3739],[-97.65965,29.37846],[-97.65783,29.37956],[-97.66287,29.38847],[-97.66571,29.38755],[-97.67152,29.39796],[-97.67017,29.39893],[-97.67487,29.40717],[-97.67411,29.41856],[-97.68127,29.41733],[-97.69436,29.41669],[-97.69434,29.39313],[-97.69757,29.39278],[-97.69766,29.38444],[-97.70345,29.38431],[-97.70396,29.38535],[-97.72139,29.38554],[-97.72753,29.38005],[-97.73,29.38007],[-97.73042,29.38213],[-97.73452,29.38236],[-97.7348,29.3883],[-97.74347,29.3882],[-97.7438,29.38581],[-97.74478,29.38676],[-97.74616,29.38623],[-97.74933,29.38827],[-97.75109,29.38984],[-97.75157,29.39214],[-97.75632,29.39118],[-97.75871,29.38821],[-97.76059,29.38979],[-97.76266,29.38883],[-97.76428,29.39018],[-97.76328,29.39644],[-97.76135,29.39683],[-97.76112,29.40739],[-97.75379,29.40753],[-97.75313,29.40614],[-97.74507,29.40693],[-97.742,29.42143],[-97.74395,29.42282],[-97.74742,29.42334],[-97.75086,29.43015],[-97.75248,29.43036],[-97.75468,29.42942],[-97.75599,29.42985],[-97.75978,29.43382],[-97.76138,29.43398],[-97.76282,29.4371],[-97.76287,29.43918],[-97.76371,29.43978],[-97.76779,29.43825],[-97.77195,29.43939],[-97.77251,29.43683],[-97.77363,29.43564],[-97.77767,29.43506],[-97.77944,29.43577],[-97.77989,29.4382],[-97.79111,29.44049],[-97.81884,29.40465],[-97.82009,29.40583],[-97.81991,29.40982],[-97.82108,29.41416],[-97.82841,29.4171],[-97.82893,29.41568],[-97.83144,29.41469],[-97.83226,29.41256],[-97.83481,29.41161],[-97.83583,29.41613],[-97.84323,29.42753],[-97.84733,29.42811],[-97.84818,29.41879],[-97.84804,29.38976],[-97.8725,29.38934],[-97.87402,29.38956],[-97.8743,29.39042],[-97.88259,29.39036],[-97.88541,29.38346],[-97.88593,29.37904],[-97.88689,29.37725]]]}},{"type":"Feature","properties":{"zip_code":"78159"},"geometry":{"type":"Polygon","coordinates":[[[-97.7186,29.24192],[-97.70555,29.23475],[-97.70363,29.23434],[-97.70114,29.22994],[-97.69593,29.22428],[-97.69167,29.22165],[-97.68865,29.22158],[-97.68204,29.21823],[-97.68096,29.21239],[-97.66587,29.20466],[-97.66793,29.20203],[-97.66836,29.19989],[-97.66539,29.19428],[-97.66497,29.19126],[-97.66141,29.18257],[-97.69037,29.19676],[-97.68978,29.19578],[-97.69266,29.19189],[-97.69727,29.19147],[-97.61313,29.10977],[-97.48346,29.20697],[-97.48694,29.21502],[-97.48865,29.21605],[-97.48953,29.21865],[-97.48653,29.22422],[-97.48767,29.23052],[-97.48617,29.23728],[-97.48455,29.24042],[-97.48378,29.24665],[-97.47975,29.24755],[-97.47865,29.24702],[-97.47388,29.2487],[-97.47135,29.2471],[-97.46343,29.24779],[-97.46209,29.2454],[-97.45509,29.24708],[-97.45324,29.24527],[-97.45329,29.2419],[-97.44809,29.2422],[-97.44707,29.24048],[-97.44521,29.24015],[-97.44328,29.24439],[-97.44456,29.24517],[-97.44482,29.24887],[-97.4478,29.25073],[-97.44859,29.25349],[-97.45091,29.25601],[-97.45089,29.25771],[-97.45259,29.25945],[-97.45541,29.25922],[-97.4551,29.26144],[-97.45721,29.26351],[-97.45591,29.26566],[-97.46406,29.27017],[-97.46798,29.27063],[-97.47353,29.27322],[-97.47418,29.27393],[-97.47319,29.27638],[-97.47484,29.28115],[-97.48117,29.28589],[-97.48124,29.28676],[-97.48323,29.28658],[-97.48255,29.28266],[-97.4836,29.28229],[-97.48631,29.28351],[-97.48689,29.28912],[-97.48559,29.29075],[-97.48543,29.29258],[-97.48721,29.29474],[-97.48679,29.29636],[-97.4876,29.29751],[-97.48943,29.29758],[-97.49106,29.29884],[-97.49127,29.30152],[-97.48959,29.30326],[-97.49009,29.3045],[-97.49161,29.30303],[-97.49312,29.30305],[-97.49378,29.30404],[-97.49255,29.30544],[-97.49435,29.30677],[-97.49553,29.30484],[-97.49723,29.30488],[-97.49893,29.30624],[-97.502,29.30493],[-97.50443,29.30711],[-97.50388,29.30951],[-97.50629,29.311],[-97.50542,29.313],[-97.50683,29.31309],[-97.50769,29.3149],[-97.50921,29.31556],[-97.51118,29.31314],[-97.51204,29.31346],[-97.51212,29.3155],[-97.51337,29.31557],[-97.51502,29.31442],[-97.51413,29.31366],[-97.51439,29.31302],[-97.51787,29.31156],[-97.51983,29.31254],[-97.52268,29.31078],[-97.52305,29.31213],[-97.52213,29.31415],[-97.52446,29.316],[-97.52501,29.31578],[-97.5248,29.31351],[-97.52579,29.31351],[-97.52668,29.31589],[-97.52773,29.3163],[-97.52796,29.31814],[-97.53063,29.31958],[-97.52872,29.32332],[-97.52927,29.32731],[-97.53057,29.32971],[-97.53353,29.33141],[-97.53512,29.33081],[-97.53547,29.32841],[-97.54028,29.32816],[-97.54096,29.32862],[-97.53981,29.32988],[-97.54226,29.33114],[-97.54506,29.33123],[-97.54608,29.33095],[-97.5454,29.32988],[-97.54631,29.32849],[-97.56254,29.34265],[-97.57524,29.33155],[-97.57824,29.32733],[-97.58495,29.32309],[-97.6143,29.30086],[-97.61584,29.30054],[-97.61614,29.29881],[-97.62047,29.29208],[-97.62433,29.29639],[-97.62767,29.29508],[-97.63208,29.29189],[-97.63655,29.2937],[-97.63941,29.29109],[-97.64032,29.28878],[-97.64372,29.28842],[-97.6454,29.28329],[-97.6478,29.28282],[-97.65281,29.28806],[-97.65414,29.28829],[-97.65583,29.29085],[-97.65587,29.28896],[-97.658,29.28549],[-97.65498,29.28382],[-97.65853,29.27775],[-97.66015,29.27712],[-97.66103,29.27257],[-97.66035,29.27073],[-97.64255,29.26947],[-97.64427,29.26692],[-97.6594,29.26505],[-97.66574,29.2553],[-97.66955,29.25238],[-97.69162,29.26294],[-97.69724,29.25388],[-97.69966,29.25253],[-97.70751,29.25126],[-97.7088,29.25483],[-97.71,29.25543],[-97.7186,29.24192]]]}},{"type":"Feature","properties":{"zip_code":"78614"},"geometry":{"type":"Polygon","coordinates":[[[-97.67488,29.40734],[-97.67017,29.39893],[-97.67152,29.39796],[-97.66574,29.3876],[-97.66291,29.38853],[-97.65785,29.37961],[-97.65965,29.37846],[-97.6571,29.3739],[-97.65989,29.3684],[-97.6726,29.35895],[-97.65319,29.33921],[-97.64426,29.34598],[-97.64509,29.3508],[-97.64269,29.35219],[-97.64344,29.35418],[-97.64249,29.35535],[-97.64017,29.35675],[-97.64001,29.35767],[-97.63703,29.35769],[-97.63348,29.35732],[-97.6337,29.35574],[-97.63006,29.35432],[-97.62941,29.35276],[-97.62493,29.35333],[-97.62349,29.35134],[-97.62205,29.35244],[-97.61925,29.34965],[-97.61593,29.35036],[-97.61151,29.34882],[-97.60989,29.34901],[-97.60792,29.3475],[-97.60669,29.34782],[-97.60405,29.3469],[-97.60185,29.34518],[-97.60104,29.34294],[-97.59976,29.34324],[-97.59498,29.34148],[-97.59296,29.33886],[-97.59043,29.33989],[-97.58968,29.34169],[-97.59044,29.34311],[-97.59321,29.34453],[-97.59269,29.34683],[-97.59421,29.3473],[-97.59438,29.34837],[-97.5933,29.35112],[-97.59034,29.35362],[-97.59095,29.35804],[-97.58922,29.36091],[-97.58995,29.36274],[-97.58797,29.36348],[-97.58844,29.36462],[-97.58786,29.36678],[-97.592,29.36753],[-97.59409,29.3671],[-97.59359,29.3682],[-97.59529,29.37026],[-97.59519,29.3718],[-97.59336,29.37219],[-97.59406,29.37399],[-97.59354,29.37569],[-97.58876,29.37798],[-97.58771,29.37999],[-97.58959,29.38061],[-97.58795,29.38357],[-97.58787,29.38529],[-97.59075,29.38538],[-97.59096,29.38655],[-97.58962,29.38767],[-97.59184,29.38832],[-97.59201,29.39136],[-97.59088,29.3932],[-97.59242,29.39354],[-97.59309,29.39479],[-97.59077,29.39357],[-97.57601,29.37816],[-97.5649,29.37386],[-97.56331,29.37576],[-97.5454,29.38729],[-97.54286,29.3908],[-97.54098,29.39542],[-97.53842,29.39665],[-97.53514,29.40682],[-97.53528,29.41602],[-97.51504,29.41579],[-97.50782,29.42192],[-97.50341,29.42877],[-97.49766,29.43403],[-97.49022,29.44595],[-97.51545,29.43871],[-97.52585,29.43856],[-97.52987,29.43702],[-97.53228,29.43862],[-97.53836,29.44631],[-97.53457,29.44911],[-97.53279,29.44845],[-97.53219,29.45006],[-97.53098,29.45005],[-97.5319,29.44719],[-97.53007,29.44744],[-97.52923,29.4485],[-97.528,29.44788],[-97.52828,29.44969],[-97.52962,29.44948],[-97.52978,29.45005],[-97.52629,29.45237],[-97.52533,29.45853],[-97.52676,29.4593],[-97.52836,29.45896],[-97.53197,29.45567],[-97.53306,29.4555],[-97.53424,29.4563],[-97.53362,29.45835],[-97.53405,29.4596],[-97.5369,29.45967],[-97.53941,29.4612],[-97.54329,29.46725],[-97.54334,29.46819],[-97.54143,29.46823],[-97.54027,29.46929],[-97.54093,29.47096],[-97.54339,29.47295],[-97.54177,29.4752],[-97.54226,29.47898],[-97.54829,29.47483],[-97.55017,29.47011],[-97.553,29.47112],[-97.55884,29.4708],[-97.56075,29.47209],[-97.56107,29.47353],[-97.55568,29.47587],[-97.55541,29.47671],[-97.55896,29.47784],[-97.55951,29.48109],[-97.55903,29.48264],[-97.56058,29.48304],[-97.56241,29.48149],[-97.56298,29.47924],[-97.56413,29.47883],[-97.56556,29.47966],[-97.56776,29.47845],[-97.56752,29.47752],[-97.56557,29.4765],[-97.56501,29.47495],[-97.56977,29.46904],[-97.57092,29.46881],[-97.57296,29.4714],[-97.57467,29.47617],[-97.57719,29.47796],[-97.57659,29.47966],[-97.57358,29.47943],[-97.57214,29.48138],[-97.57237,29.48234],[-97.58011,29.48613],[-97.58748,29.48763],[-97.58738,29.48599],[-97.58883,29.48242],[-97.59265,29.47981],[-97.59781,29.4666],[-97.6087,29.46875],[-97.61003,29.46392],[-97.61388,29.45961],[-97.61539,29.45484],[-97.62846,29.45535],[-97.62858,29.45279],[-97.62749,29.44971],[-97.63061,29.44955],[-97.63152,29.43757],[-97.63738,29.43764],[-97.63793,29.42926],[-97.64341,29.42646],[-97.63791,29.41637],[-97.65149,29.41693],[-97.66534,29.41949],[-97.67186,29.41948],[-97.67411,29.41856],[-97.67488,29.40734]]]}},{"type":"Feature","properties":{"zip_code":"78629"},"geometry":{"type":"Polygon","coordinates":[[[-97.74751,29.4989],[-97.74522,29.49833],[-97.73973,29.49928],[-97.73327,29.50401],[-97.72749,29.50532],[-97.71382,29.50442],[-97.70894,29.50191],[-97.70357,29.4978],[-97.69341,29.49669],[-97.68813,29.49187],[-97.68083,29.48756],[-97.67729,29.48303],[-97.67918,29.46616],[-97.6801,29.46574],[-97.68062,29.4592],[-97.6816,29.45886],[-97.68198,29.45468],[-97.68351,29.45054],[-97.68435,29.44234],[-97.66926,29.44138],[-97.66961,29.43417],[-97.66548,29.43494],[-97.66277,29.42989],[-97.65968,29.4279],[-97.65255,29.41706],[-97.65149,29.41693],[-97.63791,29.41637],[-97.64341,29.42646],[-97.63793,29.42926],[-97.63738,29.43764],[-97.63152,29.43757],[-97.63061,29.44955],[-97.62749,29.44971],[-97.62858,29.45279],[-97.62846,29.45535],[-97.61539,29.45484],[-97.61388,29.45961],[-97.61003,29.46392],[-97.6087,29.46875],[-97.59781,29.4666],[-97.59265,29.47981],[-97.58883,29.48242],[-97.58738,29.48599],[-97.58748,29.48763],[-97.58011,29.48613],[-97.57237,29.48234],[-97.57214,29.48138],[-97.57358,29.47943],[-97.57659,29.47966],[-97.57719,29.47796],[-97.57467,29.47617],[-97.57296,29.4714],[-97.57092,29.46881],[-97.56977,29.46904],[-97.56501,29.47495],[-97.56557,29.4765],[-97.56752,29.47752],[-97.56776,29.47845],[-97.56556,29.47966],[-97.56413,29.47883],[-97.56298,29.47924],[-97.56241,29.48149],[-97.56058,29.48304],[-97.55903,29.48264],[-97.55951,29.48109],[-97.55896,29.47784],[-97.55541,29.47671],[-97.55568,29.47587],[-97.56107,29.47353],[-97.56075,29.47209],[-97.55884,29.4708],[-97.553,29.47112],[-97.55017,29.47011],[-97.54829,29.47483],[-97.54226,29.47898],[-97.54177,29.4752],[-97.54339,29.47295],[-97.54093,29.47096],[-97.54027,29.46929],[-97.54143,29.46823],[-97.54334,29.46819],[-97.54329,29.46725],[-97.53941,29.4612],[-97.5369,29.45967],[-97.53405,29.4596],[-97.53362,29.45835],[-97.53424,29.4563],[-97.53306,29.4555],[-97.53197,29.45567],[-97.52836,29.45896],[-97.52676,29.4593],[-97.52533,29.45853],[-97.52629,29.45237],[-97.52978,29.45005],[-97.52962,29.44948],[-97.52828,29.44969],[-97.528,29.44788],[-97.52923,29.4485],[-97.53007,29.44744],[-97.5319,29.44719],[-97.53098,29.45005],[-97.53219,29.45006],[-97.53279,29.44845],[-97.53457,29.44911],[-97.53836,29.44631],[-97.53153,29.43802],[-97.52987,29.43702],[-97.52585,29.43856],[-97.51584,29.43863],[-97.49022,29.44595],[-97.49766,29.43403],[-97.50341,29.42877],[-97.50782,29.42192],[-97.51504,29.41579],[-97.53528,29.41602],[-97.53514,29.40682],[-97.53842,29.39665],[-97.54098,29.39542],[-97.54286,29.3908],[-97.5454,29.38729],[-97.56359,29.37555],[-97.56644,29.3712],[-97.56678,29.3686],[-97.56465,29.3668],[-97.56053,29.36592],[-97.56078,29.36349],[-97.55053,29.36029],[-97.5465,29.36004],[-97.54589,29.35606],[-97.54237,29.35449],[-97.52717,29.34181],[-97.54096,29.32862],[-97.53547,29.32841],[-97.53512,29.33081],[-97.53353,29.33141],[-97.53057,29.32971],[-97.52927,29.32731],[-97.52872,29.32332],[-97.53063,29.31958],[-97.52796,29.31814],[-97.52773,29.3163],[-97.52668,29.31589],[-97.52579,29.31351],[-97.5248,29.31351],[-97.52501,29.31578],[-97.52394,29.31578],[-97.52213,29.31415],[-97.52305,29.31213],[-97.52245,29.31073],[-97.51983,29.31254],[-97.51787,29.31156],[-97.51439,29.31302],[-97.51413,29.31366],[-97.51502,29.31442],[-97.51337,29.31557],[-97.51212,29.3155],[-97.51204,29.31346],[-97.51118,29.31314],[-97.50921,29.31556],[-97.50769,29.3149],[-97.50683,29.31309],[-97.50542,29.313],[-97.50629,29.311],[-97.50388,29.30951],[-97.50443,29.30711],[-97.502,29.30493],[-97.49893,29.30624],[-97.49723,29.30488],[-97.49553,29.30484],[-97.49435,29.30677],[-97.49255,29.30544],[-97.49378,29.30404],[-97.49312,29.30305],[-97.49161,29.30303],[-97.49009,29.3045],[-97.48959,29.30326],[-97.49127,29.30152],[-97.49106,29.29884],[-97.48943,29.29758],[-97.4876,29.29751],[-97.48679,29.29636],[-97.48721,29.29474],[-97.48543,29.29258],[-97.48559,29.29075],[-97.48689,29.28912],[-97.48645,29.28614],[-97.48047,29.29008],[-97.47934,29.28901],[-97.46922,29.29742],[-97.47326,29.3017],[-97.46697,29.30625],[-97.458,29.30347],[-97.44861,29.32681],[-97.43462,29.32237],[-97.43678,29.31417],[-97.43236,29.31271],[-97.43,29.31056],[-97.42158,29.30978],[-97.41684,29.31448],[-97.37905,29.28297],[-97.37028,29.28937],[-97.36501,29.28508],[-97.36289,29.28656],[-97.35481,29.27984],[-97.33943,29.27957],[-97.33561,29.28328],[-97.33513,29.28791],[-97.33827,29.28713],[-97.33887,29.28763],[-97.33775,29.29003],[-97.33623,29.29095],[-97.33503,29.29031],[-97.33391,29.28727],[-97.33127,29.286],[-97.32874,29.28742],[-97.32723,29.28407],[-97.32453,29.28345],[-97.32192,29.28143],[-97.32064,29.28217],[-97.32023,29.2848],[-97.31591,29.28804],[-97.31566,29.28936],[-97.31763,29.2912],[-97.31757,29.29212],[-97.31526,29.29359],[-97.31272,29.29356],[-97.31168,29.29489],[-97.31125,29.29665],[-97.3125,29.29984],[-97.30963,29.30253],[-97.30626,29.31076],[-97.30214,29.31625],[-97.30481,29.32094],[-97.30879,29.32267],[-97.31085,29.32483],[-97.31165,29.33053],[-97.30858,29.33134],[-97.3054,29.32911],[-97.30437,29.32763],[-97.30386,29.32409],[-97.30136,29.32456],[-97.29728,29.32681],[-97.29608,29.32855],[-97.29568,29.33126],[-97.29952,29.3312],[-97.30019,29.33215],[-97.29459,29.33555],[-97.29343,29.33888],[-97.2898,29.3403],[-97.28623,29.34596],[-97.28688,29.34751],[-97.29028,29.35014],[-97.29337,29.35019],[-97.29264,29.35247],[-97.29332,29.35314],[-97.29675,29.35275],[-97.29774,29.35657],[-97.30176,29.35713],[-97.30404,29.35906],[-97.30538,29.36156],[-97.30551,29.36449],[-97.30916,29.36868],[-97.31109,29.37229],[-97.3131,29.37218],[-97.31293,29.37005],[-97.31402,29.36919],[-97.31837,29.36884],[-97.32031,29.37045],[-97.31859,29.37356],[-97.32072,29.38092],[-97.31994,29.38303],[-97.31591,29.38431],[-97.31091,29.38869],[-97.30987,29.39105],[-97.30731,29.38994],[-97.30519,29.39265],[-97.30317,29.39103],[-97.30311,29.38862],[-97.29874,29.38738],[-97.29887,29.38929],[-97.29751,29.39018],[-97.29866,29.39126],[-97.29851,29.3922],[-97.29691,29.39231],[-97.29631,29.39337],[-97.29375,29.39197],[-97.29372,29.39346],[-97.29194,29.39476],[-97.2906,29.39408],[-97.28893,29.39513],[-97.28775,29.39467],[-97.28697,29.39545],[-97.28744,29.39765],[-97.28657,29.39866],[-97.28757,29.39891],[-97.28642,29.40052],[-97.28926,29.40564],[-97.28874,29.40729],[-97.28976,29.40892],[-97.30554,29.4243],[-97.30745,29.4249],[-97.3112,29.42343],[-97.31129,29.42571],[-97.31379,29.42575],[-97.31266,29.42836],[-97.31269,29.43038],[-97.31371,29.43166],[-97.31353,29.43583],[-97.31429,29.43702],[-97.31319,29.44053],[-97.31481,29.44458],[-97.31316,29.44495],[-97.31303,29.44564],[-97.31504,29.4469],[-97.31481,29.44809],[-97.31651,29.45029],[-97.31659,29.45235],[-97.31803,29.45309],[-97.31719,29.45565],[-97.31829,29.45776],[-97.31685,29.4602],[-97.31597,29.45998],[-97.31479,29.46108],[-97.29579,29.45754],[-97.29459,29.46131],[-97.28426,29.45333],[-97.30976,29.47276],[-97.3065,29.47687],[-97.28703,29.48043],[-97.28468,29.47927],[-97.28291,29.48749],[-97.28745,29.49947],[-97.28493,29.50232],[-97.2763,29.49608],[-97.27903,29.49336],[-97.2645,29.4829],[-97.25649,29.48533],[-97.25084,29.48558],[-97.22189,29.51903],[-97.22041,29.51902],[-97.2213,29.52093],[-97.22243,29.5215],[-97.22556,29.52083],[-97.23178,29.52364],[-97.23778,29.52343],[-97.23623,29.52764],[-97.2309,29.52781],[-97.22938,29.52967],[-97.2295,29.53677],[-97.22609,29.53733],[-97.22564,29.54328],[-97.21982,29.54797],[-97.21907,29.55593],[-97.21396,29.55908],[-97.2159,29.55932],[-97.21604,29.56895],[-97.21709,29.57094],[-97.22716,29.57122],[-97.22831,29.58789],[-97.22519,29.58803],[-97.21802,29.5864],[-97.21803,29.59071],[-97.22814,29.59061],[-97.22816,29.59407],[-97.22902,29.59607],[-97.24194,29.59598],[-97.24234,29.6003],[-97.25377,29.60032],[-97.25403,29.60329],[-97.25517,29.60339],[-97.25593,29.60192],[-97.25796,29.60092],[-97.25715,29.5989],[-97.25956,29.5974],[-97.26116,29.59773],[-97.26169,29.59654],[-97.26463,29.59528],[-97.26746,29.59279],[-97.26764,29.59175],[-97.26599,29.59042],[-97.26691,29.58873],[-97.28419,29.5743],[-97.2848,29.57343],[-97.28461,29.57017],[-97.28598,29.56909],[-97.28506,29.56843],[-97.28495,29.5671],[-97.28666,29.56744],[-97.28682,29.5663],[-97.28891,29.56722],[-97.28826,29.56974],[-97.29075,29.57217],[-97.28923,29.57301],[-97.28792,29.57207],[-97.28715,29.57395],[-97.29001,29.57409],[-97.29056,29.57744],[-97.29292,29.57769],[-97.29499,29.57682],[-97.29426,29.58019],[-97.29224,29.58149],[-97.29397,29.58656],[-97.29418,29.58851],[-97.2932,29.58981],[-97.29364,29.59236],[-97.29492,29.59365],[-97.29496,29.59554],[-97.29679,29.59562],[-97.2998,29.59849],[-97.30335,29.59622],[-97.3045,29.59629],[-97.30476,29.59719],[-97.30314,29.59921],[-97.30332,29.60123],[-97.3071,29.60089],[-97.314,29.60441],[-97.31155,29.60615],[-97.31113,29.6086],[-97.3081,29.61059],[-97.30832,29.61238],[-97.30996,29.61372],[-97.30785,29.61698],[-97.31103,29.61708],[-97.30873,29.62102],[-97.30846,29.6232],[-97.30951,29.6241],[-97.31503,29.62391],[-97.31716,29.62223],[-97.32081,29.62488],[-97.3218,29.62161],[-97.32661,29.6142],[-97.33357,29.60564],[-97.33913,29.60123],[-97.3391,29.59595],[-97.33714,29.5958],[-97.33711,29.59054],[-97.33872,29.58989],[-97.33954,29.58056],[-97.34644,29.58042],[-97.34719,29.57551],[-97.35135,29.57527],[-97.3517,29.57712],[-97.35235,29.57728],[-97.35147,29.58035],[-97.3522,29.58257],[-97.35167,29.58364],[-97.35335,29.58705],[-97.35397,29.59194],[-97.35806,29.58786],[-97.36602,29.58375],[-97.37171,29.57636],[-97.37233,29.57686],[-97.37174,29.57858],[-97.3734,29.57902],[-97.3739,29.58059],[-97.37309,29.58226],[-97.37376,29.58599],[-97.37712,29.58757],[-97.37702,29.58842],[-97.38015,29.58935],[-97.38173,29.5931],[-97.38105,29.64118],[-97.39495,29.64113],[-97.40517,29.61796],[-97.42021,29.61778],[-97.42012,29.61506],[-97.42279,29.61326],[-97.42219,29.61035],[-97.42466,29.60964],[-97.42515,29.60703],[-97.42801,29.60625],[-97.43105,29.60684],[-97.43206,29.60785],[-97.43601,29.60797],[-97.43602,29.61324],[-97.46095,29.60823],[-97.46391,29.60562],[-97.4588,29.59451],[-97.47477,29.5891],[-97.47754,29.59641],[-97.47574,29.60575],[-97.47583,29.60898],[-97.473,29.60738],[-97.46393,29.61728],[-97.46734,29.62117],[-97.46927,29.62664],[-97.47222,29.63049],[-97.47409,29.63496],[-97.47998,29.64185],[-97.4841,29.64967],[-97.48822,29.64924],[-97.50449,29.65021],[-97.50395,29.64687],[-97.50164,29.6444],[-97.50638,29.64083],[-97.50019,29.63463],[-97.50452,29.63105],[-97.49775,29.62377],[-97.49528,29.62565],[-97.49151,29.61174],[-97.50385,29.60755],[-97.50746,29.60516],[-97.50499,29.59933],[-97.51794,29.58645],[-97.52204,29.58938],[-97.52313,29.58809],[-97.5577,29.61473],[-97.56115,29.6097],[-97.56985,29.61694],[-97.57131,29.62021],[-97.57068,29.62072],[-97.56973,29.63119],[-97.56803,29.63283],[-97.5685,29.63429],[-97.56627,29.63627],[-97.56605,29.6396],[-97.56684,29.64043],[-97.56719,29.6432],[-97.56662,29.64731],[-97.5657,29.64854],[-97.59757,29.63082],[-97.59142,29.62638],[-97.59141,29.625],[-97.58931,29.62306],[-97.58767,29.62398],[-97.58839,29.6187],[-97.58962,29.61865],[-97.5868,29.61635],[-97.5866,29.61375],[-97.59368,29.61093],[-97.59058,29.60998],[-97.58674,29.60732],[-97.5861,29.60542],[-97.58669,29.60299],[-97.58602,29.6019],[-97.58729,29.60015],[-97.59048,29.59985],[-97.59379,29.59754],[-97.59328,29.59476],[-97.59122,29.59547],[-97.58952,29.59302],[-97.58788,29.59255],[-97.58881,29.59122],[-97.59092,29.59293],[-97.5958,29.59019],[-97.60182,29.58964],[-97.60298,29.59035],[-97.60348,29.58978],[-97.60415,29.59101],[-97.60917,29.58667],[-97.60652,29.58025],[-97.60824,29.57883],[-97.60497,29.57624],[-97.6053,29.5744],[-97.60118,29.56995],[-97.60944,29.56369],[-97.61358,29.56771],[-97.61865,29.5686],[-97.61986,29.57175],[-97.62225,29.57127],[-97.6253,29.57313],[-97.62973,29.57088],[-97.6311,29.56939],[-97.63242,29.56578],[-97.63862,29.56513],[-97.64135,29.56307],[-97.64816,29.56738],[-97.64572,29.56895],[-97.64765,29.57692],[-97.6509,29.58312],[-97.65487,29.58653],[-97.66499,29.60772],[-97.72253,29.53178],[-97.71832,29.53068],[-97.70621,29.5303],[-97.6929,29.52435],[-97.685,29.52374],[-97.68421,29.52323],[-97.68638,29.51847],[-97.68983,29.51618],[-97.68976,29.5184],[-97.69113,29.51966],[-97.69202,29.51951],[-97.69159,29.51724],[-97.69418,29.51536],[-97.69785,29.5176],[-97.69855,29.5159],[-97.69708,29.51498],[-97.69952,29.51404],[-97.70117,29.51466],[-97.70072,29.51576],[-97.69931,29.51608],[-97.69936,29.51722],[-97.70295,29.5155],[-97.70413,29.51737],[-97.70619,29.51763],[-97.70709,29.51688],[-97.70594,29.51496],[-97.70958,29.51438],[-97.71002,29.51486],[-97.70806,29.51603],[-97.70726,29.51866],[-97.71112,29.5193],[-97.7124,29.52095],[-97.71259,29.51733],[-97.7152,29.51884],[-97.71731,29.51869],[-97.72043,29.51677],[-97.72042,29.51566],[-97.71744,29.51522],[-97.72111,29.5125],[-97.72329,29.51462],[-97.72655,29.52075],[-97.72765,29.52502],[-97.74751,29.4989]]]}},{"type":"Feature","properties":{"zip_code":"78632"},"geometry":{"type":"Polygon","coordinates":[[[-97.55772,29.65293],[-97.55407,29.65251],[-97.5523,29.65031],[-97.53332,29.64111],[-97.54231,29.63411],[-97.5448,29.63505],[-97.5577,29.61473],[-97.52313,29.58809],[-97.52204,29.58938],[-97.51794,29.58645],[-97.5169,29.58684],[-97.50499,29.59933],[-97.50703,29.60317],[-97.50746,29.60516],[-97.50501,29.60656],[-97.50385,29.60755],[-97.49151,29.61174],[-97.49528,29.62565],[-97.49775,29.62377],[-97.50452,29.63105],[-97.50019,29.63463],[-97.5005,29.6352],[-97.50638,29.64083],[-97.50164,29.6444],[-97.50395,29.64687],[-97.50449,29.65021],[-97.48822,29.64924],[-97.4841,29.64967],[-97.47998,29.64185],[-97.47409,29.63496],[-97.47222,29.63049],[-97.46927,29.62664],[-97.46734,29.62117],[-97.46393,29.61728],[-97.473,29.60738],[-97.47335,29.60733],[-97.47583,29.60898],[-97.47574,29.60575],[-97.47677,29.6016],[-97.47754,29.59641],[-97.47726,29.59512],[-97.47477,29.5891],[-97.4588,29.59451],[-97.46341,29.60415],[-97.46391,29.60562],[-97.46095,29.60823],[-97.43602,29.61324],[-97.43601,29.60797],[-97.43206,29.60785],[-97.43133,29.60758],[-97.43105,29.60684],[-97.42995,29.60689],[-97.42977,29.60641],[-97.42946,29.60627],[-97.42801,29.60625],[-97.4271,29.60666],[-97.42515,29.60703],[-97.42479,29.60769],[-97.42466,29.60964],[-97.424,29.61],[-97.42253,29.61005],[-97.42219,29.61035],[-97.42245,29.61246],[-97.42279,29.6128],[-97.42279,29.61326],[-97.42222,29.61356],[-97.4218,29.61443],[-97.42057,29.61469],[-97.42012,29.61506],[-97.42021,29.61778],[-97.40517,29.61796],[-97.3983,29.63281],[-97.3976,29.63517],[-97.39419,29.64307],[-97.39285,29.64719],[-97.39275,29.65051],[-97.39012,29.6561],[-97.3888,29.66182],[-97.40029,29.66013],[-97.40015,29.68734],[-97.39205,29.69002],[-97.3914,29.69107],[-97.39198,29.69213],[-97.37811,29.69598],[-97.38118,29.70142],[-97.38184,29.70316],[-97.38277,29.70326],[-97.38501,29.7041],[-97.38663,29.70431],[-97.38781,29.70481],[-97.38838,29.70533],[-97.38909,29.70737],[-97.39005,29.70921],[-97.3927,29.71119],[-97.3987,29.71436],[-97.40064,29.71487],[-97.40665,29.71727],[-97.40898,29.71938],[-97.40994,29.71983],[-97.40946,29.75929],[-97.41933,29.76773],[-97.41654,29.77309],[-97.41732,29.77393],[-97.41831,29.7741],[-97.42146,29.77551],[-97.42574,29.77813],[-97.42935,29.78002],[-97.42984,29.78052],[-97.43099,29.78281],[-97.43257,29.78499],[-97.43838,29.79086],[-97.43843,29.79156],[-97.43722,29.79365],[-97.43717,29.7942],[-97.44694,29.79753],[-97.44711,29.79798],[-97.44958,29.79375],[-97.45114,29.79372],[-97.45423,29.79378],[-97.45432,29.79464],[-97.45486,29.79493],[-97.46103,29.79504],[-97.46562,29.79753],[-97.4658,29.7982],[-97.48248,29.79841],[-97.48291,29.78866],[-97.48308,29.77514],[-97.48223,29.77471],[-97.48144,29.77468],[-97.4817,29.77448],[-97.47674,29.77211],[-97.47966,29.76736],[-97.4798,29.75511],[-97.4799,29.7553],[-97.48513,29.75546],[-97.49613,29.7555],[-97.49629,29.76095],[-97.5179,29.76056],[-97.51765,29.7589],[-97.51799,29.75843],[-97.51799,29.74532],[-97.51853,29.74512],[-97.52489,29.7452],[-97.52508,29.74307],[-97.52547,29.74281],[-97.52684,29.74261],[-97.52666,29.73492],[-97.52677,29.7195],[-97.52531,29.71426],[-97.52438,29.71223],[-97.52045,29.70791],[-97.51941,29.70646],[-97.51808,29.70355],[-97.5175,29.70132],[-97.52134,29.70157],[-97.5292,29.70391],[-97.53446,29.70426],[-97.53459,29.69954],[-97.54944,29.68825],[-97.5452,29.68383],[-97.55729,29.67484],[-97.53045,29.66792],[-97.55772,29.65293]]]}},{"type":"Feature","properties":{"zip_code":"78658"},"geometry":{"type":"Polygon","coordinates":[[[-97.66499,29.60772],[-97.66463,29.60698],[-97.65765,29.60454],[-97.65583,29.60245],[-97.65105,29.59948],[-97.64911,29.59712],[-97.64869,29.5944],[-97.64562,29.59398],[-97.63817,29.58603],[-97.64202,29.58334],[-97.63967,29.58095],[-97.63948,29.57787],[-97.64712,29.57295],[-97.64572,29.56895],[-97.64816,29.56738],[-97.64135,29.56307],[-97.63862,29.56513],[-97.63242,29.56578],[-97.6311,29.56939],[-97.62973,29.57088],[-97.6253,29.57313],[-97.62225,29.57127],[-97.61986,29.57175],[-97.61865,29.5686],[-97.61358,29.56771],[-97.60944,29.56369],[-97.60118,29.56995],[-97.6053,29.5744],[-97.60497,29.57624],[-97.60824,29.57883],[-97.60652,29.58025],[-97.60917,29.58667],[-97.6042,29.591],[-97.60348,29.58978],[-97.60298,29.59035],[-97.60182,29.58964],[-97.5958,29.59019],[-97.59092,29.59293],[-97.59366,29.59467],[-97.59454,29.59644],[-97.60146,29.59767],[-97.60214,29.60384],[-97.60589,29.60615],[-97.61067,29.61107],[-97.61951,29.61559],[-97.62614,29.62361],[-97.63034,29.62153],[-97.63467,29.61811],[-97.63829,29.61775],[-97.64124,29.61303],[-97.64577,29.60953],[-97.64951,29.61296],[-97.6531,29.61144],[-97.65597,29.61247],[-97.66061,29.61259],[-97.66499,29.60772]]]}},{"type":"Feature","properties":{"zip_code":"78677"},"geometry":{"type":"Polygon","coordinates":[[[-97.65319,29.33921],[-97.62946,29.31516],[-97.62763,29.31474],[-97.62717,29.3129],[-97.61545,29.30049],[-97.57824,29.32733],[-97.57524,29.33155],[-97.56269,29.34262],[-97.54631,29.32849],[-97.5454,29.32988],[-97.54598,29.33105],[-97.54226,29.33114],[-97.53995,29.32993],[-97.52717,29.34181],[-97.54237,29.35449],[-97.54589,29.35606],[-97.5465,29.36004],[-97.55053,29.36029],[-97.56085,29.36354],[-97.56053,29.36592],[-97.56465,29.3668],[-97.56678,29.3686],[-97.56632,29.3716],[-97.5649,29.37386],[-97.57601,29.37816],[-97.59255,29.39505],[-97.59317,29.39458],[-97.59242,29.39354],[-97.59083,29.39281],[-97.59198,29.39161],[-97.59194,29.3885],[-97.58962,29.38767],[-97.59096,29.38655],[-97.59075,29.38538],[-97.58787,29.38529],[-97.58795,29.38357],[-97.58959,29.38061],[-97.58808,29.38036],[-97.58779,29.37914],[-97.59239,29.37578],[-97.59354,29.37569],[-97.59406,29.37399],[-97.59336,29.37219],[-97.59508,29.37232],[-97.59529,29.37026],[-97.59359,29.3682],[-97.59378,29.36689],[-97.592,29.36753],[-97.58786,29.36678],[-97.58844,29.36462],[-97.58797,29.36348],[-97.58995,29.36274],[-97.58922,29.36091],[-97.59095,29.35804],[-97.59034,29.35362],[-97.5933,29.35112],[-97.59447,29.34757],[-97.59269,29.34683],[-97.59321,29.34453],[-97.59011,29.34276],[-97.58968,29.34169],[-97.59043,29.33989],[-97.59296,29.33886],[-97.59498,29.34148],[-97.59976,29.34324],[-97.60104,29.34294],[-97.60185,29.34518],[-97.60405,29.3469],[-97.60669,29.34782],[-97.60792,29.3475],[-97.60989,29.34901],[-97.61151,29.34882],[-97.61593,29.35036],[-97.61925,29.34965],[-97.62205,29.35244],[-97.62349,29.35134],[-97.62493,29.35333],[-97.62941,29.35276],[-97.63006,29.35432],[-97.6337,29.35574],[-97.63348,29.35732],[-97.64001,29.35767],[-97.64017,29.35675],[-97.64344,29.35418],[-97.64258,29.35255],[-97.64307,29.3516],[-97.64509,29.3508],[-97.64426,29.34598],[-97.65319,29.33921]]]}},{"type":"Feature","properties":{"zip_code":"78959"},"geometry":{"type":"Polygon","coordinates":[[[-97.40994,29.71983],[-97.40898,29.71938],[-97.40665,29.71727],[-97.40064,29.71487],[-97.3987,29.71436],[-97.3927,29.71119],[-97.39005,29.70921],[-97.38909,29.70737],[-97.38838,29.70533],[-97.38781,29.70481],[-97.38663,29.70431],[-97.38501,29.7041],[-97.38277,29.70326],[-97.38184,29.70316],[-97.38118,29.70142],[-97.37811,29.69598],[-97.39198,29.69213],[-97.3914,29.69107],[-97.39205,29.69002],[-97.40015,29.68734],[-97.40029,29.66013],[-97.3888,29.66182],[-97.39012,29.6561],[-97.39275,29.65051],[-97.39288,29.64706],[-97.39495,29.64113],[-97.38105,29.64118],[-97.38176,29.59347],[-97.38123,29.59347],[-97.38173,29.59331],[-97.38173,29.5931],[-97.38115,29.59239],[-97.38128,29.59145],[-97.38055,29.59108],[-97.38041,29.59046],[-97.38083,29.59002],[-97.38004,29.58981],[-97.38015,29.58935],[-97.37912,29.58937],[-97.37909,29.58898],[-97.3788,29.5888],[-97.37791,29.58886],[-97.37702,29.58842],[-97.37683,29.58815],[-97.3772,29.58778],[-97.37712,29.58757],[-97.37586,29.58693],[-97.37475,29.58691],[-97.37376,29.58599],[-97.37381,29.58493],[-97.3735,29.58449],[-97.37346,29.58295],[-97.37309,29.58226],[-97.3739,29.58059],[-97.37335,29.58001],[-97.3734,29.57902],[-97.37313,29.57889],[-97.3725,29.57927],[-97.37221,29.57875],[-97.37174,29.57858],[-97.37168,29.57803],[-97.37233,29.57686],[-97.37171,29.57636],[-97.36602,29.58375],[-97.35806,29.58786],[-97.35397,29.59194],[-97.3537,29.58945],[-97.35328,29.58904],[-97.35335,29.58705],[-97.35293,29.58666],[-97.35296,29.58607],[-97.35231,29.58543],[-97.35229,29.58456],[-97.35167,29.58364],[-97.35162,29.58321],[-97.35218,29.58291],[-97.3522,29.58257],[-97.35164,29.58167],[-97.35198,29.58073],[-97.35147,29.58035],[-97.3521,29.57978],[-97.35206,29.57776],[-97.35235,29.57758],[-97.35235,29.57728],[-97.3517,29.57712],[-97.35135,29.57527],[-97.348,29.57524],[-97.34719,29.57551],[-97.34708,29.57899],[-97.34653,29.57957],[-97.34644,29.58042],[-97.3396,29.58051],[-97.33943,29.58105],[-97.33947,29.58553],[-97.33867,29.58639],[-97.33872,29.58989],[-97.33847,29.59012],[-97.33734,29.59017],[-97.33711,29.59054],[-97.33714,29.5958],[-97.33881,29.59577],[-97.3391,29.59595],[-97.33913,29.60123],[-97.33701,29.60247],[-97.33539,29.60417],[-97.33357,29.60564],[-97.32661,29.6142],[-97.3218,29.62161],[-97.32081,29.62488],[-97.31875,29.62306],[-97.31716,29.62223],[-97.31638,29.62249],[-97.31503,29.62391],[-97.3124,29.62362],[-97.30951,29.6241],[-97.30846,29.6232],[-97.30873,29.62102],[-97.30909,29.62015],[-97.31072,29.61841],[-97.31103,29.61708],[-97.3105,29.61673],[-97.30982,29.61673],[-97.30841,29.61726],[-97.30785,29.61698],[-97.30794,29.61615],[-97.30931,29.61478],[-97.30996,29.61372],[-97.30832,29.61238],[-97.3081,29.61059],[-97.30848,29.60982],[-97.31041,29.60919],[-97.31113,29.6086],[-97.31168,29.60739],[-97.31155,29.60615],[-97.31236,29.60541],[-97.31397,29.60467],[-97.314,29.60441],[-97.31236,29.6031],[-97.3096,29.60246],[-97.30845,29.60136],[-97.30763,29.60125],[-97.3071,29.60089],[-97.30542,29.60059],[-97.30408,29.60146],[-97.30332,29.60123],[-97.30311,29.60097],[-97.30314,29.59921],[-97.30476,29.59719],[-97.30487,29.59682],[-97.3045,29.59629],[-97.30335,29.59622],[-97.30101,29.59796],[-97.2998,29.59849],[-97.29865,29.5975],[-97.2977,29.59711],[-97.29679,29.59562],[-97.29496,29.59554],[-97.29492,29.59365],[-97.29364,29.59236],[-97.2932,29.58981],[-97.29368,29.58949],[-97.29418,29.58851],[-97.29397,29.58656],[-97.29329,29.58569],[-97.29326,29.58509],[-97.29268,29.58431],[-97.29224,29.58149],[-97.29279,29.58062],[-97.29392,29.58065],[-97.29426,29.58019],[-97.29431,29.57902],[-97.29499,29.57741],[-97.29499,29.57682],[-97.29463,29.57645],[-97.29292,29.57769],[-97.29166,29.57739],[-97.29056,29.57744],[-97.29033,29.5773],[-97.2903,29.57691],[-97.29067,29.57508],[-97.29001,29.57409],[-97.28946,29.57391],[-97.28812,29.57443],[-97.28739,29.57425],[-97.28715,29.57395],[-97.28792,29.57207],[-97.28818,29.57205],[-97.28923,29.57301],[-97.29048,29.57267],[-97.29075,29.57217],[-97.28826,29.56974],[-97.28807,29.56877],[-97.28891,29.56781],[-97.28891,29.56722],[-97.28813,29.56708],[-97.28666,29.56625],[-97.28634,29.5666],[-97.28682,29.56717],[-97.28666,29.56744],[-97.28598,29.56738],[-97.28535,29.56687],[-97.28495,29.5671],[-97.28548,29.56763],[-97.28503,29.56813],[-97.28506,29.56843],[-97.28572,29.56864],[-97.28598,29.56909],[-97.28545,29.56948],[-97.28545,29.56992],[-97.28461,29.57017],[-97.28464,29.57091],[-97.2849,29.57125],[-97.28456,29.57189],[-97.2848,29.57343],[-97.28419,29.5743],[-97.26846,29.58788],[-97.26691,29.58873],[-97.26599,29.59042],[-97.26657,29.59143],[-97.26764,29.59175],[-97.26746,29.59279],[-97.26489,29.59482],[-97.26463,29.59528],[-97.26169,29.59654],[-97.26116,29.59773],[-97.26001,29.59765],[-97.25988,29.5974],[-97.25956,29.5974],[-97.25822,29.59803],[-97.25715,29.5989],[-97.25704,29.59973],[-97.25798,29.60061],[-97.25796,29.60092],[-97.25593,29.60192],[-97.25533,29.60273],[-97.25517,29.60339],[-97.25403,29.60329],[-97.25394,29.60053],[-97.25377,29.60032],[-97.24234,29.6003],[-97.24238,29.60469],[-97.24317,29.60617],[-97.24292,29.6065],[-97.24317,29.61568],[-97.23884,29.61344],[-97.2388,29.61384],[-97.23838,29.61428],[-97.23862,29.61554],[-97.23742,29.61741],[-97.23738,29.61867],[-97.23798,29.61915],[-97.23783,29.6202],[-97.23836,29.62141],[-97.23936,29.62205],[-97.23908,29.62329],[-97.23951,29.62429],[-97.23902,29.62564],[-97.23659,29.62778],[-97.2367,29.62892],[-97.23553,29.62963],[-97.23585,29.63153],[-97.23533,29.63255],[-97.23262,29.63527],[-97.23232,29.63619],[-97.23148,29.63701],[-97.231,29.63863],[-97.22374,29.63502],[-97.22264,29.63415],[-97.222,29.63422],[-97.2186,29.6328],[-97.20613,29.65232],[-97.19176,29.65255],[-97.19169,29.6574],[-97.19095,29.66417],[-97.19132,29.68027],[-97.21038,29.68292],[-97.21052,29.69682],[-97.2093,29.69686],[-97.2101,29.73377],[-97.21018,29.7359],[-97.2117,29.73615],[-97.21181,29.74069],[-97.21443,29.74128],[-97.21626,29.74243],[-97.21871,29.74669],[-97.22538,29.75357],[-97.22714,29.75438],[-97.2313,29.75445],[-97.23199,29.75484],[-97.23128,29.75541],[-97.23066,29.75641],[-97.23058,29.75969],[-97.233,29.75937],[-97.23649,29.75847],[-97.23776,29.75944],[-97.24042,29.76049],[-97.24271,29.76069],[-97.24416,29.75231],[-97.24341,29.7505],[-97.25554,29.75057],[-97.25562,29.75334],[-97.25515,29.75482],[-97.2552,29.75943],[-97.25455,29.76719],[-97.25474,29.77717],[-97.22538,29.78061],[-97.22563,29.78585],[-97.23537,29.78566],[-97.23603,29.78438],[-97.23601,29.78183],[-97.23643,29.78153],[-97.24337,29.78298],[-97.24525,29.78433],[-97.24724,29.78472],[-97.25856,29.78461],[-97.25887,29.78396],[-97.25972,29.78373],[-97.26058,29.78669],[-97.26116,29.7876],[-97.26061,29.78928],[-97.26032,29.79138],[-97.2593,29.79195],[-97.25957,29.79881],[-97.25994,29.80217],[-97.24227,29.80259],[-97.22684,29.80264],[-97.22614,29.80194],[-97.22658,29.82106],[-97.2272,29.82212],[-97.23207,29.8352],[-97.23707,29.83529],[-97.23729,29.84301],[-97.25027,29.84272],[-97.2504,29.84078],[-97.25312,29.84061],[-97.25403,29.83875],[-97.25839,29.83855],[-97.29377,29.80654],[-97.29705,29.80595],[-97.29882,29.80273],[-97.3007,29.80321],[-97.31489,29.8087],[-97.31496,29.80596],[-97.3154,29.80411],[-97.32031,29.79411],[-97.3289,29.79767],[-97.32766,29.80408],[-97.3276,29.80835],[-97.32694,29.81091],[-97.32541,29.81298],[-97.32874,29.81552],[-97.33033,29.81628],[-97.33229,29.81208],[-97.33298,29.81153],[-97.33379,29.81143],[-97.33571,29.81036],[-97.33676,29.80914],[-97.33844,29.80554],[-97.33918,29.80467],[-97.33899,29.80339],[-97.33962,29.80268],[-97.33946,29.80114],[-97.33965,29.80085],[-97.34214,29.80062],[-97.34335,29.79887],[-97.34298,29.79523],[-97.34317,29.79447],[-97.34288,29.7934],[-97.34382,29.79218],[-97.34444,29.78963],[-97.34348,29.78859],[-97.34356,29.7862],[-97.34344,29.78549],[-97.34299,29.78495],[-97.34354,29.78241],[-97.34434,29.7813],[-97.3445,29.7807],[-97.34413,29.77912],[-97.34353,29.77827],[-97.34335,29.77731],[-97.34161,29.77722],[-97.3409,29.77665],[-97.34082,29.776],[-97.33986,29.77548],[-97.33982,29.77471],[-97.3387,29.77507],[-97.33724,29.77498],[-97.3363,29.77452],[-97.37567,29.75289],[-97.37488,29.75374],[-97.37483,29.75445],[-97.3759,29.75571],[-97.37624,29.75718],[-97.37612,29.7585],[-97.37629,29.75862],[-97.378,29.75881],[-97.38003,29.75966],[-97.38129,29.75859],[-97.38182,29.75833],[-97.38246,29.7584],[-97.38565,29.75948],[-97.3862,29.76029],[-97.38942,29.76172],[-97.38965,29.76209],[-97.39082,29.75883],[-97.39089,29.75795],[-97.39176,29.75506],[-97.39169,29.7544],[-97.39226,29.75441],[-97.39363,29.75527],[-97.39504,29.75543],[-97.39512,29.75416],[-97.396,29.75057],[-97.39575,29.74977],[-97.39591,29.7481],[-97.3972,29.74915],[-97.39832,29.7513],[-97.40197,29.75299],[-97.40906,29.75887],[-97.40947,29.75894],[-97.40994,29.71983]]]}}]}