{"type":"FeatureCollection","features":[{"type":"Feature","properties":{"zip_code":"78108"},"geometry":{"type":"Polygon","coordinates":[[[-98.26875,29.60675],[-98.26916,29.60642],[-98.26515,29.60032],[-98.263,29.59741],[-98.26184,29.59799],[-98.25337,29.58548],[-98.26362,29.58033],[-98.2627,29.57864],[-98.26007,29.57471],[-98.25715,29.57618],[-98.25098,29.56715],[-98.24796,29.5669],[-98.2472,29.56514],[-98.24357,29.56373],[-98.24567,29.56071],[-98.24744,29.55982],[-98.2464,29.556],[-98.24877,29.55498],[-98.24932,29.55088],[-98.25128,29.54982],[-98.25388,29.5504],[-98.25812,29.54601],[-98.25299,29.54316],[-98.25388,29.54098],[-98.25609,29.54027],[-98.25413,29.53856],[-98.2495,29.53027],[-98.24885,29.53063],[-98.24964,29.5318],[-98.24683,29.53322],[-98.24532,29.53091],[-98.24871,29.52912],[-98.24033,29.53338],[-98.2385,29.53322],[-98.23374,29.52605],[-98.2216,29.53216],[-98.21864,29.52689],[-98.21927,29.52496],[-98.21884,29.52355],[-98.21613,29.52435],[-98.21414,29.52292],[-98.21006,29.52338],[-98.20487,29.52218],[-98.20144,29.51971],[-98.20253,29.51778],[-98.20207,29.51701],[-98.19857,29.51733],[-98.19748,29.51639],[-98.19687,29.51494],[-98.19975,29.51344],[-98.20022,29.51126],[-98.19939,29.50966],[-98.19641,29.50991],[-98.19529,29.51111],[-98.19095,29.50955],[-98.19023,29.50645],[-98.18846,29.50403],[-98.18967,29.50563],[-98.18493,29.50787],[-98.18214,29.5048],[-98.18127,29.50525],[-98.18781,29.51487],[-98.1788,29.51949],[-98.18081,29.52247],[-98.17247,29.5267],[-98.18054,29.53773],[-98.17435,29.53895],[-98.1856,29.55573],[-98.18767,29.5604],[-98.18781,29.56371],[-98.18627,29.56307],[-98.18488,29.56096],[-98.1861,29.56062],[-98.18595,29.55969],[-98.17735,29.56411],[-98.17815,29.56536],[-98.18839,29.56453],[-98.19211,29.57035],[-98.19354,29.56965],[-98.19521,29.57159],[-98.19973,29.57898],[-98.20254,29.57757],[-98.20555,29.58327],[-98.20181,29.58565],[-98.20241,29.58658],[-98.20351,29.58603],[-98.20865,29.59357],[-98.2057,29.59554],[-98.21084,29.6041],[-98.20624,29.60646],[-98.20522,29.60503],[-98.20007,29.60775],[-98.19794,29.6046],[-98.19546,29.60605],[-98.19486,29.60519],[-98.19206,29.60646],[-98.19708,29.61393],[-98.19424,29.6156],[-98.20074,29.62568],[-98.20071,29.62665],[-98.19785,29.62805],[-98.20217,29.6363],[-98.20367,29.6441],[-98.21153,29.63939],[-98.21089,29.63303],[-98.21547,29.63135],[-98.2162,29.63447],[-98.21802,29.6363],[-98.25185,29.61905],[-98.25351,29.61806],[-98.25304,29.61738],[-98.2614,29.61413],[-98.26698,29.60938],[-98.2665,29.6087],[-98.26875,29.60675]]]}},{"type":"Feature","properties":{"zip_code":"78121"},"geometry":{"type":"Polygon","coordinates":[[[-98.20459,29.35824],[-98.18879,29.35801],[-98.18855,29.35886],[-98.18714,29.35872],[-98.18679,29.36135],[-98.18274,29.36109],[-98.18096,29.36732],[-98.16917,29.36484],[-98.16771,29.37064],[-98.16465,29.36987],[-98.16274,29.36585],[-98.1606,29.36701],[-98.15929,29.36496],[-98.15581,29.36677],[-98.15137,29.35996],[-98.15142,29.35814],[-98.15238,29.35814],[-98.15266,29.35627],[-98.15757,29.35734],[-98.15968,29.35161],[-98.16342,29.35202],[-98.16392,29.35056],[-98.1652,29.35082],[-98.1667,29.3467],[-98.16309,29.34589],[-98.16354,29.34184],[-98.16236,29.34161],[-98.16391,29.33616],[-98.16209,29.33574],[-98.16319,29.33208],[-98.16423,29.33241],[-98.16504,29.3308],[-98.16429,29.3282],[-98.16949,29.32938],[-98.17234,29.31928],[-98.17551,29.32004],[-98.1796,29.30656],[-98.18485,29.30766],[-98.18518,29.30671],[-98.18621,29.30693],[-98.18836,29.29713],[-98.18713,29.29683],[-98.1901,29.28509],[-98.1876,29.28456],[-98.18985,29.27515],[-98.19509,29.27128],[-98.18322,29.26867],[-98.1775,29.2634],[-98.17518,29.26257],[-98.17354,29.26796],[-98.16805,29.27089],[-98.16585,29.26923],[-98.15847,29.26693],[-98.15394,29.26744],[-98.15256,29.26567],[-98.15207,29.26196],[-98.1492,29.26296],[-98.14788,29.26255],[-98.14638,29.2644],[-98.14099,29.26314],[-98.13868,29.25944],[-98.13441,29.26148],[-98.13353,29.25755],[-98.1375,29.2551],[-98.13839,29.25378],[-98.13311,29.2496],[-98.1162,29.25556],[-98.10946,29.2443],[-98.09248,29.25318],[-98.1029,29.26779],[-98.10113,29.26868],[-98.10258,29.27274],[-98.08534,29.28221],[-98.08269,29.27878],[-98.08108,29.27908],[-98.08012,29.27681],[-98.07462,29.27948],[-98.06856,29.27543],[-98.06773,29.27649],[-98.06663,29.27624],[-98.06406,29.2796],[-98.0657,29.28141],[-98.06448,29.28236],[-98.06289,29.28151],[-98.06051,29.28494],[-98.06175,29.28605],[-98.05946,29.28994],[-98.05987,29.29246],[-98.05827,29.29557],[-98.0614,29.29649],[-98.06437,29.29456],[-98.06782,29.29739],[-98.06695,29.2988],[-98.0691,29.30055],[-98.06915,29.30185],[-98.0666,29.30175],[-98.06367,29.29988],[-98.06158,29.29998],[-98.06206,29.30227],[-98.06087,29.30329],[-98.01918,29.32369],[-98.00411,29.29929],[-97.99819,29.30242],[-98.01019,29.32037],[-97.99961,29.32552],[-98.0118,29.34439],[-98.01602,29.34225],[-98.01898,29.34662],[-98.01814,29.35101],[-98.01896,29.35212],[-98.01583,29.35728],[-98.01103,29.36249],[-98.01118,29.36511],[-98.00996,29.36574],[-98.01098,29.36735],[-98.0107,29.36835],[-98.00223,29.37279],[-98.00111,29.37246],[-97.99838,29.36852],[-97.99726,29.3691],[-98.00374,29.37888],[-98.00196,29.37888],[-98.01298,29.39512],[-98.01541,29.39353],[-98.01985,29.39678],[-98.01751,29.39917],[-98.01746,29.40036],[-98.02265,29.40037],[-98.02265,29.39952],[-98.02537,29.39948],[-98.02536,29.40035],[-98.02722,29.40032],[-98.02698,29.40798],[-98.02796,29.40897],[-98.03266,29.40903],[-98.03263,29.41412],[-98.03391,29.41497],[-98.03173,29.41671],[-98.03413,29.41971],[-98.03521,29.41873],[-98.03714,29.41959],[-98.04015,29.4161],[-98.08058,29.41591],[-98.08053,29.41952],[-98.08247,29.42121],[-98.07215,29.42121],[-98.07205,29.43147],[-98.08046,29.43154],[-98.08034,29.43442],[-98.07544,29.43688],[-98.07684,29.43895],[-98.07809,29.43887],[-98.0878,29.45358],[-98.09306,29.45092],[-98.09532,29.45432],[-98.09264,29.45569],[-98.09481,29.45892],[-98.11849,29.44579],[-98.12108,29.44905],[-98.12158,29.44793],[-98.12092,29.44648],[-98.12519,29.44641],[-98.12868,29.44536],[-98.12957,29.44392],[-98.13719,29.44043],[-98.20459,29.35824]]]}},{"type":"Feature","properties":{"zip_code":"78123"},"geometry":{"type":"Polygon","coordinates":[[[-98.07072,29.5885],[-98.05413,29.58939],[-98.05401,29.5884],[-98.04892,29.58688],[-98.04868,29.58581],[-98.04982,29.58419],[-98.04468,29.5794],[-98.04026,29.58201],[-98.03913,29.58128],[-98.03643,29.58156],[-98.03306,29.5839],[-98.03352,29.587],[-98.03606,29.5902],[-98.03343,29.58769],[-98.03245,29.58514],[-98.03272,29.58359],[-98.0352,29.58201],[-98.03401,29.58133],[-98.03137,29.58379],[-98.03334,29.59219],[-98.03008,29.59369],[-98.02375,29.59379],[-98.02378,29.59966],[-98.0346,29.59961],[-98.03091,29.60196],[-98.0275,29.60806],[-98.02781,29.62181],[-98.03155,29.62293],[-98.03801,29.61985],[-98.04399,29.61857],[-98.04835,29.61844],[-98.04942,29.62052],[-98.04902,29.61874],[-98.04734,29.61824],[-98.04715,29.61707],[-98.05321,29.61186],[-98.05104,29.60952],[-98.05238,29.60848],[-98.0508,29.6072],[-98.05136,29.60567],[-98.07072,29.5885]]]}},{"type":"Feature","properties":{"zip_code":"78124"},"geometry":{"type":"Polygon","coordinates":[[[-98.21084,29.6041],[-98.2057,29.59554],[-98.20865,29.59357],[-98.20351,29.58603],[-98.20241,29.58658],[-98.20181,29.58565],[-98.20555,29.58327],[-98.20254,29.57757],[-98.19973,29.57898],[-98.19521,29.57159],[-98.19354,29.56965],[-98.19211,29.57035],[-98.18839,29.56453],[-98.17815,29.56536],[-98.17735,29.56411],[-98.18595,29.55969],[-98.1861,29.56062],[-98.18488,29.56096],[-98.18627,29.56307],[-98.18781,29.56371],[-98.18767,29.5604],[-98.18413,29.55333],[-98.17435,29.53895],[-98.18054,29.53773],[-98.17247,29.5267],[-98.18081,29.52247],[-98.1788,29.51949],[-98.18781,29.51487],[-98.18127,29.50525],[-98.18214,29.5048],[-98.18493,29.50787],[-98.18967,29.50563],[-98.18632,29.5012],[-98.19554,29.49768],[-98.19442,29.49663],[-98.19542,29.49603],[-98.19454,29.49547],[-98.19827,29.49362],[-98.19993,29.49497],[-98.20402,29.49296],[-98.20162,29.48913],[-98.20106,29.48968],[-98.20005,29.48834],[-98.20039,29.48748],[-98.19929,29.48577],[-98.2005,29.48525],[-98.19911,29.48186],[-98.19402,29.48446],[-98.18891,29.47675],[-98.1933,29.47439],[-98.19164,29.4716],[-98.18831,29.47317],[-98.18441,29.46589],[-98.16471,29.47596],[-98.16131,29.47414],[-98.15316,29.46164],[-98.14725,29.46461],[-98.13815,29.45075],[-98.14321,29.44843],[-98.14162,29.44781],[-98.14205,29.44706],[-98.14129,29.44593],[-98.1388,29.44589],[-98.13803,29.43939],[-98.13719,29.44043],[-98.12957,29.44392],[-98.12868,29.44536],[-98.12519,29.44641],[-98.12092,29.44648],[-98.12158,29.44793],[-98.12068,29.45017],[-98.12201,29.45041],[-98.12663,29.45457],[-98.1269,29.4571],[-98.12569,29.45826],[-98.12024,29.45747],[-98.11742,29.4609],[-98.1169,29.46388],[-98.11832,29.46863],[-98.12058,29.47084],[-98.12068,29.47329],[-98.12293,29.47317],[-98.12488,29.47564],[-98.12479,29.47629],[-98.12306,29.47638],[-98.12223,29.47729],[-98.12588,29.48165],[-98.12297,29.48263],[-98.12176,29.48401],[-98.12353,29.48546],[-98.12691,29.48377],[-98.13032,29.48893],[-98.12649,29.49088],[-98.12585,29.48995],[-98.12701,29.48928],[-98.12502,29.49029],[-98.12464,29.48972],[-98.12075,29.49158],[-98.12091,29.49217],[-98.12194,29.49429],[-98.13014,29.49009],[-98.13517,29.49807],[-98.13193,29.49964],[-98.1336,29.50238],[-98.13607,29.50112],[-98.13791,29.50363],[-98.13395,29.50561],[-98.13234,29.50299],[-98.12816,29.50506],[-98.12981,29.50772],[-98.12728,29.509],[-98.12851,29.51082],[-98.13104,29.50952],[-98.13491,29.51542],[-98.12241,29.52181],[-98.12157,29.52033],[-98.12311,29.51954],[-98.12223,29.5182],[-98.11567,29.52157],[-98.11613,29.5231],[-98.11418,29.52409],[-98.11506,29.52548],[-98.1114,29.52758],[-98.11232,29.52914],[-98.11766,29.52716],[-98.11878,29.52856],[-98.11884,29.53153],[-98.12075,29.53278],[-98.12851,29.53248],[-98.12952,29.53308],[-98.1299,29.53476],[-98.12911,29.53623],[-98.12488,29.53843],[-98.12369,29.54039],[-98.12577,29.54213],[-98.12791,29.54239],[-98.12776,29.54396],[-98.13186,29.54562],[-98.13152,29.54852],[-98.13268,29.54975],[-98.13273,29.55118],[-98.1319,29.55377],[-98.12909,29.55396],[-98.12835,29.55332],[-98.12948,29.55182],[-98.12907,29.55127],[-98.12693,29.55173],[-98.12489,29.54883],[-98.12254,29.54759],[-98.11636,29.5482],[-98.11822,29.55119],[-98.1088,29.55422],[-98.10833,29.55363],[-98.10682,29.55428],[-98.10541,29.55208],[-98.10127,29.55357],[-98.09938,29.55063],[-98.09688,29.55107],[-98.1048,29.56315],[-98.09546,29.57338],[-98.0913,29.56995],[-98.08404,29.57606],[-98.0916,29.5826],[-98.08879,29.58505],[-98.07882,29.58745],[-98.07865,29.58827],[-98.07952,29.589],[-98.08045,29.58831],[-98.08355,29.59055],[-98.08109,29.5928],[-98.08779,29.59897],[-98.08656,29.60603],[-98.09874,29.60435],[-98.11452,29.60362],[-98.11737,29.60472],[-98.12328,29.60442],[-98.1242,29.60341],[-98.12609,29.60327],[-98.1274,29.60514],[-98.12474,29.60645],[-98.12686,29.60988],[-98.13148,29.60747],[-98.13409,29.61274],[-98.1305,29.61449],[-98.13969,29.62834],[-98.12814,29.6341],[-98.1284,29.63599],[-98.12974,29.6406],[-98.13413,29.63689],[-98.13757,29.6401],[-98.13618,29.64105],[-98.14165,29.6498],[-98.13585,29.65269],[-98.14307,29.66076],[-98.17355,29.64808],[-98.1704,29.64362],[-98.17667,29.64039],[-98.17525,29.63818],[-98.18014,29.63572],[-98.18065,29.6365],[-98.19126,29.63136],[-98.19209,29.63293],[-98.19502,29.63145],[-98.19619,29.63366],[-98.19905,29.63241],[-98.19694,29.62859],[-98.20071,29.62665],[-98.20074,29.62568],[-98.19424,29.6156],[-98.19708,29.61393],[-98.19206,29.60646],[-98.19486,29.60519],[-98.19546,29.60605],[-98.19794,29.6046],[-98.20007,29.60775],[-98.20522,29.60503],[-98.20624,29.60646],[-98.21084,29.6041]]]}},{"type":"Feature","properties":{"zip_code":"78130"},"geometry":{"type":"Polygon","coordinates":[[[-98.16266,29.70635],[-98.16251,29.70508],[-98.16202,29.70392],[-98.15608,29.6947],[-98.15525,29.69262],[-98.15491,29.68495],[-98.15504,29.67454],[-98.14893,29.6669],[-98.15011,29.66544],[-98.15489,29.66345],[-98.15157,29.65721],[-98.14307,29.66076],[-98.13585,29.65269],[-98.14165,29.6498],[-98.13618,29.64105],[-98.13757,29.6401],[-98.13413,29.63689],[-98.12974,29.6406],[-98.1284,29.63599],[-98.12814,29.6341],[-98.13969,29.62834],[-98.1305,29.61449],[-98.13409,29.61274],[-98.13283,29.6111],[-98.1336,29.61066],[-98.13148,29.60747],[-98.12686,29.60988],[-98.12474,29.60645],[-98.1274,29.60514],[-98.12609,29.60327],[-98.1242,29.60341],[-98.12328,29.60442],[-98.11737,29.60472],[-98.11715,29.60417],[-98.11558,29.60439],[-98.11452,29.60362],[-98.10501,29.60445],[-98.09874,29.60435],[-98.08656,29.60603],[-98.08779,29.59897],[-98.08109,29.5928],[-98.08355,29.59055],[-98.08045,29.58831],[-98.07952,29.589],[-98.07865,29.58827],[-98.07925,29.58773],[-98.07882,29.58745],[-98.07068,29.58819],[-98.07066,29.58861],[-98.06269,29.59582],[-98.05421,29.60311],[-98.05265,29.60454],[-98.05236,29.6051],[-98.05136,29.60567],[-98.05165,29.60596],[-98.05101,29.60654],[-98.05125,29.60673],[-98.0508,29.6072],[-98.05238,29.60848],[-98.05104,29.60952],[-98.05321,29.61186],[-98.04715,29.61707],[-98.04734,29.61824],[-98.04848,29.61822],[-98.04902,29.61874],[-98.04936,29.61958],[-98.04942,29.62052],[-98.04915,29.62041],[-98.04888,29.62295],[-98.04967,29.62423],[-98.04991,29.62537],[-98.04921,29.62669],[-98.04653,29.62789],[-98.04597,29.62905],[-98.03427,29.63862],[-98.03139,29.63558],[-98.02884,29.63743],[-98.01525,29.64878],[-98.01521,29.64935],[-98.01472,29.64906],[-98.00301,29.64909],[-98.003,29.66985],[-98.00262,29.67118],[-97.99381,29.6717],[-97.99388,29.6737],[-97.99569,29.67372],[-97.99546,29.6756],[-97.99381,29.67582],[-97.99386,29.67798],[-97.99444,29.67817],[-97.9945,29.68132],[-97.99819,29.68365],[-97.99838,29.68488],[-97.99898,29.68636],[-97.9986,29.6865],[-97.99838,29.68948],[-97.99488,29.68955],[-97.99486,29.69302],[-97.99676,29.69309],[-97.99712,29.70016],[-97.99881,29.70009],[-97.99881,29.70144],[-97.99297,29.70144],[-97.99102,29.70187],[-97.99097,29.72266],[-97.99072,29.72286],[-97.98564,29.72287],[-97.98572,29.732],[-97.98656,29.73245],[-97.9866,29.74172],[-97.99182,29.74439],[-97.99643,29.74715],[-98.00111,29.75105],[-97.99927,29.75244],[-98.00014,29.75515],[-97.99365,29.76076],[-97.9942,29.76188],[-97.99399,29.76504],[-97.995,29.76787],[-97.99731,29.76875],[-98.00152,29.76945],[-98.00275,29.7701],[-98.00294,29.77036],[-98.00277,29.77153],[-98.00294,29.77201],[-98.00717,29.777],[-98.01082,29.78816],[-98.01815,29.78997],[-98.02043,29.78885],[-98.02176,29.78994],[-98.02183,29.79076],[-98.02162,29.79114],[-98.02269,29.79188],[-98.0221,29.79306],[-98.0228,29.79396],[-98.02047,29.79641],[-98.01511,29.80126],[-98.01757,29.80888],[-98.02236,29.80535],[-98.02222,29.80478],[-98.02428,29.80308],[-98.02445,29.80105],[-98.02374,29.79772],[-98.02418,29.79624],[-98.03442,29.79852],[-98.04445,29.78922],[-98.04414,29.78896],[-98.05983,29.77466],[-98.06692,29.77141],[-98.06892,29.77022],[-98.0772,29.76345],[-98.0791,29.76131],[-98.08072,29.7587],[-98.08131,29.75837],[-98.08462,29.75364],[-98.08916,29.74548],[-98.09321,29.74103],[-98.09912,29.74508],[-98.10034,29.74635],[-98.10214,29.74493],[-98.10427,29.74375],[-98.11113,29.74194],[-98.11258,29.74092],[-98.11369,29.73942],[-98.11594,29.73175],[-98.11838,29.72949],[-98.1197,29.72978],[-98.12108,29.72977],[-98.13514,29.72758],[-98.13759,29.72693],[-98.14242,29.72501],[-98.15497,29.7169],[-98.15588,29.7158],[-98.15804,29.71212],[-98.16173,29.70899],[-98.16243,29.70766],[-98.16266,29.70635]]]}},{"type":"Feature","properties":{"zip_code":"78132"},"geometry":{"type":"Polygon","coordinates":[[[-98.34858,29.80484],[-98.34925,29.80423],[-98.3432,29.80209],[-98.33288,29.79564],[-98.33156,29.7936],[-98.33065,29.78801],[-98.32924,29.78633],[-98.32011,29.78242],[-98.3155,29.77891],[-98.30145,29.77372],[-98.29762,29.77352],[-98.29816,29.77006],[-98.30017,29.76614],[-98.30431,29.76351],[-98.3055,29.76053],[-98.30365,29.74947],[-98.3037,29.74264],[-98.30975,29.72243],[-98.31,29.71697],[-98.30406,29.71811],[-98.29904,29.71399],[-98.29361,29.71327],[-98.2915,29.70528],[-98.29185,29.70425],[-98.28882,29.7007],[-98.29063,29.69949],[-98.28943,29.69802],[-98.28972,29.6969],[-98.28392,29.68996],[-98.27924,29.68927],[-98.27755,29.68693],[-98.28238,29.68011],[-98.28118,29.6832],[-98.28341,29.68614],[-98.28757,29.688],[-98.28924,29.68739],[-98.29464,29.68913],[-98.29613,29.69361],[-98.29034,29.69683],[-98.29107,29.69953],[-98.30692,29.68737],[-98.31187,29.68074],[-98.31421,29.67498],[-98.31133,29.66947],[-98.30402,29.6745],[-98.30258,29.6727],[-98.30545,29.67091],[-98.30306,29.66917],[-98.29838,29.66797],[-98.29385,29.66376],[-98.30319,29.65355],[-98.30131,29.65012],[-98.30352,29.64573],[-98.30225,29.6453],[-98.30052,29.64986],[-98.28582,29.65724],[-98.27922,29.66157],[-98.27358,29.65481],[-98.27315,29.65271],[-98.27189,29.65195],[-98.26533,29.65095],[-98.26393,29.64956],[-98.25765,29.64984],[-98.25644,29.6442],[-98.25482,29.64239],[-98.26441,29.63538],[-98.26256,29.63224],[-98.25972,29.63329],[-98.25375,29.63336],[-98.26074,29.62933],[-98.25561,29.62139],[-98.25567,29.61926],[-98.25729,29.61759],[-98.25657,29.61632],[-98.25304,29.61738],[-98.25351,29.61806],[-98.25185,29.61905],[-98.21802,29.6363],[-98.2162,29.63447],[-98.21547,29.63135],[-98.21089,29.63303],[-98.21153,29.63939],[-98.20367,29.6441],[-98.20217,29.6363],[-98.19785,29.62805],[-98.19694,29.62859],[-98.19905,29.63241],[-98.19619,29.63366],[-98.19502,29.63145],[-98.19209,29.63293],[-98.19126,29.63136],[-98.18065,29.6365],[-98.18014,29.63572],[-98.17525,29.63818],[-98.17667,29.64039],[-98.1704,29.64362],[-98.17355,29.64808],[-98.15157,29.65721],[-98.15489,29.66345],[-98.15011,29.66544],[-98.14893,29.6669],[-98.15504,29.67454],[-98.15534,29.69297],[-98.16265,29.70582],[-98.16173,29.70899],[-98.15804,29.71212],[-98.15514,29.71673],[-98.14351,29.72439],[-98.13759,29.72693],[-98.12108,29.72977],[-98.11838,29.72949],[-98.11594,29.73175],[-98.11384,29.73909],[-98.11225,29.74124],[-98.10427,29.74375],[-98.10034,29.74635],[-98.09321,29.74103],[-98.08916,29.74548],[-98.08462,29.75364],[-98.0772,29.76345],[-98.06892,29.77022],[-98.05983,29.77466],[-98.03442,29.79852],[-98.02418,29.79624],[-98.02428,29.80308],[-98.01757,29.80888],[-98.01868,29.81225],[-98.02444,29.80681],[-98.03207,29.80812],[-98.03552,29.80735],[-98.03961,29.81196],[-98.04723,29.81343],[-98.04862,29.81464],[-98.05102,29.81909],[-98.05034,29.82101],[-98.05132,29.82526],[-98.05283,29.82544],[-98.05524,29.82379],[-98.05615,29.82399],[-98.05777,29.82787],[-98.05972,29.82908],[-98.06143,29.82738],[-98.06559,29.82554],[-98.07078,29.82732],[-98.07304,29.82934],[-98.07345,29.83133],[-98.07672,29.83272],[-98.07614,29.83452],[-98.05686,29.85185],[-98.05621,29.85235],[-98.05495,29.85106],[-98.04475,29.85871],[-98.14315,29.92829],[-98.14536,29.92748],[-98.14488,29.90746],[-98.12298,29.90789],[-98.12284,29.90722],[-98.12194,29.90737],[-98.12148,29.9031],[-98.1226,29.89982],[-98.12144,29.89731],[-98.12084,29.88955],[-98.11074,29.87813],[-98.10665,29.87073],[-98.10784,29.86546],[-98.1104,29.86649],[-98.11272,29.86224],[-98.11662,29.86149],[-98.11745,29.86057],[-98.1161,29.85957],[-98.1165,29.85748],[-98.11573,29.8561],[-98.11687,29.85391],[-98.1194,29.85212],[-98.12331,29.85469],[-98.1268,29.85378],[-98.13127,29.8552],[-98.1336,29.85796],[-98.13645,29.85584],[-98.13988,29.85483],[-98.14738,29.85876],[-98.14647,29.8596],[-98.14787,29.86031],[-98.14283,29.86503],[-98.14826,29.86967],[-98.15547,29.86336],[-98.1533,29.86178],[-98.15473,29.85937],[-98.16018,29.86253],[-98.16195,29.8553],[-98.16296,29.85383],[-98.16263,29.85292],[-98.17388,29.84809],[-98.17745,29.84771],[-98.17673,29.84687],[-98.17966,29.84563],[-98.17774,29.84182],[-98.18056,29.8407],[-98.18096,29.83435],[-98.1989,29.82603],[-98.20381,29.83502],[-98.20925,29.83215],[-98.21023,29.83342],[-98.21778,29.83037],[-98.22327,29.83749],[-98.22627,29.83754],[-98.22635,29.83865],[-98.24603,29.83276],[-98.24865,29.83403],[-98.25248,29.83845],[-98.26083,29.84123],[-98.2604,29.83941],[-98.25885,29.8392],[-98.26125,29.83779],[-98.26269,29.83824],[-98.26283,29.83599],[-98.26734,29.83531],[-98.27165,29.83151],[-98.27497,29.83431],[-98.27716,29.83231],[-98.27909,29.8341],[-98.28179,29.83337],[-98.28302,29.832],[-98.28221,29.8301],[-98.28578,29.82497],[-98.29415,29.81735],[-98.29432,29.82036],[-98.2964,29.81702],[-98.31125,29.80753],[-98.31655,29.80691],[-98.33354,29.81053],[-98.34251,29.8095],[-98.34858,29.80484]]]}},{"type":"Feature","properties":{"zip_code":"78154"},"geometry":{"type":"Polygon","coordinates":[[[-98.34173,29.58579],[-98.33851,29.58085],[-98.33742,29.5812],[-98.33157,29.57215],[-98.33014,29.57087],[-98.32846,29.57225],[-98.33003,29.57078],[-98.32854,29.5715],[-98.32605,29.56838],[-98.32238,29.57024],[-98.32072,29.56984],[-98.31984,29.57142],[-98.31853,29.57097],[-98.31717,29.57309],[-98.31584,29.57274],[-98.31491,29.5746],[-98.314,29.57477],[-98.31435,29.57523],[-98.31202,29.57641],[-98.31352,29.57883],[-98.31288,29.57907],[-98.3138,29.57972],[-98.31229,29.58026],[-98.30959,29.57517],[-98.30643,29.57292],[-98.3029,29.57465],[-98.30254,29.56989],[-98.2991,29.56577],[-98.29852,29.56114],[-98.29666,29.56072],[-98.29463,29.56156],[-98.29046,29.56063],[-98.28778,29.55937],[-98.28571,29.55732],[-98.28553,29.55476],[-98.28418,29.55325],[-98.27907,29.55114],[-98.27333,29.55101],[-98.27383,29.55078],[-98.27225,29.54956],[-98.27255,29.54751],[-98.27107,29.5458],[-98.27379,29.54411],[-98.26708,29.54074],[-98.2604,29.53075],[-98.26234,29.52669],[-98.25929,29.52183],[-98.25958,29.52086],[-98.26295,29.51929],[-98.26548,29.52174],[-98.27697,29.516],[-98.27169,29.50763],[-98.27552,29.50565],[-98.27664,29.50729],[-98.27813,29.50653],[-98.2794,29.50846],[-98.28427,29.50596],[-98.27719,29.50415],[-98.27881,29.49924],[-98.26931,29.49672],[-98.281,29.48066],[-98.29286,29.48363],[-98.29379,29.48053],[-98.29038,29.47963],[-98.29316,29.47138],[-98.28461,29.46805],[-98.25681,29.47676],[-98.18632,29.5012],[-98.1899,29.50572],[-98.19095,29.50955],[-98.19529,29.51111],[-98.19589,29.5101],[-98.198,29.50936],[-98.19979,29.51011],[-98.19969,29.5136],[-98.19707,29.51471],[-98.19687,29.51563],[-98.19857,29.51733],[-98.20207,29.51701],[-98.20253,29.51778],[-98.20144,29.51971],[-98.20478,29.52215],[-98.21006,29.52338],[-98.21414,29.52292],[-98.21613,29.52435],[-98.21884,29.52355],[-98.21927,29.52496],[-98.21864,29.52689],[-98.2216,29.53216],[-98.23374,29.52605],[-98.2385,29.53322],[-98.24033,29.53338],[-98.24871,29.52912],[-98.24532,29.53091],[-98.24683,29.53322],[-98.24964,29.5318],[-98.24885,29.53063],[-98.2495,29.53027],[-98.25413,29.53856],[-98.25609,29.54027],[-98.25388,29.54098],[-98.25299,29.54316],[-98.25812,29.54601],[-98.25388,29.5504],[-98.25128,29.54982],[-98.24932,29.55088],[-98.24877,29.55498],[-98.2464,29.556],[-98.24744,29.55982],[-98.24567,29.56071],[-98.24357,29.56373],[-98.2472,29.56514],[-98.24796,29.5669],[-98.25098,29.56715],[-98.25715,29.57618],[-98.26007,29.57471],[-98.2627,29.57864],[-98.26362,29.58033],[-98.25337,29.58548],[-98.26184,29.59799],[-98.263,29.59741],[-98.26916,29.60642],[-98.2665,29.6087],[-98.26698,29.60938],[-98.2614,29.61413],[-98.25508,29.61657],[-98.25657,29.61632],[-98.25727,29.61743],[-98.25567,29.61926],[-98.25561,29.62139],[-98.26074,29.62933],[-98.25375,29.63336],[-98.26159,29.63275],[-98.26978,29.6281],[-98.28933,29.62113],[-98.29075,29.62301],[-98.29596,29.62084],[-98.29723,29.61993],[-98.29639,29.61867],[-98.30608,29.6146],[-98.30152,29.60778],[-98.32879,29.59514],[-98.34173,29.58579]]]}},{"type":"Feature","properties":{"zip_code":"78155"},"geometry":{"type":"Polygon","coordinates":[[[-98.13783,29.50367],[-98.13607,29.50112],[-98.1336,29.50238],[-98.13193,29.49964],[-98.13517,29.49807],[-98.13014,29.49009],[-98.12194,29.49429],[-98.12075,29.49158],[-98.12701,29.48928],[-98.12585,29.48995],[-98.12649,29.49088],[-98.13032,29.48893],[-98.12691,29.48377],[-98.12353,29.48546],[-98.12176,29.48401],[-98.12297,29.48263],[-98.12588,29.48165],[-98.12223,29.47729],[-98.12306,29.47638],[-98.12479,29.47629],[-98.12488,29.47564],[-98.12293,29.47317],[-98.12068,29.47329],[-98.12058,29.47084],[-98.11832,29.46863],[-98.1169,29.46388],[-98.11742,29.4609],[-98.12012,29.45757],[-98.12594,29.45817],[-98.1269,29.4571],[-98.12677,29.45474],[-98.12201,29.45041],[-98.12076,29.45028],[-98.12108,29.44905],[-98.11849,29.44579],[-98.09481,29.45892],[-98.09264,29.45569],[-98.09532,29.45432],[-98.09306,29.45092],[-98.0878,29.45358],[-98.07809,29.43887],[-98.07684,29.43895],[-98.07544,29.43688],[-98.08034,29.43442],[-98.08046,29.43154],[-98.07205,29.43147],[-98.07215,29.42121],[-98.08247,29.42121],[-98.08053,29.41952],[-98.08058,29.41591],[-98.04015,29.4161],[-98.03714,29.41959],[-98.03521,29.41873],[-98.03413,29.41971],[-98.03173,29.41671],[-98.03391,29.41497],[-98.03263,29.41412],[-98.03266,29.40903],[-98.02796,29.40897],[-98.02698,29.40798],[-98.02722,29.40032],[-98.02536,29.40035],[-98.02537,29.39948],[-98.02265,29.39952],[-98.02265,29.40037],[-98.01746,29.40036],[-98.01751,29.39917],[-98.01985,29.39678],[-98.01541,29.39353],[-98.01298,29.39512],[-98.00196,29.37888],[-97.88688,29.37724],[-97.88593,29.37904],[-97.88541,29.38346],[-97.88259,29.39036],[-97.8743,29.39042],[-97.87402,29.38956],[-97.8725,29.38934],[-97.84804,29.38976],[-97.84818,29.41879],[-97.84733,29.42811],[-97.84323,29.42753],[-97.83583,29.41613],[-97.83481,29.41161],[-97.83226,29.41256],[-97.83144,29.41469],[-97.82893,29.41568],[-97.82841,29.4171],[-97.82108,29.41416],[-97.81991,29.40982],[-97.82009,29.40583],[-97.81884,29.40465],[-97.75386,29.48858],[-97.74659,29.50034],[-97.73964,29.50938],[-97.74053,29.51031],[-97.74155,29.51457],[-97.74413,29.51586],[-97.74197,29.52086],[-97.74335,29.52161],[-97.74517,29.52084],[-97.74682,29.52228],[-97.7483,29.52248],[-97.74807,29.52398],[-97.74651,29.52569],[-97.7474,29.52795],[-97.75222,29.52737],[-97.75293,29.52815],[-97.75259,29.52997],[-97.75598,29.53022],[-97.76015,29.53215],[-97.76419,29.53027],[-97.76752,29.5305],[-97.7723,29.52896],[-97.7751,29.52907],[-97.77825,29.53096],[-97.77728,29.53317],[-97.77426,29.53601],[-97.77324,29.53916],[-97.78323,29.53973],[-97.77575,29.54012],[-97.77463,29.53948],[-97.77657,29.54172],[-97.77579,29.54211],[-97.77551,29.54118],[-97.77428,29.54131],[-97.77531,29.54326],[-97.77421,29.54329],[-97.77388,29.54476],[-97.77532,29.54516],[-97.77569,29.54669],[-97.77749,29.54765],[-97.77671,29.54848],[-97.77767,29.5502],[-97.77654,29.55005],[-97.77247,29.55483],[-97.77059,29.56972],[-97.76845,29.57297],[-97.77851,29.57276],[-97.78467,29.57381],[-97.77921,29.5854],[-97.78266,29.58564],[-97.80052,29.57552],[-97.79982,29.58292],[-97.80398,29.58309],[-97.80572,29.5849],[-97.80574,29.59326],[-97.80472,29.5966],[-97.80494,29.61037],[-97.80814,29.61043],[-97.80897,29.61213],[-97.81122,29.61216],[-97.81132,29.61515],[-97.83207,29.61497],[-97.82937,29.61853],[-97.82929,29.63022],[-97.82829,29.63391],[-97.82833,29.63899],[-97.8311,29.64193],[-97.82741,29.64479],[-97.82871,29.64463],[-97.829,29.64597],[-97.8277,29.64639],[-97.82804,29.6482],[-97.83157,29.6477],[-97.83398,29.64932],[-97.84329,29.65948],[-97.858,29.65638],[-97.87003,29.66872],[-97.87312,29.66779],[-97.87486,29.66876],[-97.87979,29.66478],[-97.88356,29.66039],[-97.88547,29.65583],[-97.88561,29.64857],[-97.88734,29.64786],[-97.88683,29.65791],[-97.88497,29.66187],[-97.88223,29.66504],[-97.88479,29.66671],[-97.88526,29.6699],[-97.8865,29.67214],[-97.88646,29.67548],[-97.88908,29.68055],[-97.87874,29.68843],[-97.89492,29.70326],[-97.89378,29.70413],[-97.8965,29.70682],[-97.89492,29.70858],[-97.89596,29.71],[-97.89559,29.71143],[-97.89787,29.71416],[-97.89692,29.71696],[-97.90712,29.70937],[-97.90576,29.708],[-97.90663,29.70741],[-97.90562,29.70598],[-97.90651,29.70534],[-97.90784,29.70652],[-97.90707,29.70735],[-97.9075,29.70785],[-97.91022,29.70599],[-97.91386,29.70962],[-97.91383,29.70848],[-97.91859,29.70839],[-97.91864,29.71228],[-97.92725,29.71197],[-97.92722,29.7138],[-97.9435,29.71379],[-97.94357,29.7108],[-97.95477,29.71038],[-97.95481,29.71427],[-97.96287,29.71437],[-97.9607,29.71904],[-97.95504,29.71851],[-97.95473,29.72423],[-97.94554,29.72426],[-97.94576,29.73489],[-97.9492,29.73492],[-97.95033,29.74136],[-97.94807,29.75281],[-97.94922,29.75023],[-97.95188,29.75002],[-97.97937,29.75074],[-97.97942,29.7572],[-97.97831,29.75751],[-97.97845,29.75999],[-97.9807,29.75982],[-97.98062,29.76196],[-97.98305,29.76213],[-97.98587,29.76546],[-98.00111,29.75105],[-97.99643,29.74715],[-97.9866,29.74172],[-97.98564,29.72287],[-97.99097,29.72266],[-97.99102,29.70187],[-97.99881,29.70144],[-97.99881,29.70009],[-97.99712,29.70016],[-97.99676,29.69309],[-97.99486,29.69302],[-97.99488,29.68955],[-97.99838,29.68948],[-97.99898,29.68636],[-97.99819,29.68365],[-97.9945,29.68132],[-97.99381,29.67582],[-97.99546,29.6756],[-97.99569,29.67372],[-97.99388,29.6737],[-97.99381,29.6717],[-98.00262,29.67118],[-98.00301,29.64909],[-98.01521,29.64935],[-98.03139,29.63558],[-98.03427,29.63862],[-98.04597,29.62905],[-98.04653,29.62789],[-98.04921,29.62669],[-98.04991,29.62537],[-98.04888,29.62295],[-98.04904,29.6193],[-98.04788,29.61835],[-98.03906,29.6195],[-98.03155,29.62293],[-98.02781,29.62181],[-98.0275,29.60806],[-98.03091,29.60196],[-98.0346,29.59961],[-98.02378,29.59966],[-98.02375,29.59379],[-98.03008,29.59369],[-98.03334,29.59219],[-98.03137,29.58379],[-98.03401,29.58133],[-98.0352,29.58201],[-98.03272,29.58359],[-98.03245,29.58514],[-98.03343,29.58769],[-98.03606,29.5902],[-98.03352,29.587],[-98.03306,29.5839],[-98.03643,29.58156],[-98.03913,29.58128],[-98.04026,29.58201],[-98.04456,29.57941],[-98.04982,29.58419],[-98.04868,29.58581],[-98.04892,29.58688],[-98.05401,29.5884],[-98.05413,29.58939],[-98.07765,29.58767],[-98.08879,29.58505],[-98.0916,29.5826],[-98.08404,29.57606],[-98.0913,29.56995],[-98.09546,29.57338],[-98.1048,29.56315],[-98.09688,29.55107],[-98.09938,29.55063],[-98.10127,29.55357],[-98.10541,29.55208],[-98.10682,29.55428],[-98.10833,29.55363],[-98.1088,29.55422],[-98.11822,29.55119],[-98.11636,29.5482],[-98.12254,29.54759],[-98.12489,29.54883],[-98.12693,29.55173],[-98.12924,29.55143],[-98.12853,29.55365],[-98.1319,29.55377],[-98.13274,29.55018],[-98.13152,29.54852],[-98.13188,29.54565],[-98.12776,29.54396],[-98.12791,29.54239],[-98.12577,29.54213],[-98.12369,29.54039],[-98.12488,29.53843],[-98.12911,29.53623],[-98.1299,29.53476],[-98.12952,29.53308],[-98.12851,29.53248],[-98.12039,29.53267],[-98.11884,29.53153],[-98.11878,29.52856],[-98.11766,29.52716],[-98.11232,29.52914],[-98.11138,29.52737],[-98.11506,29.52548],[-98.11418,29.52409],[-98.11613,29.5231],[-98.11532,29.52175],[-98.12223,29.5182],[-98.12311,29.51954],[-98.12157,29.52033],[-98.12241,29.52181],[-98.13491,29.51542],[-98.13104,29.50952],[-98.12851,29.51082],[-98.12728,29.509],[-98.12981,29.50772],[-98.12816,29.50506],[-98.13234,29.50299],[-98.13395,29.50561],[-98.13783,29.50367]]]}},{"type":"Feature","properties":{"zip_code":"78638"},"geometry":{"type":"Polygon","coordinates":[[[-97.96212,29.716],[-97.96287,29.71437],[-97.95481,29.71427],[-97.95477,29.71038],[-97.94357,29.7108],[-97.9435,29.71379],[-97.92722,29.7138],[-97.92725,29.71197],[-97.91864,29.71228],[-97.91859,29.70839],[-97.91383,29.70848],[-97.91386,29.70962],[-97.91022,29.70599],[-97.9075,29.70785],[-97.90707,29.70735],[-97.90784,29.70652],[-97.90651,29.70534],[-97.90562,29.70598],[-97.90663,29.70741],[-97.90576,29.708],[-97.90712,29.70937],[-97.89692,29.71696],[-97.89787,29.71416],[-97.89559,29.71143],[-97.89596,29.71],[-97.89492,29.70858],[-97.8965,29.70682],[-97.89378,29.70413],[-97.89492,29.70326],[-97.87874,29.68843],[-97.88908,29.68055],[-97.88646,29.67548],[-97.8865,29.67214],[-97.88526,29.6699],[-97.88479,29.66671],[-97.88223,29.66504],[-97.88497,29.66187],[-97.88683,29.65791],[-97.88734,29.64786],[-97.88561,29.64857],[-97.88547,29.65583],[-97.88356,29.66039],[-97.87979,29.66478],[-97.87486,29.66876],[-97.87312,29.66779],[-97.87003,29.66872],[-97.858,29.65638],[-97.84329,29.65948],[-97.83398,29.64932],[-97.83157,29.6477],[-97.82804,29.6482],[-97.8277,29.64639],[-97.829,29.64597],[-97.82871,29.64463],[-97.82741,29.64479],[-97.8311,29.64193],[-97.82833,29.63899],[-97.82829,29.63391],[-97.82929,29.63022],[-97.82937,29.61853],[-97.83207,29.61497],[-97.81132,29.61515],[-97.81122,29.61216],[-97.80897,29.61213],[-97.80814,29.61043],[-97.80494,29.61037],[-97.80472,29.5966],[-97.80574,29.59326],[-97.80572,29.5849],[-97.80398,29.58309],[-97.79982,29.58292],[-97.80052,29.57552],[-97.78266,29.58564],[-97.77921,29.5854],[-97.78467,29.57381],[-97.77851,29.57276],[-97.76845,29.57297],[-97.77059,29.56972],[-97.77247,29.55483],[-97.77654,29.55005],[-97.77767,29.5502],[-97.77671,29.54848],[-97.77749,29.54765],[-97.77569,29.54669],[-97.77532,29.54516],[-97.77388,29.54476],[-97.77421,29.54329],[-97.77531,29.54326],[-97.77428,29.54131],[-97.77551,29.54118],[-97.77579,29.54211],[-97.77657,29.54172],[-97.77463,29.53948],[-97.77575,29.54012],[-97.78323,29.53988],[-97.77324,29.53916],[-97.77426,29.53601],[-97.77728,29.53317],[-97.77806,29.53054],[-97.77344,29.52883],[-97.76752,29.5305],[-97.76419,29.53027],[-97.76015,29.53215],[-97.75598,29.53022],[-97.75259,29.52997],[-97.75293,29.52815],[-97.75222,29.52737],[-97.7474,29.52795],[-97.74651,29.52569],[-97.74807,29.52398],[-97.7483,29.52248],[-97.74682,29.52228],[-97.74517,29.52084],[-97.74335,29.52161],[-97.74197,29.52086],[-97.74413,29.51586],[-97.74155,29.51457],[-97.74053,29.51031],[-97.73964,29.50938],[-97.72765,29.52502],[-97.72655,29.52075],[-97.72329,29.51462],[-97.72111,29.5125],[-97.71744,29.51522],[-97.72042,29.51566],[-97.72043,29.51677],[-97.71731,29.51869],[-97.7152,29.51884],[-97.71259,29.51733],[-97.7124,29.52095],[-97.71112,29.5193],[-97.70726,29.51866],[-97.70806,29.51603],[-97.71002,29.51486],[-97.70958,29.51438],[-97.70594,29.51496],[-97.70709,29.51688],[-97.70619,29.51763],[-97.70413,29.51737],[-97.70295,29.5155],[-97.69936,29.51722],[-97.69931,29.51608],[-97.70072,29.51576],[-97.70117,29.51466],[-97.69952,29.51404],[-97.69708,29.51498],[-97.69855,29.5159],[-97.69785,29.5176],[-97.69418,29.51536],[-97.69159,29.51724],[-97.69202,29.51951],[-97.69113,29.51966],[-97.68976,29.5184],[-97.68983,29.51618],[-97.68638,29.51847],[-97.68421,29.52323],[-97.685,29.52374],[-97.6929,29.52435],[-97.70621,29.5303],[-97.71832,29.53068],[-97.72253,29.53178],[-97.68392,29.58274],[-97.68982,29.58899],[-97.6913,29.58891],[-97.70192,29.59984],[-97.70116,29.60042],[-97.70284,29.60211],[-97.71112,29.60137],[-97.71965,29.60947],[-97.7265,29.61089],[-97.72865,29.6105],[-97.72668,29.6142],[-97.71155,29.62583],[-97.70993,29.62813],[-97.70956,29.63114],[-97.71907,29.64069],[-97.72166,29.63889],[-97.73469,29.63538],[-97.74081,29.64149],[-97.74035,29.64406],[-97.72021,29.65921],[-97.70931,29.66219],[-97.70054,29.66841],[-97.70223,29.66859],[-97.7022,29.6701],[-97.70342,29.67048],[-97.70385,29.67425],[-97.70607,29.67455],[-97.70518,29.67558],[-97.70656,29.67735],[-97.70533,29.67749],[-97.70478,29.67911],[-97.70564,29.68022],[-97.7038,29.68184],[-97.70845,29.68373],[-97.7117,29.6815],[-97.71721,29.6818],[-97.71779,29.68248],[-97.71695,29.68307],[-97.7172,29.68415],[-97.72274,29.68215],[-97.72138,29.68445],[-97.7221,29.68552],[-97.72563,29.68567],[-97.72758,29.68789],[-97.73601,29.69134],[-97.73541,29.69362],[-97.73851,29.69655],[-97.74329,29.69697],[-97.74335,29.69884],[-97.7368,29.70222],[-97.73594,29.70563],[-97.73658,29.71073],[-97.73843,29.71296],[-97.74394,29.71186],[-97.74493,29.71269],[-97.74609,29.7113],[-97.74899,29.7111],[-97.74975,29.71194],[-97.74665,29.71256],[-97.74709,29.71402],[-97.74998,29.71463],[-97.75294,29.71663],[-97.75655,29.71782],[-97.75904,29.71459],[-97.76279,29.71285],[-97.76374,29.71342],[-97.76566,29.71713],[-97.76832,29.71888],[-97.76847,29.72005],[-97.76647,29.72176],[-97.76354,29.72177],[-97.75922,29.72384],[-97.7587,29.72552],[-97.76098,29.72549],[-97.76059,29.72708],[-97.76128,29.7283],[-97.76374,29.7279],[-97.76528,29.72848],[-97.77229,29.7338],[-97.77193,29.73419],[-97.77127,29.73284],[-97.7705,29.73347],[-97.7707,29.73782],[-97.76823,29.74108],[-97.76856,29.74163],[-97.77286,29.74224],[-97.77406,29.74158],[-97.774,29.74394],[-97.77711,29.74669],[-97.78219,29.74786],[-97.78149,29.74865],[-97.78027,29.7477],[-97.77944,29.74842],[-97.78124,29.75271],[-97.78014,29.75627],[-97.78172,29.75783],[-97.7805,29.75825],[-97.78116,29.75949],[-97.78667,29.76099],[-97.79254,29.75946],[-97.79327,29.75786],[-97.79292,29.75419],[-97.79364,29.75325],[-97.79593,29.75233],[-97.79968,29.7523],[-97.80136,29.75419],[-97.8036,29.75373],[-97.80398,29.75491],[-97.80302,29.75637],[-97.80386,29.75726],[-97.80323,29.75833],[-97.80115,29.75899],[-97.80049,29.75996],[-97.79974,29.76322],[-97.80028,29.76621],[-97.80121,29.76703],[-97.80294,29.76669],[-97.80562,29.76777],[-97.84004,29.7444],[-97.85252,29.74051],[-97.8602,29.74842],[-97.85943,29.74968],[-97.87357,29.76387],[-97.87098,29.76646],[-97.87338,29.76911],[-97.87854,29.76537],[-97.87523,29.76201],[-97.87641,29.76111],[-97.88613,29.75381],[-97.89806,29.75003],[-97.90548,29.74463],[-97.91063,29.75117],[-97.92554,29.74527],[-97.92834,29.7425],[-97.93019,29.74431],[-97.93542,29.74354],[-97.9363,29.74455],[-97.94136,29.7427],[-97.94195,29.74328],[-97.94133,29.74527],[-97.94358,29.74711],[-97.9444,29.74922],[-97.94607,29.74959],[-97.94785,29.74892],[-97.94731,29.74862],[-97.94889,29.74805],[-97.95033,29.74136],[-97.9492,29.73492],[-97.94576,29.73489],[-97.94554,29.72426],[-97.95473,29.72423],[-97.95504,29.71851],[-97.9607,29.71904],[-97.96212,29.716]]]}},{"type":"Feature","properties":{"zip_code":"78670"},"geometry":{"type":"Polygon","coordinates":[[[-97.87357,29.76387],[-97.85943,29.74968],[-97.8602,29.74842],[-97.85252,29.74051],[-97.84004,29.7444],[-97.82079,29.75776],[-97.82248,29.76342],[-97.8268,29.76813],[-97.82587,29.76881],[-97.83317,29.77893],[-97.83015,29.78087],[-97.8314,29.78301],[-97.83375,29.7815],[-97.83547,29.78285],[-97.83833,29.7835],[-97.83567,29.78064],[-97.84537,29.77341],[-97.84624,29.77446],[-97.83811,29.78086],[-97.8389,29.78153],[-97.83843,29.78186],[-97.84486,29.78599],[-97.87357,29.76387]]]}}]}