{"type":"FeatureCollection","features":[{"type":"Feature","properties":{"zip_code":"78610"},"geometry":{"type":"Polygon","coordinates":[[[-98.01637,30.13041],[-98.01624,30.12969],[-98.01503,30.12787],[-98.01315,30.12715],[-98.0123,30.1271],[-98.00929,30.12817],[-98.00861,30.12803],[-98.00821,30.12767],[-98.00756,30.12521],[-98.00765,30.12423],[-98.00829,30.12242],[-98.00813,30.12139],[-98.00579,30.11875],[-98.00331,30.11726],[-98.00307,30.11687],[-98.00247,30.11252],[-98.00144,30.11107],[-98.00092,30.11066],[-97.99691,30.11074],[-97.9964,30.11035],[-97.99606,30.11043],[-97.99565,30.11093],[-97.9964,30.11251],[-97.99627,30.11295],[-97.99587,30.11319],[-97.99467,30.11282],[-97.99356,30.112],[-97.99241,30.11034],[-97.99229,30.10968],[-97.99241,30.10834],[-97.99299,30.10745],[-97.99318,30.10668],[-97.99457,30.10461],[-97.99365,30.10461],[-97.99561,30.10271],[-97.99793,30.09991],[-97.99814,30.09936],[-98.00103,30.09686],[-98.00203,30.0965],[-98.00269,30.09585],[-98.00522,30.09166],[-98.00638,30.09049],[-98.0105,30.08923],[-98.0122,30.08809],[-98.01327,30.08551],[-98.01322,30.08496],[-98.0121,30.08462],[-98.01108,30.08473],[-98.01051,30.08452],[-98.00813,30.08308],[-98.00683,30.08396],[-98.00462,30.08443],[-98.00002,30.08398],[-97.99895,30.0835],[-97.99832,30.08273],[-97.99702,30.08018],[-97.99577,30.07975],[-97.99461,30.08023],[-97.99254,30.08416],[-97.9904,30.08625],[-97.98608,30.08737],[-97.98187,30.08928],[-97.98014,30.08951],[-97.9789,30.08895],[-97.97785,30.08797],[-97.97663,30.08613],[-97.9752,30.08501],[-97.9745,30.0841],[-97.97426,30.08305],[-97.9747,30.08134],[-97.97713,30.07923],[-97.9786,30.07834],[-97.97924,30.07733],[-97.97948,30.0761],[-97.97931,30.0745],[-97.97822,30.07263],[-97.97793,30.07012],[-97.97837,30.06932],[-97.98106,30.06712],[-97.98269,30.06485],[-97.98294,30.06387],[-97.98176,30.06224],[-97.979,30.06062],[-97.97719,30.06042],[-97.97625,30.05894],[-97.97511,30.05794],[-97.97245,30.05661],[-97.96934,30.05373],[-97.96743,30.05282],[-97.96304,30.05205],[-97.95564,30.05157],[-97.9465,30.05378],[-97.94511,30.05324],[-97.94284,30.05096],[-97.94179,30.05032],[-97.94014,30.04977],[-97.93888,30.0498],[-97.93778,30.05027],[-97.93769,30.05156],[-97.9372,30.05254],[-97.93407,30.05512],[-97.93239,30.05681],[-97.93107,30.05879],[-97.92992,30.05984],[-97.9259,30.06228],[-97.92591,30.0608],[-97.92614,30.06084],[-97.92618,30.06023],[-97.92783,30.05989],[-97.92764,30.05171],[-97.90335,30.05198],[-97.90444,30.05],[-97.90649,30.04823],[-97.90694,30.04682],[-97.90819,30.04475],[-97.90871,30.04445],[-97.90985,30.04446],[-97.91263,30.04533],[-97.9146,30.04473],[-97.91439,30.03582],[-97.90646,30.0363],[-97.90646,30.02853],[-97.90329,30.02843],[-97.90239,30.03323],[-97.9017,30.03421],[-97.8879,30.03452],[-97.88719,30.03714],[-97.88353,30.04629],[-97.88039,30.04939],[-97.87843,30.05014],[-97.87528,30.05021],[-97.87471,30.04971],[-97.87478,30.04446],[-97.87212,30.03733],[-97.87247,30.02816],[-97.86686,30.0282],[-97.86337,30.04052],[-97.85632,30.04079],[-97.8563,30.03972],[-97.85272,30.0398],[-97.85276,30.04139],[-97.85177,30.04137],[-97.8518,30.04257],[-97.84462,30.04248],[-97.84456,30.04199],[-97.84741,30.04145],[-97.85056,30.04145],[-97.85053,30.03591],[-97.84286,30.03532],[-97.84164,30.0377],[-97.8315,30.03771],[-97.83148,30.03497],[-97.82812,30.03499],[-97.8281,30.03268],[-97.82906,30.03196],[-97.82774,30.03178],[-97.82562,30.03063],[-97.82464,30.0304],[-97.81239,30.0306],[-97.81113,30.03121],[-97.80485,30.03672],[-97.80432,30.03634],[-97.80397,30.03658],[-97.8025,30.0354],[-97.79962,30.03789],[-97.79849,30.03797],[-97.79597,30.036],[-97.78933,30.04176],[-97.78246,30.03614],[-97.77763,30.03333],[-97.77662,30.03297],[-97.77467,30.03279],[-97.76911,30.03329],[-97.76942,30.03464],[-97.75414,30.04847],[-97.7544,30.04884],[-97.75616,30.04971],[-97.75627,30.05005],[-97.75148,30.05435],[-97.7348,30.0424],[-97.73379,30.04282],[-97.73288,30.04281],[-97.73234,30.04329],[-97.73131,30.04355],[-97.73044,30.04417],[-97.72797,30.04456],[-97.72642,30.04554],[-97.72517,30.04534],[-97.72463,30.04456],[-97.72375,30.04416],[-97.7212,30.04649],[-97.70415,30.03211],[-97.70311,30.03067],[-97.70051,30.02595],[-97.6946,30.02722],[-97.69425,30.02655],[-97.67093,30.03123],[-97.66816,30.0321],[-97.66572,30.03327],[-97.67204,30.03889],[-97.65992,30.04963],[-97.66861,30.05669],[-97.66536,30.0596],[-97.66624,30.06027],[-97.6649,30.06156],[-97.66768,30.06399],[-97.66777,30.06501],[-97.66442,30.065],[-97.66266,30.06357],[-97.65369,30.07156],[-97.66628,30.08203],[-97.669,30.07959],[-97.66899,30.08039],[-97.66858,30.08118],[-97.6692,30.08208],[-97.66844,30.0824],[-97.66846,30.08293],[-97.66901,30.08341],[-97.66896,30.0842],[-97.67168,30.08642],[-97.67188,30.08595],[-97.67295,30.08509],[-97.67319,30.08435],[-97.67303,30.08365],[-97.67418,30.08186],[-97.67451,30.08194],[-97.67497,30.08164],[-97.67661,30.08228],[-97.67809,30.08217],[-97.67863,30.08239],[-97.68079,30.08219],[-97.68207,30.08175],[-97.68282,30.08196],[-97.68467,30.08014],[-97.68572,30.07953],[-97.68641,30.07851],[-97.68725,30.07835],[-97.68971,30.07595],[-97.69157,30.07552],[-97.69145,30.06852],[-97.69081,30.06136],[-97.69114,30.06096],[-97.69071,30.05615],[-97.69205,30.05602],[-97.69282,30.06322],[-97.69335,30.08107],[-97.6961,30.08048],[-97.69819,30.08031],[-97.69884,30.08083],[-97.71044,30.08245],[-97.72628,30.08114],[-97.72977,30.08169],[-97.73522,30.08396],[-97.73505,30.0856],[-97.73305,30.0856],[-97.73305,30.08602],[-97.73249,30.0861],[-97.73192,30.0859],[-97.73146,30.08684],[-97.73042,30.08733],[-97.72962,30.08724],[-97.72948,30.08757],[-97.72879,30.08712],[-97.72839,30.08656],[-97.7283,30.08594],[-97.72744,30.08513],[-97.72726,30.08423],[-97.72464,30.08342],[-97.72219,30.0823],[-97.72119,30.08266],[-97.72032,30.08374],[-97.71805,30.08513],[-97.71659,30.08536],[-97.7138,30.08631],[-97.71255,30.08709],[-97.71147,30.08844],[-97.71464,30.08853],[-97.71484,30.08884],[-97.71058,30.09548],[-97.72204,30.10101],[-97.72331,30.10242],[-97.72443,30.10302],[-97.72485,30.10289],[-97.72357,30.10201],[-97.72345,30.10164],[-97.72435,30.10057],[-97.72453,30.09995],[-97.7252,30.09959],[-97.71818,30.09625],[-97.72292,30.08885],[-97.72394,30.08909],[-97.73228,30.09359],[-97.72638,30.10292],[-97.7309,30.10558],[-97.72784,30.11029],[-97.73093,30.11194],[-97.73267,30.10969],[-97.73809,30.11227],[-97.74439,30.11425],[-97.74539,30.11192],[-97.74878,30.1135],[-97.74975,30.11199],[-97.74927,30.1115],[-97.75626,30.1004],[-97.78179,30.11265],[-97.78529,30.11277],[-97.78515,30.1129],[-97.79198,30.1128],[-97.80435,30.11863],[-97.80734,30.1114],[-97.81325,30.09868],[-97.86656,30.13688],[-97.86736,30.13679],[-97.86745,30.13338],[-97.86847,30.13337],[-97.86851,30.12815],[-97.87502,30.12797],[-97.87988,30.12837],[-97.87942,30.12465],[-97.90716,30.12431],[-97.90698,30.12749],[-97.90668,30.12837],[-97.90566,30.129],[-97.90179,30.12982],[-97.90138,30.13048],[-97.90026,30.13142],[-97.89444,30.13352],[-97.89412,30.13416],[-97.9039,30.13394],[-97.90399,30.13253],[-97.91273,30.13259],[-97.91285,30.14185],[-97.91519,30.14179],[-97.91537,30.14254],[-97.91551,30.15487],[-97.95673,30.12073],[-97.9567,30.11699],[-97.95768,30.11724],[-97.96118,30.11731],[-97.98533,30.11712],[-97.98636,30.1174],[-97.98781,30.11826],[-97.99275,30.12186],[-97.99507,30.12252],[-98.00017,30.1227],[-98.00182,30.12337],[-98.0104,30.13192],[-98.0114,30.13137],[-98.01264,30.13121],[-98.01582,30.13144],[-98.01637,30.13041]]]}},{"type":"Feature","properties":{"zip_code":"78619"},"geometry":{"type":"Polygon","coordinates":[[[-98.10058,30.08669],[-98.10003,30.08351],[-98.09738,30.07904],[-98.09303,30.07505],[-98.09171,30.07407],[-98.0909,30.07412],[-98.09038,30.07302],[-98.09056,30.07254],[-98.08958,30.07016],[-98.08761,30.07017],[-98.08765,30.07114],[-98.08834,30.07266],[-98.08843,30.07387],[-98.08604,30.07389],[-98.08629,30.07886],[-98.08034,30.07901],[-98.08056,30.08382],[-98.08692,30.08368],[-98.08697,30.08667],[-98.08623,30.08689],[-98.08602,30.08721],[-98.08048,30.08653],[-98.08054,30.08974],[-98.0763,30.08925],[-98.07636,30.09071],[-98.05291,30.0915],[-98.05294,30.09179],[-98.0503,30.09179],[-98.05028,30.09081],[-98.04661,30.09078],[-98.04642,30.08352],[-98.04532,30.08354],[-98.04494,30.07878],[-98.04621,30.07889],[-98.04597,30.07051],[-98.03682,30.07026],[-98.03597,30.05685],[-98.02703,30.05207],[-98.02688,30.05138],[-98.0279,30.04978],[-98.02705,30.04939],[-98.02604,30.04807],[-98.02028,30.04805],[-98.01517,30.04656],[-98.01284,30.04634],[-98.005,30.04648],[-98.00399,30.04663],[-98.00035,30.04793],[-97.98717,30.04721],[-97.98806,30.04772],[-97.98874,30.04853],[-97.98915,30.05247],[-97.98685,30.05163],[-97.98457,30.05255],[-97.98403,30.05369],[-97.98301,30.05441],[-97.98198,30.05454],[-97.98152,30.05509],[-97.98128,30.05603],[-97.98134,30.0582],[-97.98094,30.05917],[-97.979,30.06062],[-97.98176,30.06224],[-97.98294,30.06387],[-97.98269,30.06485],[-97.98106,30.06712],[-97.97837,30.06932],[-97.97793,30.07012],[-97.97822,30.07263],[-97.97931,30.0745],[-97.97948,30.0761],[-97.97924,30.07733],[-97.9786,30.07834],[-97.97713,30.07923],[-97.9747,30.08134],[-97.97426,30.08305],[-97.9745,30.0841],[-97.9752,30.08501],[-97.97663,30.08613],[-97.97785,30.08797],[-97.9789,30.08895],[-97.98014,30.08951],[-97.98187,30.08928],[-97.98608,30.08737],[-97.9904,30.08625],[-97.99254,30.08416],[-97.99461,30.08023],[-97.99577,30.07975],[-97.99702,30.08018],[-97.99832,30.08273],[-97.99895,30.0835],[-98.00002,30.08398],[-98.00462,30.08443],[-98.00683,30.08396],[-98.00813,30.08308],[-98.01051,30.08452],[-98.01108,30.08473],[-98.0121,30.08462],[-98.01322,30.08496],[-98.01327,30.08551],[-98.0122,30.08809],[-98.0105,30.08923],[-98.00638,30.09049],[-98.00522,30.09166],[-98.00269,30.09585],[-98.00203,30.0965],[-98.00103,30.09686],[-97.99814,30.09936],[-97.99793,30.09991],[-97.99561,30.10271],[-97.99365,30.10461],[-97.99457,30.10461],[-97.99318,30.10668],[-97.99299,30.10745],[-97.99241,30.10834],[-97.99229,30.10968],[-97.99241,30.11034],[-97.99356,30.112],[-97.99467,30.11282],[-97.99587,30.11319],[-97.99627,30.11295],[-97.9964,30.11251],[-97.99565,30.11093],[-97.99606,30.11043],[-97.9964,30.11035],[-97.99691,30.11074],[-98.00092,30.11066],[-98.00144,30.11107],[-98.00247,30.11252],[-98.00307,30.11687],[-98.00331,30.11726],[-98.00579,30.11875],[-98.00813,30.12139],[-98.00829,30.12242],[-98.00765,30.12423],[-98.00756,30.12521],[-98.00821,30.12767],[-98.00861,30.12803],[-98.00929,30.12817],[-98.0123,30.1271],[-98.01315,30.12715],[-98.01503,30.12787],[-98.01624,30.12969],[-98.01637,30.13041],[-98.01582,30.13144],[-98.01264,30.13121],[-98.0114,30.13137],[-98.0104,30.13192],[-98.00182,30.12337],[-98.00017,30.1227],[-97.99507,30.12252],[-97.99275,30.12186],[-97.98781,30.11826],[-97.98636,30.1174],[-97.98533,30.11712],[-97.96118,30.11731],[-97.95768,30.11724],[-97.9567,30.11699],[-97.95654,30.12851],[-97.97204,30.12839],[-97.97222,30.1523],[-97.97422,30.15122],[-97.97747,30.1506],[-97.98278,30.14808],[-97.98599,30.14685],[-97.99057,30.1488],[-97.99246,30.14993],[-97.99348,30.15105],[-97.99405,30.15296],[-97.99527,30.15375],[-98.01918,30.15327],[-98.019,30.15432],[-98.01959,30.15557],[-98.01827,30.15672],[-98.01694,30.15661],[-98.01551,30.15595],[-98.01505,30.1562],[-98.01506,30.15775],[-98.01458,30.15899],[-98.01477,30.16044],[-98.01376,30.16131],[-98.01329,30.16252],[-98.01372,30.16367],[-98.01516,30.16601],[-98.03749,30.16565],[-98.03769,30.17075],[-98.04437,30.17071],[-98.0444,30.17013],[-98.05627,30.16998],[-98.05607,30.16961],[-98.05607,30.16835],[-98.05468,30.16684],[-98.05476,30.16588],[-98.0653,30.16677],[-98.06785,30.16602],[-98.07705,30.16608],[-98.08009,30.16142],[-98.08182,30.1623],[-98.08282,30.16323],[-98.08565,30.1672],[-98.08684,30.16808],[-98.08801,30.16617],[-98.09095,30.16319],[-98.09134,30.1617],[-98.09112,30.15739],[-98.09001,30.15438],[-98.09165,30.14952],[-98.08985,30.14561],[-98.08863,30.14131],[-98.08598,30.14045],[-98.08477,30.14075],[-98.08449,30.14183],[-98.08467,30.14273],[-98.08436,30.1435],[-98.083,30.14405],[-98.08237,30.14354],[-98.08062,30.14279],[-98.07915,30.1413],[-98.07845,30.14106],[-98.07764,30.14117],[-98.07678,30.14198],[-98.07904,30.14371],[-98.07909,30.14519],[-98.08047,30.14596],[-98.0787,30.14771],[-98.07808,30.14789],[-98.07714,30.14771],[-98.0765,30.14702],[-98.07617,30.14579],[-98.07585,30.14544],[-98.07526,30.14529],[-98.07336,30.14559],[-98.07106,30.14648],[-98.06748,30.14887],[-98.06555,30.1488],[-98.06347,30.14628],[-98.06332,30.14504],[-98.06219,30.14316],[-98.06055,30.13961],[-98.06006,30.13926],[-98.06001,30.13807],[-98.0605,30.13718],[-98.06021,30.1359],[-98.05922,30.13452],[-98.05749,30.13377],[-98.05616,30.13382],[-98.05443,30.13486],[-98.05391,30.13726],[-98.05297,30.13794],[-98.05118,30.13873],[-98.05001,30.14077],[-98.04834,30.14243],[-98.04743,30.14322],[-98.04447,30.14402],[-98.04436,30.12523],[-98.06553,30.1253],[-98.06554,30.12512],[-98.06664,30.12516],[-98.06662,30.12433],[-98.0732,30.12431],[-98.07324,30.12536],[-98.07275,30.12539],[-98.07267,30.12709],[-98.07494,30.12708],[-98.07488,30.13019],[-98.07412,30.13018],[-98.07271,30.13358],[-98.08137,30.13349],[-98.08138,30.13291],[-98.08646,30.13313],[-98.08656,30.13185],[-98.08732,30.13187],[-98.08736,30.13096],[-98.08994,30.13099],[-98.08999,30.12983],[-98.08952,30.12816],[-98.0896,30.12565],[-98.08921,30.12281],[-98.08844,30.12068],[-98.08835,30.11772],[-98.08947,30.11376],[-98.09231,30.10709],[-98.09593,30.1021],[-98.09665,30.09928],[-98.09607,30.09758],[-98.09609,30.09674],[-98.09853,30.09096],[-98.09968,30.08928],[-98.10058,30.08669]]]}},{"type":"Feature","properties":{"zip_code":"78620"},"geometry":{"type":"Polygon","coordinates":[[[-98.278,30.14255],[-98.27802,30.142],[-98.27747,30.14151],[-98.27672,30.13821],[-98.27585,30.13747],[-98.27037,30.14046],[-98.26586,30.14108],[-98.26592,30.13471],[-98.2635,30.13475],[-98.26345,30.12614],[-98.25924,30.13654],[-98.25788,30.13674],[-98.25672,30.13552],[-98.25665,30.13496],[-98.24906,30.13642],[-98.24449,30.13187],[-98.23054,30.13173],[-98.22965,30.12469],[-98.22936,30.1249],[-98.2298,30.12422],[-98.22952,30.11833],[-98.21447,30.11854],[-98.21348,30.11829],[-98.21148,30.11634],[-98.20912,30.11978],[-98.20617,30.12284],[-98.19945,30.11835],[-98.20589,30.11154],[-98.20224,30.10856],[-98.20194,30.1089],[-98.20091,30.10892],[-98.19978,30.10733],[-98.19781,30.1086],[-98.19273,30.10979],[-98.19238,30.10949],[-98.19154,30.11007],[-98.18882,30.11071],[-98.18665,30.11344],[-98.18453,30.11146],[-98.18326,30.11294],[-98.18318,30.11364],[-98.17953,30.11487],[-98.17929,30.11549],[-98.17884,30.11572],[-98.17754,30.11551],[-98.1744,30.11219],[-98.1739,30.11355],[-98.17378,30.11478],[-98.174,30.11589],[-98.17382,30.11639],[-98.17173,30.1178],[-98.1702,30.11938],[-98.16974,30.12036],[-98.16847,30.12172],[-98.16798,30.12355],[-98.16683,30.12406],[-98.16475,30.12416],[-98.16366,30.12488],[-98.16319,30.12576],[-98.16327,30.12714],[-98.16148,30.12819],[-98.16073,30.12979],[-98.16042,30.12966],[-98.15989,30.12645],[-98.15851,30.1257],[-98.15816,30.12501],[-98.1582,30.12421],[-98.15742,30.12374],[-98.15718,30.12288],[-98.15751,30.12242],[-98.15745,30.12192],[-98.15833,30.12084],[-98.1581,30.1187],[-98.15711,30.11885],[-98.15637,30.11976],[-98.15536,30.12021],[-98.15358,30.11988],[-98.1506,30.12006],[-98.14906,30.12151],[-98.14749,30.12254],[-98.14515,30.12145],[-98.14221,30.12148],[-98.14179,30.12127],[-98.1413,30.12024],[-98.1427,30.1174],[-98.14239,30.1168],[-98.14057,30.11664],[-98.14018,30.11637],[-98.13982,30.11559],[-98.13839,30.11575],[-98.13785,30.11684],[-98.13763,30.11676],[-98.13705,30.11505],[-98.13541,30.11398],[-98.13476,30.11287],[-98.13396,30.11224],[-98.13372,30.11106],[-98.13239,30.10994],[-98.13164,30.10808],[-98.13073,30.10731],[-98.1279,30.10709],[-98.12505,30.10775],[-98.1236,30.10738],[-98.12092,30.10595],[-98.11976,30.10404],[-98.11922,30.10366],[-98.11548,30.10195],[-98.11301,30.10216],[-98.11,30.10196],[-98.10667,30.10106],[-98.10496,30.10109],[-98.1015,30.10066],[-98.10073,30.10075],[-98.0979,30.10222],[-98.09598,30.10195],[-98.09231,30.10709],[-98.08924,30.11437],[-98.08831,30.11798],[-98.08846,30.1208],[-98.08933,30.12344],[-98.08961,30.12604],[-98.08952,30.12816],[-98.08999,30.12983],[-98.08999,30.13082],[-98.08994,30.13099],[-98.08736,30.13096],[-98.08732,30.13187],[-98.08656,30.13185],[-98.08646,30.13313],[-98.08138,30.13291],[-98.08137,30.13349],[-98.07271,30.13358],[-98.07412,30.13018],[-98.07488,30.13019],[-98.07494,30.12708],[-98.07267,30.12709],[-98.07275,30.12539],[-98.07324,30.12536],[-98.0732,30.12431],[-98.06662,30.12433],[-98.06664,30.12516],[-98.06554,30.12512],[-98.06553,30.1253],[-98.04436,30.12523],[-98.04447,30.14402],[-98.04743,30.14322],[-98.04834,30.14243],[-98.05001,30.14077],[-98.05118,30.13873],[-98.05297,30.13794],[-98.05391,30.13726],[-98.05443,30.13486],[-98.05616,30.13382],[-98.05749,30.13377],[-98.05922,30.13452],[-98.06021,30.1359],[-98.0605,30.13718],[-98.06001,30.13807],[-98.06006,30.13926],[-98.06055,30.13961],[-98.06219,30.14316],[-98.06332,30.14504],[-98.06347,30.14628],[-98.06555,30.1488],[-98.06748,30.14887],[-98.07106,30.14648],[-98.07336,30.14559],[-98.07526,30.14529],[-98.07585,30.14544],[-98.07617,30.14579],[-98.0765,30.14702],[-98.07714,30.14771],[-98.07808,30.14789],[-98.0787,30.14771],[-98.08047,30.14596],[-98.07909,30.14519],[-98.07904,30.14371],[-98.07678,30.14198],[-98.07764,30.14117],[-98.07845,30.14106],[-98.07915,30.1413],[-98.08062,30.14279],[-98.08237,30.14354],[-98.083,30.14405],[-98.08436,30.1435],[-98.08467,30.14273],[-98.08449,30.14183],[-98.08477,30.14075],[-98.08598,30.14045],[-98.08863,30.14131],[-98.08985,30.14561],[-98.09165,30.14952],[-98.09001,30.15438],[-98.09112,30.15739],[-98.09134,30.1617],[-98.09095,30.16319],[-98.08801,30.16617],[-98.08684,30.16808],[-98.08565,30.1672],[-98.08282,30.16323],[-98.08182,30.1623],[-98.08009,30.16142],[-98.07705,30.16608],[-98.06785,30.16602],[-98.0653,30.16677],[-98.05476,30.16588],[-98.05468,30.16684],[-98.05607,30.16835],[-98.05607,30.16961],[-98.05627,30.16998],[-98.0444,30.17013],[-98.04437,30.17071],[-98.03769,30.17075],[-98.03749,30.16565],[-98.01516,30.16601],[-98.01372,30.16367],[-98.01329,30.16252],[-98.01376,30.16131],[-98.01477,30.16044],[-98.01458,30.15899],[-98.01506,30.15775],[-98.01505,30.1562],[-98.01551,30.15595],[-98.01694,30.15661],[-98.01827,30.15672],[-98.01959,30.15557],[-98.019,30.15432],[-98.01918,30.15327],[-98.00878,30.15347],[-98.00898,30.15507],[-98.00892,30.15756],[-98.00861,30.16041],[-98.00841,30.16692],[-98.00781,30.16859],[-98.005,30.17224],[-98.00448,30.17404],[-98.00298,30.17664],[-98.00229,30.17886],[-98.00188,30.18185],[-98.00073,30.18599],[-98.00064,30.18846],[-98.00035,30.18943],[-97.99991,30.1903],[-97.99753,30.19186],[-97.99723,30.19241],[-97.99788,30.19434],[-97.99733,30.19661],[-97.99739,30.19684],[-98.00027,30.19637],[-98.00675,30.19631],[-98.01277,30.19683],[-98.0142,30.20154],[-98.01522,30.20359],[-98.0155,30.20536],[-98.01634,30.20713],[-98.01727,30.2067],[-98.01781,30.20791],[-98.01949,30.20837],[-98.02132,30.21011],[-98.02252,30.21065],[-98.02262,30.21164],[-98.02296,30.21181],[-98.02371,30.21448],[-98.02247,30.21504],[-98.02286,30.21561],[-98.02432,30.21496],[-98.02489,30.21579],[-98.02655,30.22096],[-98.02696,30.221],[-98.02696,30.22226],[-98.03013,30.22222],[-98.03064,30.2238],[-98.03089,30.22397],[-98.03066,30.22447],[-98.0299,30.22477],[-98.0307,30.22546],[-98.0302,30.22598],[-98.03026,30.2262],[-98.03158,30.22632],[-98.03442,30.22756],[-98.03484,30.22717],[-98.03613,30.22739],[-98.03668,30.22705],[-98.03749,30.22854],[-98.03734,30.22971],[-98.03601,30.23129],[-98.03513,30.23175],[-98.03408,30.23168],[-98.03266,30.23245],[-98.03241,30.23333],[-98.03336,30.23583],[-98.03316,30.23652],[-98.03256,30.23704],[-98.0284,30.23782],[-98.02797,30.2378],[-98.02735,30.23715],[-98.02636,30.23665],[-98.02499,30.23672],[-98.02633,30.2375],[-98.0264,30.23865],[-98.02692,30.23979],[-98.02893,30.2413],[-98.02973,30.24266],[-98.02911,30.24491],[-98.02758,30.24592],[-98.02856,30.24605],[-98.02853,30.24743],[-98.02671,30.25169],[-98.03067,30.25451],[-98.02657,30.26074],[-98.04025,30.28432],[-98.03887,30.28492],[-98.03897,30.2852],[-98.03835,30.2853],[-98.03801,30.28575],[-98.03711,30.28559],[-98.03642,30.28577],[-98.0367,30.28651],[-98.03725,30.28706],[-98.03835,30.28749],[-98.03984,30.2873],[-98.04101,30.28786],[-98.04209,30.28994],[-98.04437,30.28977],[-98.0462,30.28871],[-98.04791,30.28905],[-98.04946,30.28807],[-98.04973,30.28863],[-98.05171,30.28763],[-98.05285,30.28739],[-98.05513,30.28724],[-98.06131,30.28592],[-98.06288,30.28582],[-98.06482,30.2865],[-98.07383,30.29075],[-98.07475,30.29092],[-98.07453,30.29259],[-98.07368,30.29307],[-98.07379,30.29336],[-98.07297,30.29458],[-98.07305,30.29537],[-98.07232,30.29573],[-98.07186,30.29654],[-98.07131,30.29666],[-98.07053,30.29727],[-98.06975,30.29713],[-98.06898,30.2976],[-98.06741,30.29754],[-98.06622,30.29799],[-98.06477,30.29801],[-98.06428,30.29837],[-98.06388,30.29934],[-98.06036,30.30044],[-98.05809,30.30073],[-98.05845,30.3018],[-98.05711,30.30284],[-98.05726,30.30431],[-98.05657,30.30551],[-98.05699,30.30631],[-98.05825,30.30699],[-98.05865,30.30865],[-98.05734,30.31022],[-98.0563,30.31083],[-98.05659,30.31257],[-98.0562,30.31282],[-98.05624,30.31381],[-98.0558,30.31427],[-98.05576,30.31592],[-98.05547,30.31626],[-98.05375,30.31683],[-98.05291,30.31805],[-98.05119,30.31918],[-98.05011,30.32022],[-98.04841,30.32081],[-98.04683,30.3226],[-98.04593,30.3228],[-98.04424,30.32239],[-98.04356,30.3225],[-98.04354,30.3228],[-98.04508,30.32489],[-98.04528,30.3255],[-98.04521,30.3259],[-98.04485,30.32602],[-98.04353,30.3255],[-98.04348,30.32579],[-98.04408,30.32655],[-98.04314,30.32666],[-98.04277,30.3271],[-98.04295,30.32846],[-98.0437,30.3296],[-98.04385,30.33031],[-98.04357,30.33368],[-98.04314,30.33466],[-98.0427,30.33504],[-98.04111,30.33484],[-98.04063,30.33501],[-98.04044,30.33562],[-98.0406,30.33627],[-98.04018,30.33692],[-98.04198,30.33782],[-98.04262,30.33869],[-98.04388,30.33961],[-98.04558,30.33939],[-98.04689,30.33867],[-98.04764,30.33877],[-98.04864,30.33932],[-98.05133,30.34172],[-98.0522,30.34159],[-98.0544,30.34],[-98.05507,30.34007],[-98.05521,30.34065],[-98.05873,30.34197],[-98.05975,30.3447],[-98.06141,30.3471],[-98.06251,30.34779],[-98.06935,30.34422],[-98.07411,30.34639],[-98.07676,30.3452],[-98.07697,30.34252],[-98.07655,30.34076],[-98.07711,30.33856],[-98.07658,30.33724],[-98.07772,30.33554],[-98.07869,30.33351],[-98.07911,30.33155],[-98.08188,30.32818],[-98.08199,30.32697],[-98.08255,30.32581],[-98.08314,30.32307],[-98.08346,30.32041],[-98.08489,30.31943],[-98.08508,30.31821],[-98.08585,30.31646],[-98.08709,30.31577],[-98.0875,30.31467],[-98.08897,30.31429],[-98.0896,30.31295],[-98.09055,30.31214],[-98.10342,30.32071],[-98.10761,30.32417],[-98.1089,30.32599],[-98.11205,30.32775],[-98.09972,30.33432],[-98.10773,30.34652],[-98.09583,30.35251],[-98.09501,30.35355],[-98.10206,30.35705],[-98.10131,30.35829],[-98.11141,30.36321],[-98.1141,30.35923],[-98.11442,30.35908],[-98.11637,30.35997],[-98.11859,30.37203],[-98.11898,30.37476],[-98.11902,30.37741],[-98.12593,30.375],[-98.12896,30.37259],[-98.12937,30.37262],[-98.13012,30.37204],[-98.13168,30.37048],[-98.13229,30.36948],[-98.1321,30.3678],[-98.13163,30.36684],[-98.13076,30.36567],[-98.12904,30.3645],[-98.12901,30.36384],[-98.12769,30.36338],[-98.12711,30.3628],[-98.12703,30.36166],[-98.12769,30.36058],[-98.12909,30.35925],[-98.13213,30.35767],[-98.13525,30.35511],[-98.13771,30.35086],[-98.13855,30.34715],[-98.13829,30.34426],[-98.13879,30.34151],[-98.13931,30.34062],[-98.13946,30.33709],[-98.13929,30.33518],[-98.13967,30.33429],[-98.14016,30.33396],[-98.14327,30.33395],[-98.15182,30.33483],[-98.15538,30.33451],[-98.16323,30.33226],[-98.17262,30.32877],[-98.17506,30.32757],[-98.17592,30.32753],[-98.17709,30.32821],[-98.17919,30.33035],[-98.18078,30.333],[-98.18288,30.33485],[-98.18484,30.34067],[-98.18502,30.34434],[-98.18534,30.34611],[-98.18642,30.34802],[-98.19277,30.35033],[-98.19507,30.35008],[-98.19661,30.34941],[-98.1985,30.34597],[-98.19828,30.34481],[-98.19734,30.34387],[-98.19654,30.34],[-98.19631,30.338],[-98.19676,30.33636],[-98.19752,30.33552],[-98.19866,30.3348],[-98.20118,30.33395],[-98.20115,30.33375],[-98.20307,30.33335],[-98.20661,30.33103],[-98.20781,30.32987],[-98.21114,30.32556],[-98.21112,30.32257],[-98.20983,30.31995],[-98.20781,30.31857],[-98.20655,30.31815],[-98.20359,30.31567],[-98.20339,30.31467],[-98.20419,30.31246],[-98.20539,30.31128],[-98.20654,30.31065],[-98.20842,30.3106],[-98.21015,30.31149],[-98.21094,30.30986],[-98.21318,30.30922],[-98.21363,30.30843],[-98.21248,30.30409],[-98.2119,30.30318],[-98.21099,30.30238],[-98.20996,30.30192],[-98.20943,30.30125],[-98.21092,30.2999],[-98.21111,30.29884],[-98.21041,30.29429],[-98.20888,30.29245],[-98.20882,30.29205],[-98.20934,30.29078],[-98.20908,30.28989],[-98.20807,30.28864],[-98.20765,30.28719],[-98.20711,30.28635],[-98.20439,30.28548],[-98.20333,30.28484],[-98.2028,30.28396],[-98.20264,30.28239],[-98.20372,30.28058],[-98.20768,30.28135],[-98.20866,30.2813],[-98.20895,30.28101],[-98.20893,30.28048],[-98.20833,30.27939],[-98.20833,30.27866],[-98.20546,30.27803],[-98.20477,30.27741],[-98.20449,30.27678],[-98.20771,30.26808],[-98.21797,30.2426],[-98.22197,30.23134],[-98.24018,30.18472],[-98.27202,30.18436],[-98.27196,30.17327],[-98.27096,30.16334],[-98.26736,30.16353],[-98.26834,30.15814],[-98.26922,30.14963],[-98.27079,30.14896],[-98.27101,30.14976],[-98.27193,30.15013],[-98.27379,30.14947],[-98.27425,30.14897],[-98.27576,30.14896],[-98.2762,30.14915],[-98.27667,30.14807],[-98.27635,30.14798],[-98.27626,30.14606],[-98.278,30.14255]]]}},{"type":"Feature","properties":{"zip_code":"78623"},"geometry":{"type":"Polygon","coordinates":[[[-98.29158,29.99157],[-98.29167,29.9863],[-98.28088,29.98081],[-98.27748,29.97855],[-98.27588,29.97775],[-98.25965,29.97396],[-98.25881,29.96851],[-98.25753,29.96499],[-98.25734,29.96304],[-98.25538,29.96314],[-98.25541,29.96047],[-98.25591,29.95706],[-98.2557,29.94836],[-98.25155,29.94844],[-98.24996,29.9449],[-98.23272,29.9449],[-98.23268,29.94803],[-98.21963,29.94794],[-98.2195,29.94456],[-98.2206,29.94454],[-98.21938,29.94287],[-98.2197,29.94275],[-98.21945,29.94241],[-98.21555,29.93942],[-98.21538,29.94068],[-98.20963,29.94062],[-98.20815,29.94119],[-98.20575,29.93936],[-98.20614,29.92869],[-98.2061,29.9284],[-98.20543,29.92819],[-98.20545,29.92726],[-98.2061,29.92693],[-98.20592,29.92269],[-98.20554,29.9227],[-98.20557,29.91916],[-98.20576,29.91892],[-98.20548,29.91857],[-98.20538,29.91418],[-98.20336,29.91415],[-98.20335,29.91328],[-98.20436,29.91329],[-98.2044,29.91136],[-98.18982,29.91135],[-98.18916,29.91223],[-98.18437,29.91036],[-98.18218,29.91032],[-98.18234,29.91473],[-98.17575,29.91488],[-98.17285,29.91472],[-98.17235,29.91531],[-98.17067,29.91514],[-98.1704,29.91473],[-98.16987,29.91468],[-98.16179,29.91457],[-98.16169,29.9335],[-98.16017,29.93386],[-98.15706,29.9335],[-98.15159,29.93432],[-98.17143,29.94845],[-98.1709,29.94872],[-98.1699,29.95047],[-98.16971,29.95156],[-98.17006,29.95243],[-98.16999,29.95371],[-98.16923,29.95497],[-98.16944,29.95533],[-98.16892,29.95591],[-98.17124,29.95727],[-98.17639,29.9623],[-98.17892,29.96368],[-98.18107,29.964],[-98.18347,29.96397],[-98.18476,29.96418],[-98.186,29.9648],[-98.19106,29.96861],[-98.19614,29.97099],[-98.1968,29.97152],[-98.19852,29.9739],[-98.20147,29.97603],[-98.20256,29.97585],[-98.20368,29.97444],[-98.2049,29.97446],[-98.2054,29.97478],[-98.206,29.97604],[-98.20611,29.97762],[-98.20617,29.9802],[-98.20567,29.98576],[-98.20603,29.98625],[-98.206,29.98978],[-98.21756,29.98957],[-98.22426,29.98605],[-98.21739,29.98115],[-98.23328,29.98103],[-98.23474,29.9848],[-98.23484,29.99361],[-98.2463,30.00177],[-98.25443,30.00178],[-98.25478,29.99973],[-98.27285,30.0005],[-98.27306,30.00619],[-98.28032,30.00591],[-98.28812,30.00596],[-98.28778,29.99133],[-98.29157,29.99201],[-98.29158,29.99157]]]}},{"type":"Feature","properties":{"zip_code":"78640"},"geometry":{"type":"Polygon","coordinates":[[[-97.98915,30.05247],[-97.98874,30.04853],[-97.98806,30.04772],[-97.98717,30.04721],[-97.97615,30.04585],[-97.96298,30.04366],[-97.96287,30.03496],[-97.96278,30.03424],[-97.96223,30.03327],[-97.96226,30.03224],[-97.96294,30.03045],[-97.96297,30.0288],[-97.96199,30.02697],[-97.96125,30.02638],[-97.96044,30.02599],[-97.95972,30.02599],[-97.95875,30.02665],[-97.9582,30.02791],[-97.95807,30.02929],[-97.95635,30.03208],[-97.95472,30.03591],[-97.95409,30.03637],[-97.95251,30.03653],[-97.94993,30.03543],[-97.94911,30.03437],[-97.94866,30.03321],[-97.94861,30.03002],[-97.94806,30.02894],[-97.94729,30.02816],[-97.94563,30.02711],[-97.9411,30.02693],[-97.93976,30.02633],[-97.9396,30.0248],[-97.93994,30.02354],[-97.93926,30.02244],[-97.93931,30.02133],[-97.94002,30.02019],[-97.94002,30.01971],[-97.93813,30.01836],[-97.93813,30.01797],[-97.93826,30.01764],[-97.94139,30.01547],[-97.94163,30.0143],[-97.94131,30.01347],[-97.94068,30.01272],[-97.93826,30.01343],[-97.9371,30.01276],[-97.93565,30.00777],[-97.93294,30.00273],[-97.93078,29.99783],[-97.92965,29.99588],[-97.92804,29.99469],[-97.92656,29.99187],[-97.92514,29.99029],[-97.92412,29.98957],[-97.92096,29.98914],[-97.91893,29.98815],[-97.91851,29.98769],[-97.91777,29.98547],[-97.9178,29.98428],[-97.91851,29.98135],[-97.91862,29.97924],[-97.91959,29.97548],[-97.91907,29.97394],[-97.9181,29.97337],[-97.91663,29.97323],[-97.91569,29.97289],[-97.91488,29.97286],[-97.91425,29.97314],[-97.91253,29.97492],[-97.9123,29.97531],[-97.91228,29.9763],[-97.9097,29.97914],[-97.90933,29.98047],[-97.90759,29.98144],[-97.9069,29.98153],[-97.90603,29.98123],[-97.9055,29.97985],[-97.90432,29.97811],[-97.90397,29.97687],[-97.90413,29.97474],[-97.90396,29.97227],[-97.90338,29.9711],[-97.90332,29.96945],[-97.90375,29.96821],[-97.90591,29.96681],[-97.90754,29.96509],[-97.90812,29.96358],[-97.90801,29.96273],[-97.90751,29.96193],[-97.90762,29.96074],[-97.90528,29.95641],[-97.90478,29.95609],[-97.90393,29.95599],[-97.90282,29.95457],[-97.9024,29.95349],[-97.90229,29.95214],[-97.90355,29.94776],[-97.90581,29.94614],[-97.90678,29.9449],[-97.90691,29.94371],[-97.90656,29.94311],[-97.90379,29.94176],[-97.90132,29.94008],[-97.89952,29.93825],[-97.89569,29.93708],[-97.89509,29.93782],[-97.8965,29.93878],[-97.89707,29.94082],[-97.90184,29.94467],[-97.90242,29.94526],[-97.90255,29.94585],[-97.90309,29.94582],[-97.90121,29.94806],[-97.90022,29.95089],[-97.90032,29.95333],[-97.90188,29.95645],[-97.90201,29.95748],[-97.90158,29.95827],[-97.89988,29.95977],[-97.89976,29.96071],[-97.89289,29.95795],[-97.89411,29.9556],[-97.89296,29.95443],[-97.89119,29.95609],[-97.8875,29.95292],[-97.8863,29.95417],[-97.88369,29.95334],[-97.88305,29.95288],[-97.8845,29.95111],[-97.88357,29.95051],[-97.88134,29.94784],[-97.87553,29.94288],[-97.8781,29.94043],[-97.87816,29.94003],[-97.86314,29.92744],[-97.86066,29.92582],[-97.84918,29.916],[-97.83671,29.92222],[-97.82736,29.92909],[-97.82125,29.93257],[-97.81271,29.93687],[-97.81238,29.93627],[-97.81185,29.93651],[-97.81212,29.93697],[-97.80988,29.93791],[-97.80861,29.93618],[-97.8094,29.93576],[-97.80744,29.93257],[-97.80545,29.9334],[-97.80258,29.92872],[-97.79959,29.93114],[-97.80745,29.93934],[-97.80345,29.94124],[-97.80313,29.94108],[-97.79243,29.94518],[-97.79192,29.94465],[-97.78978,29.94661],[-97.78785,29.94593],[-97.78597,29.94463],[-97.784,29.94587],[-97.78749,29.94903],[-97.78488,29.94951],[-97.77828,29.95006],[-97.77979,29.95206],[-97.77092,29.95402],[-97.76952,29.9469],[-97.75769,29.94866],[-97.75884,29.95447],[-97.75274,29.95553],[-97.75235,29.95358],[-97.7472,29.9543],[-97.74777,29.95707],[-97.74739,29.95684],[-97.7466,29.95744],[-97.74633,29.95726],[-97.74562,29.95738],[-97.74505,29.95859],[-97.74564,29.95924],[-97.74771,29.95925],[-97.74814,29.95997],[-97.74821,29.96111],[-97.74004,29.96234],[-97.74223,29.973],[-97.72878,29.97504],[-97.72897,29.97751],[-97.72864,29.97764],[-97.71189,29.98035],[-97.71068,29.97434],[-97.7001,29.98276],[-97.68512,29.9952],[-97.68644,30.00187],[-97.68783,30.01475],[-97.70002,30.02503],[-97.70311,30.03067],[-97.70474,30.03266],[-97.7212,30.04649],[-97.72375,30.04416],[-97.72463,30.04456],[-97.72517,30.04534],[-97.72642,30.04554],[-97.72797,30.04456],[-97.73044,30.04417],[-97.73131,30.04355],[-97.73234,30.04329],[-97.73288,30.04281],[-97.73379,30.04282],[-97.7348,30.0424],[-97.75148,30.05435],[-97.75627,30.05005],[-97.75616,30.04971],[-97.7544,30.04884],[-97.75414,30.04847],[-97.76942,30.03464],[-97.76911,30.03329],[-97.77467,30.03279],[-97.77662,30.03297],[-97.77763,30.03333],[-97.78246,30.03614],[-97.78933,30.04176],[-97.79597,30.036],[-97.79849,30.03797],[-97.79962,30.03789],[-97.8025,30.0354],[-97.80397,30.03658],[-97.80432,30.03634],[-97.80485,30.03672],[-97.81113,30.03121],[-97.81239,30.0306],[-97.82464,30.0304],[-97.82562,30.03063],[-97.82774,30.03178],[-97.82906,30.03196],[-97.8281,30.03268],[-97.82812,30.03499],[-97.83148,30.03497],[-97.8315,30.03771],[-97.84164,30.0377],[-97.84286,30.03532],[-97.85053,30.03591],[-97.85056,30.04145],[-97.84741,30.04145],[-97.84456,30.04199],[-97.84462,30.04248],[-97.8518,30.04257],[-97.85177,30.04137],[-97.85276,30.04139],[-97.85272,30.0398],[-97.8563,30.03972],[-97.85632,30.04079],[-97.86337,30.04052],[-97.86686,30.0282],[-97.87247,30.02816],[-97.87212,30.03733],[-97.8747,30.04408],[-97.87471,30.04971],[-97.87528,30.05021],[-97.87843,30.05014],[-97.87991,30.04969],[-97.88337,30.04652],[-97.88719,30.03714],[-97.8879,30.03452],[-97.9017,30.03421],[-97.90239,30.03323],[-97.90329,30.02843],[-97.90646,30.02853],[-97.90646,30.0363],[-97.91439,30.03582],[-97.9146,30.04473],[-97.91263,30.04533],[-97.90985,30.04446],[-97.90871,30.04445],[-97.90819,30.04475],[-97.90694,30.04682],[-97.90649,30.04823],[-97.90444,30.05],[-97.90335,30.05198],[-97.92764,30.05171],[-97.92783,30.05989],[-97.92618,30.06023],[-97.92614,30.06084],[-97.92591,30.0608],[-97.9259,30.06228],[-97.92992,30.05984],[-97.93107,30.05879],[-97.93239,30.05681],[-97.93407,30.05512],[-97.9372,30.05254],[-97.93769,30.05156],[-97.93778,30.05027],[-97.93888,30.0498],[-97.94014,30.04977],[-97.94179,30.05032],[-97.94284,30.05096],[-97.94511,30.05324],[-97.9465,30.05378],[-97.95564,30.05157],[-97.96304,30.05205],[-97.96743,30.05282],[-97.96934,30.05373],[-97.97245,30.05661],[-97.97511,30.05794],[-97.97625,30.05894],[-97.97719,30.06042],[-97.97833,30.06069],[-97.979,30.06062],[-97.98094,30.05917],[-97.98134,30.0582],[-97.98128,30.05603],[-97.98175,30.05468],[-97.98301,30.05441],[-97.98403,30.05369],[-97.98457,30.05255],[-97.98685,30.05163],[-97.98915,30.05247]]]}},{"type":"Feature","properties":{"zip_code":"78666"},"geometry":{"type":"Polygon","coordinates":[[[-98.17129,29.94852],[-98.17143,29.94845],[-98.15159,29.93432],[-98.15706,29.9335],[-98.16017,29.93386],[-98.16169,29.9335],[-98.16179,29.91457],[-98.15799,29.91443],[-98.14792,29.90843],[-98.14529,29.90857],[-98.14557,29.92375],[-98.14536,29.92748],[-98.14315,29.92829],[-98.04475,29.85871],[-98.04971,29.85471],[-98.05495,29.85106],[-98.05621,29.85235],[-98.05686,29.85185],[-98.07614,29.83452],[-98.07687,29.83329],[-98.07681,29.83282],[-98.07345,29.83133],[-98.07308,29.8307],[-98.07304,29.82934],[-98.07167,29.82853],[-98.07078,29.82732],[-98.06884,29.82696],[-98.06559,29.82554],[-98.06511,29.82559],[-98.06322,29.82683],[-98.06143,29.82738],[-98.05972,29.82908],[-98.05877,29.82875],[-98.05777,29.82787],[-98.05692,29.82628],[-98.05659,29.82473],[-98.05615,29.82399],[-98.05524,29.82379],[-98.05283,29.82544],[-98.05132,29.82526],[-98.05034,29.82101],[-98.05044,29.82036],[-98.05099,29.81979],[-98.05102,29.81909],[-98.04976,29.81617],[-98.04862,29.81464],[-98.04723,29.81343],[-98.04097,29.81243],[-98.03961,29.81196],[-98.03808,29.81074],[-98.03626,29.80771],[-98.03545,29.80732],[-98.03207,29.80812],[-98.0316,29.80781],[-98.02961,29.80738],[-98.02529,29.8074],[-98.02453,29.80707],[-98.02444,29.80681],[-98.0234,29.80769],[-98.02203,29.80955],[-98.01868,29.81225],[-98.01511,29.80126],[-98.02047,29.79641],[-98.0228,29.79396],[-98.0221,29.79306],[-98.02269,29.79188],[-98.02162,29.79114],[-98.02183,29.79076],[-98.02176,29.78994],[-98.02043,29.78885],[-98.01815,29.78997],[-98.01082,29.78816],[-98.00717,29.777],[-98.00294,29.77201],[-98.00277,29.77153],[-98.00294,29.77036],[-98.00275,29.7701],[-98.00152,29.76945],[-97.99731,29.76875],[-97.995,29.76787],[-97.99485,29.76763],[-97.99399,29.76504],[-97.9942,29.76188],[-97.99365,29.76076],[-98.00014,29.75515],[-97.99927,29.75244],[-97.98587,29.76546],[-97.9844,29.76411],[-97.98305,29.76213],[-97.98062,29.76196],[-97.9807,29.75982],[-97.97845,29.75999],[-97.97867,29.75843],[-97.97803,29.75837],[-97.97831,29.75751],[-97.97942,29.7572],[-97.97937,29.75074],[-97.95188,29.75002],[-97.95023,29.75045],[-97.94922,29.75023],[-97.94859,29.75091],[-97.94829,29.75262],[-97.94807,29.75281],[-97.94889,29.74805],[-97.94748,29.74846],[-97.94732,29.7487],[-97.94779,29.74873],[-97.94785,29.74892],[-97.94607,29.74959],[-97.9444,29.74922],[-97.94427,29.74892],[-97.94453,29.74849],[-97.94358,29.74711],[-97.94287,29.74641],[-97.94186,29.74594],[-97.94133,29.74527],[-97.94148,29.74415],[-97.94195,29.74328],[-97.9414,29.74272],[-97.9406,29.74271],[-97.94064,29.7431],[-97.94034,29.74325],[-97.93914,29.74314],[-97.93897,29.74355],[-97.9386,29.74349],[-97.93853,29.74373],[-97.93787,29.74347],[-97.93726,29.74382],[-97.93737,29.74416],[-97.93716,29.74435],[-97.9363,29.74455],[-97.9359,29.74398],[-97.93595,29.74366],[-97.93542,29.74354],[-97.93171,29.74425],[-97.93019,29.74431],[-97.92911,29.74346],[-97.92899,29.74279],[-97.92834,29.7425],[-97.92554,29.74527],[-97.91063,29.75117],[-97.90972,29.7493],[-97.90895,29.7493],[-97.9072,29.74706],[-97.90648,29.74571],[-97.90548,29.74463],[-97.89806,29.75003],[-97.88732,29.7533],[-97.88565,29.75412],[-97.87523,29.76201],[-97.87854,29.76537],[-97.87338,29.76911],[-97.87098,29.76646],[-97.86305,29.77241],[-97.86643,29.77583],[-97.85827,29.78209],[-97.86023,29.78413],[-97.85831,29.78577],[-97.86044,29.78794],[-97.86203,29.78668],[-97.86848,29.79319],[-97.86547,29.79589],[-97.86797,29.79865],[-97.86903,29.79785],[-97.87194,29.80075],[-97.8752,29.7985],[-97.87768,29.80108],[-97.87444,29.8034],[-97.87542,29.80464],[-97.87518,29.80482],[-97.87669,29.80672],[-97.87697,29.80658],[-97.87746,29.80721],[-97.87704,29.80756],[-97.87689,29.80807],[-97.8779,29.80813],[-97.87847,29.80848],[-97.87666,29.80967],[-97.87746,29.81061],[-97.87607,29.81185],[-97.87944,29.81556],[-97.87636,29.81804],[-97.87902,29.82039],[-97.87948,29.82011],[-97.88504,29.82576],[-97.88394,29.82681],[-97.88606,29.82888],[-97.86823,29.84555],[-97.87432,29.85197],[-97.87321,29.85318],[-97.87429,29.85575],[-97.87344,29.85637],[-97.8749,29.85759],[-97.87541,29.85854],[-97.87456,29.8595],[-97.87463,29.8599],[-97.87601,29.86055],[-97.8791,29.86074],[-97.8798,29.86309],[-97.87965,29.8636],[-97.88052,29.86532],[-97.86884,29.8631],[-97.85626,29.87243],[-97.85905,29.8752],[-97.85267,29.87509],[-97.84859,29.87812],[-97.85163,29.88115],[-97.85314,29.87998],[-97.85682,29.88013],[-97.85692,29.88229],[-97.85937,29.88428],[-97.85943,29.88564],[-97.86079,29.88674],[-97.86172,29.88588],[-97.86205,29.88615],[-97.86238,29.88585],[-97.86434,29.88741],[-97.86484,29.88699],[-97.86624,29.88803],[-97.87285,29.88787],[-97.87323,29.88806],[-97.87551,29.88807],[-97.87638,29.88846],[-97.87795,29.88758],[-97.87781,29.88742],[-97.8793,29.88637],[-97.87979,29.88689],[-97.88325,29.88389],[-97.88391,29.88414],[-97.88704,29.88379],[-97.88736,29.88267],[-97.88908,29.88471],[-97.88867,29.88502],[-97.89021,29.88624],[-97.88112,29.89341],[-97.88126,29.89363],[-97.87778,29.89616],[-97.88131,29.89928],[-97.88191,29.89877],[-97.88462,29.90109],[-97.87684,29.90808],[-97.86959,29.90177],[-97.86363,29.90598],[-97.86706,29.90904],[-97.86665,29.91384],[-97.86714,29.91426],[-97.86616,29.91517],[-97.86807,29.91685],[-97.86608,29.91879],[-97.86426,29.91846],[-97.86325,29.91944],[-97.8588,29.91569],[-97.85675,29.91726],[-97.85375,29.91489],[-97.85176,29.91605],[-97.85073,29.91508],[-97.84918,29.916],[-97.86066,29.92582],[-97.86314,29.92744],[-97.87816,29.94003],[-97.8781,29.94043],[-97.87553,29.94288],[-97.88134,29.94784],[-97.88357,29.95051],[-97.8845,29.95111],[-97.88305,29.95288],[-97.88369,29.95334],[-97.8863,29.95417],[-97.8875,29.95292],[-97.89119,29.95609],[-97.89296,29.95443],[-97.89411,29.9556],[-97.89289,29.95795],[-97.89976,29.96071],[-97.89988,29.95977],[-97.90158,29.95827],[-97.90201,29.95748],[-97.90188,29.95645],[-97.90032,29.95333],[-97.90022,29.95089],[-97.90121,29.94806],[-97.90309,29.94582],[-97.90255,29.94585],[-97.90242,29.94526],[-97.90184,29.94467],[-97.89707,29.94082],[-97.8965,29.93878],[-97.89509,29.93782],[-97.89569,29.93708],[-97.89952,29.93825],[-97.90132,29.94008],[-97.90379,29.94176],[-97.90656,29.94311],[-97.90691,29.94371],[-97.90678,29.9449],[-97.90581,29.94614],[-97.90355,29.94776],[-97.90229,29.95214],[-97.9024,29.95349],[-97.90282,29.95457],[-97.90393,29.95599],[-97.90478,29.95609],[-97.90528,29.95641],[-97.90762,29.96074],[-97.90751,29.96193],[-97.90801,29.96273],[-97.90812,29.96358],[-97.90754,29.96509],[-97.90591,29.96681],[-97.90375,29.96821],[-97.90332,29.96945],[-97.90338,29.9711],[-97.90396,29.97227],[-97.90413,29.97474],[-97.90397,29.97687],[-97.90432,29.97811],[-97.9055,29.97985],[-97.90603,29.98123],[-97.9069,29.98153],[-97.90759,29.98144],[-97.90933,29.98047],[-97.9097,29.97914],[-97.91228,29.9763],[-97.9123,29.97531],[-97.91253,29.97492],[-97.91425,29.97314],[-97.91488,29.97286],[-97.91569,29.97289],[-97.91663,29.97323],[-97.9181,29.97337],[-97.91907,29.97394],[-97.91959,29.97548],[-97.91862,29.97924],[-97.91851,29.98135],[-97.9178,29.98428],[-97.91777,29.98547],[-97.91851,29.98769],[-97.91893,29.98815],[-97.92096,29.98914],[-97.92412,29.98957],[-97.92514,29.99029],[-97.92656,29.99187],[-97.92804,29.99469],[-97.92965,29.99588],[-97.93565,30.00777],[-97.93639,30.0099],[-97.93689,30.0124],[-97.93747,30.01313],[-97.93826,30.01343],[-97.94068,30.01272],[-97.94289,30.00983],[-97.9446,30.00836],[-97.9505,30.00628],[-97.95414,30.0043],[-97.95545,30.00444],[-97.95656,30.00531],[-97.95775,30.00859],[-97.95867,30.01022],[-97.9598,30.01122],[-97.96191,30.01196],[-97.9657,30.01198],[-97.96678,30.01166],[-97.97123,30.00797],[-97.97212,30.00749],[-97.97289,30.00721],[-97.97605,30.00694],[-97.98355,30.00519],[-97.98637,30.00478],[-97.98916,30.00381],[-97.99111,30.00274],[-97.9943,30.00021],[-97.99479,29.99811],[-97.99461,29.9975],[-97.99408,29.9969],[-97.99408,29.99651],[-97.99487,29.99472],[-97.99563,29.99415],[-97.99639,29.99406],[-97.99801,29.99468],[-97.99887,29.99586],[-97.99987,29.99683],[-98.00065,29.9971],[-98.00172,29.99855],[-98.00275,29.99937],[-98.00393,29.99965],[-98.00483,29.99946],[-98.00543,29.99917],[-98.00651,29.99807],[-98.00693,29.99674],[-98.00687,29.99468],[-98.00615,29.99057],[-98.00657,29.98899],[-98.00741,29.98789],[-98.00947,29.98636],[-98.01428,29.98375],[-98.01621,29.98372],[-98.01876,29.98544],[-98.01991,29.98597],[-98.02066,29.98595],[-98.02394,29.9845],[-98.02666,29.98292],[-98.0278,29.98265],[-98.02855,29.98215],[-98.02918,29.98123],[-98.03005,29.98098],[-98.03092,29.98178],[-98.03115,29.98314],[-98.03183,29.98322],[-98.0323,29.98364],[-98.033,29.98524],[-98.03452,29.98739],[-98.03572,29.98766],[-98.03701,29.98716],[-98.03832,29.98572],[-98.03907,29.98427],[-98.03849,29.98361],[-98.03852,29.98243],[-98.03898,29.98208],[-98.0396,29.98083],[-98.03821,29.98003],[-98.03869,29.98009],[-98.03973,29.97944],[-98.03989,29.97962],[-98.0403,29.97951],[-98.04064,29.97857],[-98.04037,29.97729],[-98.0408,29.97408],[-98.04414,29.96654],[-98.04435,29.96106],[-98.04487,29.95907],[-98.04349,29.95588],[-98.04109,29.95213],[-98.03506,29.95061],[-98.0307,29.94784],[-98.02933,29.9465],[-98.02839,29.94495],[-98.03116,29.94237],[-98.03393,29.94521],[-98.03518,29.94685],[-98.03622,29.94752],[-98.03716,29.94765],[-98.04142,29.94688],[-98.04215,29.94687],[-98.044,29.94752],[-98.04666,29.94726],[-98.06039,29.95291],[-98.06037,29.94873],[-98.06248,29.94864],[-98.06244,29.94836],[-98.07639,29.94793],[-98.07919,29.94807],[-98.0792,29.94832],[-98.08002,29.94778],[-98.07964,29.9394],[-98.08313,29.93944],[-98.08546,29.94026],[-98.09028,29.94119],[-98.09158,29.94208],[-98.09255,29.9436],[-98.09355,29.9476],[-98.09355,29.95071],[-98.09448,29.95335],[-98.09449,29.95641],[-98.09527,29.95873],[-98.09514,29.95987],[-98.0948,29.96056],[-98.09197,29.96404],[-98.09163,29.96501],[-98.09168,29.96616],[-98.09273,29.97045],[-98.09279,29.97239],[-98.09452,29.97411],[-98.09997,29.97485],[-98.10122,29.97488],[-98.10143,29.9745],[-98.10253,29.97448],[-98.10394,29.97332],[-98.10385,29.97237],[-98.10268,29.9714],[-98.10305,29.97085],[-98.1038,29.97059],[-98.10751,29.97028],[-98.1098,29.9719],[-98.11049,29.97158],[-98.11021,29.97136],[-98.11056,29.97106],[-98.1127,29.97243],[-98.1146,29.97269],[-98.11472,29.97239],[-98.11432,29.97182],[-98.11506,29.97144],[-98.11415,29.96959],[-98.11484,29.96954],[-98.11451,29.96818],[-98.1157,29.96778],[-98.11593,29.96701],[-98.11713,29.96946],[-98.1168,29.97026],[-98.11741,29.97174],[-98.11917,29.97039],[-98.12162,29.96964],[-98.12352,29.96953],[-98.13108,29.96994],[-98.13998,29.96766],[-98.14169,29.96786],[-98.14275,29.96876],[-98.14422,29.96922],[-98.14627,29.9691],[-98.14764,29.96864],[-98.14822,29.96837],[-98.1487,29.96764],[-98.1482,29.96523],[-98.14738,29.96303],[-98.14738,29.96202],[-98.14783,29.96103],[-98.14944,29.96003],[-98.15299,29.95975],[-98.15554,29.96067],[-98.15857,29.96076],[-98.16108,29.95905],[-98.16152,29.95858],[-98.16236,29.95667],[-98.16367,29.95556],[-98.16636,29.95485],[-98.16808,29.95517],[-98.16892,29.95591],[-98.16944,29.95533],[-98.16923,29.95497],[-98.16999,29.95371],[-98.17006,29.95243],[-98.16971,29.95156],[-98.1699,29.95047],[-98.1709,29.94872],[-98.17129,29.94852]]]}},{"type":"Feature","properties":{"zip_code":"78676"},"geometry":{"type":"Polygon","coordinates":[[[-98.32806,30.07042],[-98.32796,30.06983],[-98.32729,30.06903],[-98.32598,30.06813],[-98.32398,30.06847],[-98.32233,30.06918],[-98.32112,30.06813],[-98.32073,30.0675],[-98.3202,30.06769],[-98.31886,30.06716],[-98.31834,30.06747],[-98.31721,30.06889],[-98.31659,30.07037],[-98.31449,30.06986],[-98.31356,30.06939],[-98.31296,30.06877],[-98.31017,30.06903],[-98.30843,30.06979],[-98.3064,30.06842],[-98.3056,30.06722],[-98.30562,30.06619],[-98.30622,30.06504],[-98.30716,30.0647],[-98.30878,30.06463],[-98.31095,30.06525],[-98.31412,30.06373],[-98.31542,30.06254],[-98.31564,30.06183],[-98.31509,30.05993],[-98.31429,30.0587],[-98.31431,30.05768],[-98.31618,30.05532],[-98.3165,30.05459],[-98.31643,30.05383],[-98.31594,30.05325],[-98.31285,30.05127],[-98.31066,30.05037],[-98.30586,30.04766],[-98.30452,30.0472],[-98.30265,30.0469],[-98.29895,30.04715],[-98.29417,30.0468],[-98.2976,30.03799],[-98.27301,30.02068],[-98.27285,30.01329],[-98.272,30.01238],[-98.27123,30.00971],[-98.27313,30.00802],[-98.27285,30.0005],[-98.25478,29.99973],[-98.25443,30.00178],[-98.2463,30.00177],[-98.23484,29.99361],[-98.23474,29.9848],[-98.23328,29.98103],[-98.21739,29.98115],[-98.22426,29.98605],[-98.21756,29.98957],[-98.206,29.98978],[-98.20603,29.98625],[-98.20567,29.98576],[-98.20617,29.9802],[-98.20611,29.97762],[-98.206,29.97604],[-98.2054,29.97478],[-98.2049,29.97446],[-98.20389,29.97437],[-98.20339,29.97461],[-98.20235,29.97599],[-98.20131,29.97596],[-98.19852,29.9739],[-98.1968,29.97152],[-98.19614,29.97099],[-98.19106,29.96861],[-98.186,29.9648],[-98.18476,29.96418],[-98.18107,29.964],[-98.17892,29.96368],[-98.17802,29.96331],[-98.17639,29.9623],[-98.17124,29.95727],[-98.16808,29.95517],[-98.16717,29.95492],[-98.16541,29.95497],[-98.16367,29.95556],[-98.16236,29.95667],[-98.16152,29.95858],[-98.16108,29.95905],[-98.15857,29.96076],[-98.15554,29.96067],[-98.15299,29.95975],[-98.15023,29.95987],[-98.14865,29.96042],[-98.14762,29.96131],[-98.14738,29.96303],[-98.1482,29.96523],[-98.1487,29.96764],[-98.14822,29.96837],[-98.14627,29.9691],[-98.14351,29.96908],[-98.14275,29.96876],[-98.14169,29.96786],[-98.13998,29.96766],[-98.13108,29.96994],[-98.12352,29.96953],[-98.12162,29.96964],[-98.11917,29.97039],[-98.11741,29.97174],[-98.1168,29.97026],[-98.11713,29.96946],[-98.11596,29.96701],[-98.1157,29.96778],[-98.11451,29.96818],[-98.11484,29.96954],[-98.11415,29.96959],[-98.11506,29.97144],[-98.11432,29.97182],[-98.11472,29.97239],[-98.1146,29.97269],[-98.1127,29.97243],[-98.11056,29.97106],[-98.11021,29.97136],[-98.11049,29.97158],[-98.1098,29.9719],[-98.10751,29.97028],[-98.10527,29.97039],[-98.1038,29.97059],[-98.10275,29.97113],[-98.10281,29.97165],[-98.10385,29.97237],[-98.10405,29.973],[-98.10376,29.97352],[-98.10253,29.97448],[-98.10143,29.9745],[-98.10122,29.97488],[-98.09997,29.97485],[-98.09452,29.97411],[-98.09279,29.97239],[-98.09273,29.97045],[-98.09159,29.9657],[-98.09197,29.96404],[-98.0948,29.96056],[-98.09527,29.95899],[-98.09449,29.95641],[-98.09448,29.95335],[-98.09355,29.95071],[-98.09355,29.9476],[-98.09255,29.9436],[-98.09158,29.94208],[-98.09028,29.94119],[-98.08546,29.94026],[-98.08313,29.93944],[-98.07964,29.9394],[-98.08002,29.94778],[-98.0792,29.94832],[-98.07919,29.94807],[-98.07639,29.94793],[-98.06244,29.94836],[-98.06248,29.94864],[-98.06037,29.94873],[-98.06039,29.95291],[-98.04666,29.94726],[-98.044,29.94752],[-98.04215,29.94687],[-98.04142,29.94688],[-98.03716,29.94765],[-98.03622,29.94752],[-98.03518,29.94685],[-98.03393,29.94521],[-98.03116,29.94237],[-98.02839,29.94495],[-98.02933,29.9465],[-98.0307,29.94784],[-98.03506,29.95061],[-98.04109,29.95213],[-98.0434,29.95571],[-98.04485,29.9589],[-98.04435,29.96106],[-98.04414,29.96654],[-98.0408,29.97408],[-98.04037,29.97729],[-98.04064,29.97857],[-98.0403,29.97951],[-98.03989,29.97962],[-98.03973,29.97944],[-98.03869,29.98009],[-98.03821,29.98003],[-98.0396,29.98083],[-98.03898,29.98208],[-98.03852,29.98243],[-98.03849,29.98361],[-98.03907,29.98427],[-98.03747,29.9868],[-98.03588,29.98763],[-98.03462,29.98748],[-98.033,29.98524],[-98.0323,29.98364],[-98.03183,29.98322],[-98.03115,29.98314],[-98.03092,29.98178],[-98.03005,29.98098],[-98.02918,29.98123],[-98.02855,29.98215],[-98.0278,29.98265],[-98.02666,29.98292],[-98.02394,29.9845],[-98.02066,29.98595],[-98.01991,29.98597],[-98.01876,29.98544],[-98.01621,29.98372],[-98.01428,29.98375],[-98.00947,29.98636],[-98.00741,29.98789],[-98.00657,29.98899],[-98.00615,29.99057],[-98.00687,29.99468],[-98.00693,29.99674],[-98.00651,29.99807],[-98.00543,29.99917],[-98.00483,29.99946],[-98.00393,29.99965],[-98.00275,29.99937],[-98.00172,29.99855],[-98.00065,29.9971],[-97.99987,29.99683],[-97.99887,29.99586],[-97.99801,29.99468],[-97.99639,29.99406],[-97.99563,29.99415],[-97.99487,29.99472],[-97.99408,29.99651],[-97.99408,29.9969],[-97.99461,29.9975],[-97.99479,29.99811],[-97.9943,30.00021],[-97.99111,30.00274],[-97.98916,30.00381],[-97.98637,30.00478],[-97.98355,30.00519],[-97.97605,30.00694],[-97.97289,30.00721],[-97.97212,30.00749],[-97.97123,30.00797],[-97.96741,30.01129],[-97.9657,30.01198],[-97.96191,30.01196],[-97.9598,30.01122],[-97.95867,30.01022],[-97.95775,30.00859],[-97.95656,30.00531],[-97.95545,30.00444],[-97.95414,30.0043],[-97.9505,30.00628],[-97.9456,30.00786],[-97.9436,30.00905],[-97.94068,30.01272],[-97.94131,30.01347],[-97.94163,30.0143],[-97.94139,30.01547],[-97.93826,30.01764],[-97.93813,30.01797],[-97.93813,30.01836],[-97.94002,30.01971],[-97.94002,30.02019],[-97.93931,30.02133],[-97.93926,30.02244],[-97.93994,30.02354],[-97.9396,30.0248],[-97.93976,30.02633],[-97.9411,30.02693],[-97.94563,30.02711],[-97.94729,30.02816],[-97.94806,30.02894],[-97.94861,30.03002],[-97.94866,30.03321],[-97.9489,30.03399],[-97.94993,30.03543],[-97.9514,30.03621],[-97.9533,30.03651],[-97.95409,30.03637],[-97.95472,30.03591],[-97.95635,30.03208],[-97.95807,30.02929],[-97.95841,30.02725],[-97.95922,30.02617],[-97.96044,30.02599],[-97.96199,30.02697],[-97.96297,30.0288],[-97.96294,30.03045],[-97.96226,30.03224],[-97.96223,30.03327],[-97.96278,30.03424],[-97.96287,30.03496],[-97.96298,30.04366],[-97.97615,30.04585],[-97.98862,30.04739],[-98.00035,30.04793],[-98.00399,30.04663],[-98.005,30.04648],[-98.01284,30.04634],[-98.01517,30.04656],[-98.02028,30.04805],[-98.02604,30.04807],[-98.02705,30.04939],[-98.0279,30.04978],[-98.02688,30.05138],[-98.02703,30.05207],[-98.03597,30.05685],[-98.03682,30.07026],[-98.04597,30.07051],[-98.04621,30.07889],[-98.04494,30.07878],[-98.04532,30.08354],[-98.04642,30.08352],[-98.04661,30.09078],[-98.05028,30.09081],[-98.0503,30.09179],[-98.05294,30.09179],[-98.05291,30.0915],[-98.07636,30.09071],[-98.0763,30.08925],[-98.08054,30.08974],[-98.08048,30.08653],[-98.08602,30.08721],[-98.08623,30.08689],[-98.08697,30.08667],[-98.08692,30.08368],[-98.08056,30.08382],[-98.08034,30.07901],[-98.08629,30.07886],[-98.08604,30.07389],[-98.08843,30.07387],[-98.08834,30.07266],[-98.08765,30.07114],[-98.08761,30.07017],[-98.08958,30.07016],[-98.09056,30.07254],[-98.09038,30.07302],[-98.0909,30.07412],[-98.09171,30.07407],[-98.09303,30.07505],[-98.09738,30.07904],[-98.09981,30.08304],[-98.10017,30.08401],[-98.10052,30.08693],[-98.09968,30.08928],[-98.09853,30.09096],[-98.09609,30.09674],[-98.09607,30.09758],[-98.09665,30.09928],[-98.09598,30.10195],[-98.0979,30.10222],[-98.10073,30.10075],[-98.1015,30.10066],[-98.10496,30.10109],[-98.10667,30.10106],[-98.11,30.10196],[-98.11301,30.10216],[-98.11548,30.10195],[-98.11922,30.10366],[-98.11976,30.10404],[-98.12092,30.10595],[-98.1236,30.10738],[-98.12505,30.10775],[-98.1279,30.10709],[-98.13073,30.10731],[-98.13164,30.10808],[-98.13239,30.10994],[-98.13372,30.11106],[-98.13396,30.11224],[-98.13476,30.11287],[-98.13541,30.11398],[-98.13705,30.11505],[-98.13763,30.11676],[-98.13785,30.11684],[-98.13839,30.11575],[-98.13982,30.11559],[-98.14018,30.11637],[-98.14057,30.11664],[-98.14239,30.1168],[-98.1427,30.1174],[-98.1413,30.12024],[-98.14179,30.12127],[-98.14221,30.12148],[-98.14515,30.12145],[-98.14749,30.12254],[-98.14906,30.12151],[-98.1506,30.12006],[-98.15358,30.11988],[-98.15536,30.12021],[-98.15637,30.11976],[-98.15711,30.11885],[-98.1581,30.1187],[-98.15833,30.12084],[-98.15745,30.12192],[-98.15751,30.12242],[-98.15718,30.12288],[-98.15742,30.12374],[-98.1582,30.12421],[-98.15816,30.12501],[-98.15851,30.1257],[-98.15989,30.12645],[-98.16042,30.12966],[-98.16073,30.12979],[-98.16148,30.12819],[-98.16327,30.12714],[-98.16319,30.12576],[-98.16366,30.12488],[-98.16475,30.12416],[-98.16683,30.12406],[-98.16798,30.12355],[-98.16847,30.12172],[-98.16974,30.12036],[-98.1702,30.11938],[-98.17173,30.1178],[-98.17382,30.11639],[-98.174,30.11589],[-98.17378,30.11478],[-98.1739,30.11355],[-98.1744,30.11219],[-98.17754,30.11551],[-98.17884,30.11572],[-98.17929,30.11549],[-98.17953,30.11487],[-98.18318,30.11364],[-98.18326,30.11294],[-98.18453,30.11146],[-98.18665,30.11344],[-98.18882,30.11071],[-98.19154,30.11007],[-98.19238,30.10949],[-98.19273,30.10979],[-98.19781,30.1086],[-98.19978,30.10733],[-98.20091,30.10892],[-98.20194,30.1089],[-98.20224,30.10856],[-98.20589,30.11154],[-98.19945,30.11835],[-98.20617,30.12284],[-98.20912,30.11978],[-98.21148,30.11634],[-98.21348,30.11829],[-98.21447,30.11854],[-98.22952,30.11833],[-98.2298,30.12422],[-98.22936,30.1249],[-98.22965,30.12469],[-98.23054,30.13173],[-98.24449,30.13187],[-98.24906,30.13642],[-98.25665,30.13496],[-98.25672,30.13552],[-98.25788,30.13674],[-98.25924,30.13654],[-98.26345,30.12614],[-98.2635,30.13475],[-98.26592,30.13471],[-98.26586,30.14108],[-98.27037,30.14046],[-98.27999,30.13518],[-98.28657,30.13214],[-98.29578,30.12558],[-98.29752,30.12399],[-98.30102,30.11922],[-98.30282,30.11557],[-98.30513,30.11377],[-98.30477,30.11357],[-98.30023,30.1132],[-98.30037,30.11214],[-98.29995,30.11064],[-98.30015,30.10666],[-98.29975,30.10435],[-98.30414,30.09482],[-98.30435,30.0932],[-98.30496,30.0914],[-98.30682,30.08918],[-98.30909,30.08372],[-98.31271,30.08488],[-98.31633,30.08281],[-98.31994,30.08251],[-98.32077,30.08338],[-98.32101,30.08624],[-98.32223,30.08644],[-98.32424,30.08727],[-98.32504,30.08793],[-98.32468,30.08646],[-98.32415,30.08565],[-98.32218,30.08408],[-98.32162,30.0839],[-98.32139,30.08216],[-98.32252,30.07905],[-98.3236,30.07748],[-98.32466,30.07668],[-98.32612,30.07327],[-98.32806,30.07042]]]}},{"type":"Feature","properties":{"zip_code":"78737"},"geometry":{"type":"Polygon","coordinates":[[[-98.03754,30.22908],[-98.03749,30.22854],[-98.03668,30.22705],[-98.03613,30.22739],[-98.03484,30.22717],[-98.03442,30.22756],[-98.03158,30.22632],[-98.03026,30.2262],[-98.0302,30.22598],[-98.0307,30.22546],[-98.0299,30.22477],[-98.03066,30.22447],[-98.03089,30.22397],[-98.03064,30.2238],[-98.03013,30.22222],[-98.02696,30.22226],[-98.02696,30.221],[-98.02655,30.22096],[-98.02489,30.21579],[-98.02432,30.21496],[-98.02286,30.21561],[-98.02247,30.21504],[-98.02371,30.21448],[-98.02296,30.21181],[-98.02262,30.21164],[-98.02252,30.21065],[-98.02132,30.21011],[-98.01949,30.20837],[-98.01781,30.20791],[-98.01727,30.2067],[-98.01634,30.20713],[-98.0155,30.20536],[-98.01522,30.20359],[-98.0142,30.20154],[-98.01277,30.19683],[-98.0049,30.19631],[-98.00027,30.19637],[-97.99739,30.19684],[-97.99731,30.19631],[-97.99788,30.19434],[-97.99723,30.19241],[-97.99753,30.19186],[-97.99991,30.1903],[-98.00035,30.18943],[-98.00064,30.18846],[-98.00073,30.18599],[-98.00188,30.18185],[-98.00229,30.17886],[-98.00298,30.17664],[-98.00448,30.17404],[-98.005,30.17224],[-98.00781,30.16859],[-98.00841,30.16692],[-98.00861,30.16041],[-98.00892,30.15756],[-98.00898,30.15507],[-98.00878,30.15347],[-97.99527,30.15375],[-97.99405,30.15296],[-97.99348,30.15105],[-97.99246,30.14993],[-97.99057,30.1488],[-97.98599,30.14685],[-97.98278,30.14808],[-97.97747,30.1506],[-97.97422,30.15122],[-97.97222,30.1523],[-97.97204,30.12839],[-97.95654,30.12851],[-97.95663,30.12081],[-97.91551,30.15487],[-97.9188,30.15783],[-97.91762,30.15794],[-97.91772,30.15848],[-97.91859,30.15919],[-97.91862,30.16312],[-97.91786,30.16526],[-97.9243,30.17281],[-97.92647,30.1727],[-97.92807,30.17304],[-97.92927,30.17451],[-97.92875,30.1784],[-97.92888,30.18571],[-97.9287,30.18693],[-97.92652,30.19067],[-97.92351,30.1945],[-97.91837,30.20244],[-97.91756,30.20317],[-97.91594,30.20377],[-97.914,30.20311],[-97.91511,30.20113],[-97.91437,30.1998],[-97.91397,30.1971],[-97.911,30.19561],[-97.90922,30.19568],[-97.90654,30.19686],[-97.90506,30.19897],[-97.90274,30.1977],[-97.90052,30.2011],[-97.89216,30.19702],[-97.8878,30.20389],[-97.88838,30.20478],[-97.88689,30.20537],[-97.88933,30.20861],[-97.89245,30.21172],[-97.89292,30.21246],[-97.89331,30.21386],[-97.89346,30.21676],[-97.89433,30.21829],[-97.89322,30.22106],[-97.8883,30.2292],[-97.89421,30.22994],[-97.90936,30.23444],[-97.91218,30.23441],[-97.92137,30.23277],[-97.9205,30.23156],[-97.92063,30.22998],[-97.91977,30.22808],[-97.91966,30.22563],[-97.91867,30.22461],[-97.91837,30.22342],[-97.9209,30.22326],[-97.92178,30.22381],[-97.92312,30.22395],[-97.92345,30.22344],[-97.9241,30.22331],[-97.92486,30.22397],[-97.92957,30.22613],[-97.92598,30.23197],[-97.9358,30.23027],[-97.93812,30.2296],[-97.95331,30.22331],[-97.95307,30.22078],[-97.95222,30.2203],[-97.95257,30.21945],[-97.95323,30.2188],[-97.95406,30.21734],[-97.9548,30.21817],[-97.95677,30.2181],[-97.95882,30.21902],[-97.95932,30.21982],[-97.95591,30.22199],[-97.95704,30.22329],[-97.95911,30.2246],[-97.96317,30.22644],[-97.96725,30.2201],[-97.97151,30.22223],[-97.97291,30.21992],[-97.97393,30.22149],[-97.97619,30.2228],[-97.9779,30.22429],[-97.97943,30.22432],[-97.98022,30.225],[-97.98153,30.22529],[-97.98175,30.22424],[-97.98247,30.22329],[-97.98155,30.2228],[-97.9815,30.22231],[-97.982,30.22199],[-97.98238,30.22127],[-97.9832,30.22091],[-97.98273,30.22057],[-97.98259,30.22015],[-97.9999,30.23251],[-98.00166,30.23244],[-98.00475,30.23395],[-98.00731,30.23628],[-98.00954,30.23942],[-98.01083,30.24034],[-98.0118,30.23923],[-98.01292,30.23853],[-98.014,30.23611],[-98.0195,30.23659],[-98.02268,30.23566],[-98.02363,30.23601],[-98.0246,30.23673],[-98.02655,30.23672],[-98.02797,30.2378],[-98.0284,30.23782],[-98.03256,30.23704],[-98.03316,30.23652],[-98.03336,30.23583],[-98.03241,30.23333],[-98.03266,30.23245],[-98.03408,30.23168],[-98.03513,30.23175],[-98.03563,30.23156],[-98.03701,30.23022],[-98.03754,30.22908]]]}}]}