{"type":"FeatureCollection","features":[{"type":"Feature","properties":{"zip_code":"77853"},"geometry":{"type":"Polygon","coordinates":[[[-96.93185,30.39603],[-96.931,30.39199],[-96.92577,30.38359],[-96.92458,30.37871],[-96.92587,30.37074],[-96.92478,30.35856],[-96.92055,30.35636],[-96.91279,30.35611],[-96.90796,30.35849],[-96.90809,30.35931],[-96.90577,30.36057],[-96.89959,30.3457],[-96.90385,30.34051],[-96.90304,30.33973],[-96.90117,30.34016],[-96.88643,30.32782],[-96.88571,30.32859],[-96.87897,30.3232],[-96.87526,30.3226],[-96.8736,30.32427],[-96.87141,30.3237],[-96.87083,30.32533],[-96.86874,30.32306],[-96.86747,30.32404],[-96.86602,30.32315],[-96.86515,30.3248],[-96.86568,30.32563],[-96.86414,30.32533],[-96.86214,30.32611],[-96.86092,30.32535],[-96.86071,30.32695],[-96.85928,30.32611],[-96.8582,30.32691],[-96.85709,30.3253],[-96.8515,30.32322],[-96.85147,30.32526],[-96.85025,30.32592],[-96.85055,30.32503],[-96.84901,30.32129],[-96.84981,30.32067],[-96.84857,30.31724],[-96.84606,30.31474],[-96.84645,30.31396],[-96.84529,30.31396],[-96.84458,30.31281],[-96.8431,30.31265],[-96.83991,30.31398],[-96.83629,30.31348],[-96.83642,30.31251],[-96.83402,30.31215],[-96.83188,30.30979],[-96.82842,30.30869],[-96.82555,30.3091],[-96.82299,30.30726],[-96.82254,30.30767],[-96.82341,30.30887],[-96.82174,30.30884],[-96.82277,30.31001],[-96.82076,30.31056],[-96.81955,30.31035],[-96.81945,30.30948],[-96.81826,30.30987],[-96.81741,30.30884],[-96.81964,30.30608],[-96.81617,30.30303],[-96.81909,30.30005],[-96.81763,30.2985],[-96.80751,30.29044],[-96.80248,30.29119],[-96.7925,30.28351],[-96.79174,30.28334],[-96.79441,30.28604],[-96.78294,30.29516],[-96.7802,30.29281],[-96.77917,30.29525],[-96.78044,30.30695],[-96.783,30.3161],[-96.78651,30.32164],[-96.78566,30.32289],[-96.78397,30.32268],[-96.78328,30.32378],[-96.78004,30.32531],[-96.77592,30.32538],[-96.77232,30.32712],[-96.77013,30.32521],[-96.76694,30.32544],[-96.76638,30.32374],[-96.7643,30.32234],[-96.76243,30.31902],[-96.75876,30.3192],[-96.75765,30.32023],[-96.75696,30.31945],[-96.75474,30.32119],[-96.75358,30.32096],[-96.75332,30.31965],[-96.75195,30.31878],[-96.74978,30.31964],[-96.74994,30.31866],[-96.74922,30.31834],[-96.74851,30.31907],[-96.74687,30.31855],[-96.74688,30.31967],[-96.74439,30.31885],[-96.74187,30.31957],[-96.74468,30.32069],[-96.74356,30.32225],[-96.74555,30.32209],[-96.74443,30.32306],[-96.74503,30.32358],[-96.74396,30.32387],[-96.7449,30.32451],[-96.7463,30.32407],[-96.74573,30.3254],[-96.74666,30.32638],[-96.74668,30.32552],[-96.74734,30.32563],[-96.74767,30.32743],[-96.74911,30.3271],[-96.74872,30.32796],[-96.74969,30.32759],[-96.74957,30.32864],[-96.75081,30.32779],[-96.75058,30.32959],[-96.75136,30.3291],[-96.75197,30.33008],[-96.75305,30.32933],[-96.75333,30.33021],[-96.75441,30.32922],[-96.75412,30.33002],[-96.75508,30.33065],[-96.75399,30.33111],[-96.75379,30.33451],[-96.75267,30.33481],[-96.75287,30.33802],[-96.7539,30.34011],[-96.75518,30.34088],[-96.75909,30.33993],[-96.76104,30.34089],[-96.76041,30.34369],[-96.7644,30.34748],[-96.76462,30.34975],[-96.76752,30.35305],[-96.76557,30.35394],[-96.76858,30.35777],[-96.76986,30.36474],[-96.77492,30.36935],[-96.77558,30.36851],[-96.7765,30.36882],[-96.77552,30.37007],[-96.7765,30.36957],[-96.77731,30.37158],[-96.77825,30.37095],[-96.78054,30.37205],[-96.78143,30.37388],[-96.77973,30.37603],[-96.78238,30.37633],[-96.78434,30.37825],[-96.78412,30.37954],[-96.78568,30.37855],[-96.78626,30.37994],[-96.78762,30.38026],[-96.78771,30.3825],[-96.7897,30.38324],[-96.78814,30.38521],[-96.78844,30.38648],[-96.78712,30.38748],[-96.78831,30.38786],[-96.78745,30.38827],[-96.78765,30.38906],[-96.79011,30.3907],[-96.79369,30.39149],[-96.7964,30.39142],[-96.79721,30.39066],[-96.79895,30.39106],[-96.80467,30.39629],[-96.80836,30.39626],[-96.80877,30.39845],[-96.81082,30.40113],[-96.80887,30.40245],[-96.80983,30.40444],[-96.81334,30.40485],[-96.81344,30.40571],[-96.81569,30.40539],[-96.81902,30.40694],[-96.82071,30.40982],[-96.82254,30.41013],[-96.8219,30.41082],[-96.82223,30.41198],[-96.82097,30.41229],[-96.82608,30.41474],[-96.82445,30.41491],[-96.82439,30.41591],[-96.82729,30.41641],[-96.82943,30.41836],[-96.83132,30.41795],[-96.8321,30.42026],[-96.83287,30.42019],[-96.83257,30.41874],[-96.83403,30.41902],[-96.83457,30.41955],[-96.83359,30.41975],[-96.83474,30.42111],[-96.83384,30.42124],[-96.83455,30.42282],[-96.83627,30.4224],[-96.83643,30.42116],[-96.83726,30.42172],[-96.83989,30.42113],[-96.84083,30.42191],[-96.84033,30.42425],[-96.84243,30.42475],[-96.84193,30.42634],[-96.8436,30.42562],[-96.84556,30.42735],[-96.84374,30.42925],[-96.84546,30.42895],[-96.8465,30.43156],[-96.84733,30.43142],[-96.84742,30.43056],[-96.8484,30.4312],[-96.85,30.42992],[-96.85167,30.43166],[-96.85303,30.43127],[-96.85314,30.43228],[-96.85811,30.43409],[-96.85867,30.43342],[-96.86111,30.43376],[-96.86482,30.43255],[-96.86568,30.43297],[-96.86482,30.43375],[-96.86547,30.43482],[-96.8676,30.43349],[-96.86915,30.43358],[-96.87076,30.43101],[-96.87039,30.42961],[-96.87381,30.42765],[-96.87303,30.42695],[-96.87404,30.42439],[-96.87756,30.42434],[-96.87803,30.42258],[-96.88091,30.42203],[-96.88435,30.42015],[-96.8889,30.42037],[-96.88939,30.41768],[-96.88511,30.40763],[-96.88527,30.40661],[-96.9087,30.3985],[-96.9107,30.40285],[-96.93185,30.39603]]]}},{"type":"Feature","properties":{"zip_code":"78942"},"geometry":{"type":"MultiPolygon","coordinates":[[[[-97.06357,30.07664],[-97.0638,30.07619],[-97.06168,30.07614],[-97.06134,30.07582],[-97.0603,30.04205],[-97.0343,30.04239],[-97.02446,30.05144],[-97.01916,30.032],[-97.01111,30.03617],[-96.98714,30.04779],[-96.98438,30.04884],[-96.98319,30.0496],[-96.97093,30.06363],[-96.96897,30.06232],[-96.96661,30.05868],[-96.96631,30.05786],[-96.93491,30.07314],[-96.93427,30.07252],[-96.93235,30.06754],[-96.93103,30.06557],[-96.93136,30.06517],[-96.9369,30.06245],[-96.93776,30.06189],[-96.93826,30.06093],[-96.93892,30.06033],[-96.94081,30.0596],[-96.94126,30.05918],[-96.94149,30.05836],[-96.94125,30.05765],[-96.93964,30.05615],[-96.93911,30.05526],[-96.93879,30.05255],[-96.93919,30.05272],[-96.94094,30.05251],[-96.94756,30.05303],[-96.94978,30.05088],[-96.95345,30.04956],[-96.95401,30.04955],[-96.9561,30.05064],[-96.95582,30.04967],[-96.95411,30.04766],[-96.95349,30.04587],[-96.95024,30.04448],[-96.94986,30.04525],[-96.93546,30.03891],[-96.92512,30.04206],[-96.91928,30.04052],[-96.91525,30.04152],[-96.91466,30.04325],[-96.91397,30.04347],[-96.91423,30.05143],[-96.89915,30.05434],[-96.8853,30.058],[-96.88298,30.05888],[-96.88216,30.05894],[-96.86245,30.06503],[-96.86688,30.07272],[-96.86416,30.07456],[-96.86514,30.07587],[-96.86437,30.077],[-96.86729,30.0795],[-96.84763,30.09845],[-96.8446,30.09853],[-96.83911,30.09431],[-96.83656,30.09672],[-96.83602,30.09682],[-96.83502,30.09633],[-96.83433,30.0965],[-96.82604,30.10442],[-96.82437,30.11305],[-96.82451,30.11382],[-96.82604,30.11512],[-96.82606,30.11543],[-96.8247,30.11676],[-96.81908,30.12502],[-96.82657,30.13167],[-96.81816,30.13926],[-96.81863,30.1397],[-96.81052,30.14672],[-96.81114,30.14791],[-96.81218,30.14849],[-96.81254,30.14931],[-96.81228,30.15099],[-96.81238,30.1522],[-96.81146,30.1533],[-96.81141,30.15506],[-96.81241,30.15651],[-96.81415,30.15788],[-96.81307,30.15847],[-96.81263,30.15908],[-96.82131,30.16248],[-96.82532,30.16338],[-96.82346,30.16564],[-96.81767,30.17083],[-96.81917,30.17225],[-96.81858,30.18261],[-96.83019,30.19539],[-96.84606,30.21919],[-96.85776,30.22857],[-96.85839,30.22853],[-96.85889,30.22894],[-96.85944,30.22897],[-96.85998,30.2286],[-96.86025,30.22898],[-96.86045,30.23055],[-96.86237,30.23294],[-96.86243,30.23337],[-96.8631,30.23343],[-96.86359,30.2344],[-96.86424,30.23487],[-96.8643,30.23532],[-96.85859,30.23496],[-96.84858,30.23554],[-96.84555,30.23647],[-96.8415,30.23503],[-96.83434,30.24151],[-96.83226,30.24295],[-96.82901,30.2423],[-96.82318,30.24214],[-96.82,30.2422],[-96.81598,30.24277],[-96.81916,30.24539],[-96.81801,30.24683],[-96.82167,30.24998],[-96.81684,30.25454],[-96.82745,30.26342],[-96.81931,30.26866],[-96.81898,30.26835],[-96.82059,30.26683],[-96.80759,30.25554],[-96.80917,30.25424],[-96.80835,30.25303],[-96.8089,30.25053],[-96.80424,30.24973],[-96.79509,30.25723],[-96.80226,30.26388],[-96.78975,30.27509],[-96.78626,30.27842],[-96.78625,30.27873],[-96.79153,30.28323],[-96.79295,30.28379],[-96.79341,30.28475],[-96.7941,30.28534],[-96.79614,30.28624],[-96.79836,30.28778],[-96.80012,30.28948],[-96.80211,30.29097],[-96.80323,30.29137],[-96.80591,30.29035],[-96.8074,30.29038],[-96.81446,30.29623],[-96.8153,30.29642],[-96.81614,30.29759],[-96.81763,30.2985],[-96.81797,30.29918],[-96.81909,30.30005],[-96.81617,30.3031],[-96.81964,30.30611],[-96.81804,30.30782],[-96.81741,30.30884],[-96.81739,30.30933],[-96.81826,30.30987],[-96.81945,30.30948],[-96.81955,30.31035],[-96.82076,30.31056],[-96.82253,30.31013],[-96.82283,30.30976],[-96.82174,30.30884],[-96.82216,30.30857],[-96.82341,30.30887],[-96.82254,30.30767],[-96.82254,30.30729],[-96.82299,30.30726],[-96.82555,30.3091],[-96.82742,30.30914],[-96.82795,30.30871],[-96.82842,30.30869],[-96.82935,30.30898],[-96.83056,30.30988],[-96.83188,30.30979],[-96.83236,30.31011],[-96.8327,30.31098],[-96.83402,30.31215],[-96.83613,30.31231],[-96.83642,30.31251],[-96.83608,30.31318],[-96.83629,30.31348],[-96.83991,30.31398],[-96.8431,30.31265],[-96.84458,30.31281],[-96.84508,30.31332],[-96.84529,30.31396],[-96.84645,30.31396],[-96.84606,30.31474],[-96.84717,30.31559],[-96.84751,30.3166],[-96.84857,30.31724],[-96.84851,30.31783],[-96.84917,30.31902],[-96.84891,30.31962],[-96.8497,30.32015],[-96.84981,30.32067],[-96.8497,30.32095],[-96.84901,30.32129],[-96.84954,30.32271],[-96.8497,30.32427],[-96.85055,30.32503],[-96.85025,30.32592],[-96.85147,30.32526],[-96.85129,30.32335],[-96.8515,30.32322],[-96.8529,30.32384],[-96.85514,30.32439],[-96.85517,30.32498],[-96.85709,30.3253],[-96.85736,30.32604],[-96.8582,30.32691],[-96.8586,30.32681],[-96.85928,30.32611],[-96.85992,30.32677],[-96.86071,30.32695],[-96.8609,30.32686],[-96.86092,30.32535],[-96.8615,30.32542],[-96.86214,30.32611],[-96.86414,30.32533],[-96.86568,30.32563],[-96.86515,30.3248],[-96.86562,30.32466],[-96.86554,30.32361],[-96.86602,30.32315],[-96.86639,30.32315],[-96.86713,30.32402],[-96.86747,30.32404],[-96.86782,30.32354],[-96.86874,30.32306],[-96.86974,30.32393],[-96.86974,30.32443],[-96.87043,30.32457],[-96.87064,30.32524],[-96.87114,30.32528],[-96.87154,30.32475],[-96.87149,30.32434],[-96.87117,30.32411],[-96.87141,30.3237],[-96.87281,30.32368],[-96.8736,30.32427],[-96.8745,30.32347],[-96.87487,30.32272],[-96.87526,30.3226],[-96.87613,30.32285],[-96.87658,30.32258],[-96.87719,30.32334],[-96.8792,30.3232],[-96.88018,30.32251],[-96.88194,30.32198],[-96.88242,30.32146],[-96.88308,30.32132],[-96.88369,30.32079],[-96.88511,30.32043],[-96.88543,30.32024],[-96.88548,30.31978],[-96.88781,30.31944],[-96.8886,30.31846],[-96.88926,30.31811],[-96.88971,30.31729],[-96.89179,30.31637],[-96.89203,30.31589],[-96.89156,30.31417],[-96.89084,30.31424],[-96.89066,30.31387],[-96.89111,30.31312],[-96.89126,30.31193],[-96.89034,30.31174],[-96.89031,30.31137],[-96.89097,30.31023],[-96.89251,30.30892],[-96.89441,30.30833],[-96.89472,30.30746],[-96.8953,30.30698],[-96.89615,30.30668],[-96.89742,30.30691],[-96.89874,30.30521],[-96.89868,30.30393],[-96.89924,30.30319],[-96.89932,30.30269],[-96.8985,30.30168],[-96.89842,30.30001],[-96.8977,30.29891],[-96.89781,30.29855],[-96.90043,30.29761],[-96.90098,30.29607],[-96.90135,30.2957],[-96.90269,30.29495],[-96.9038,30.29476],[-96.90446,30.29387],[-96.90643,30.29219],[-96.90561,30.2915],[-96.90489,30.28791],[-96.90348,30.2858],[-96.90245,30.28579],[-96.89872,30.28273],[-96.89717,30.28256],[-96.89016,30.27669],[-96.89065,30.27586],[-96.89097,30.27399],[-96.89241,30.27261],[-96.89242,30.27163],[-96.88651,30.2664],[-96.88658,30.26598],[-96.89006,30.26109],[-96.89034,30.26104],[-96.89005,30.26083],[-96.89871,30.2487],[-96.90917,30.25753],[-96.91034,30.25686],[-96.91401,30.25739],[-96.91556,30.25767],[-96.91802,30.25866],[-96.92036,30.25929],[-96.92167,30.25264],[-96.92398,30.25302],[-96.92421,30.25322],[-96.92394,30.25492],[-96.92597,30.25519],[-96.92541,30.25823],[-96.93151,30.25906],[-96.93041,30.26438],[-96.93558,30.26524],[-96.9355,30.26341],[-96.94218,30.26359],[-96.94359,30.26903],[-96.95062,30.26953],[-96.97011,30.27235],[-96.97322,30.27148],[-96.97648,30.27138],[-96.97874,30.2707],[-96.98159,30.2705],[-96.98972,30.26919],[-97.00085,30.26827],[-97.00673,30.26895],[-97.01063,30.27],[-97.01144,30.26292],[-96.99036,30.2455],[-96.99257,30.24252],[-96.99217,30.23365],[-97.01643,30.22937],[-97.02074,30.2327],[-97.02492,30.23176],[-97.02171,30.22681],[-97.02074,30.2259],[-97.01949,30.22518],[-97.02356,30.21549],[-97.02563,30.21548],[-97.02788,30.2127],[-97.02847,30.21079],[-97.02674,30.21004],[-97.01813,30.20871],[-97.01907,30.20289],[-97.01864,30.19935],[-97.01502,30.19871],[-97.01586,30.19324],[-97.0075,30.19204],[-97.00836,30.18516],[-97.01136,30.18403],[-97.01978,30.18306],[-97.02805,30.18286],[-97.03193,30.18354],[-97.03208,30.18289],[-97.03357,30.18318],[-97.03375,30.18268],[-97.035,30.18195],[-97.03819,30.17899],[-97.03864,30.17839],[-97.03881,30.17763],[-97.03932,30.17726],[-97.04095,30.17695],[-97.04197,30.17753],[-97.04471,30.17647],[-97.04478,30.17598],[-97.04416,30.17428],[-97.04443,30.17357],[-97.04402,30.17223],[-97.05162,30.17094],[-97.04959,30.16231],[-97.04884,30.16235],[-97.04768,30.16049],[-97.05419,30.1598],[-97.04821,30.13795],[-97.0549,30.13783],[-97.05904,30.1381],[-97.06321,30.13802],[-97.06138,30.07936],[-97.06155,30.07888],[-97.06315,30.07734],[-97.06357,30.07664]]],[[[-97.03301,30.28322],[-97.03108,30.2785],[-97.03166,30.27764],[-97.03132,30.27742],[-97.02517,30.27525],[-97.02139,30.2742],[-97.01784,30.27228],[-97.01418,30.27144],[-97.01063,30.27],[-97.00961,30.27375],[-97.00836,30.2807],[-97.00606,30.28047],[-97.00539,30.28122],[-97.00261,30.28158],[-97.00149,30.28116],[-97.00008,30.28115],[-96.99868,30.28203],[-96.99812,30.2828],[-96.99644,30.28289],[-96.99565,30.28251],[-96.99362,30.28341],[-96.9921,30.28325],[-96.99024,30.28497],[-96.98799,30.28633],[-96.98667,30.2886],[-96.98428,30.29134],[-96.98312,30.29207],[-96.98296,30.29253],[-96.9833,30.29308],[-96.98477,30.29417],[-96.98452,30.29554],[-96.98581,30.29548],[-96.98686,30.29488],[-96.98763,30.29511],[-96.9884,30.29726],[-96.99164,30.29655],[-96.99341,30.29689],[-96.99428,30.29682],[-96.99484,30.29572],[-96.9941,30.29515],[-96.99428,30.29469],[-96.99758,30.29398],[-96.99842,30.29416],[-96.99898,30.29528],[-96.99964,30.29799],[-97.00026,30.29876],[-97.00026,30.29955],[-97.00096,30.29996],[-97.00165,30.29992],[-97.00424,30.29816],[-97.0049,30.29619],[-97.00556,30.29587],[-97.0068,30.29036],[-97.02206,30.28578],[-97.02247,30.28583],[-97.02349,30.28542],[-97.02352,30.28508],[-97.02774,30.28352],[-97.02843,30.28483],[-97.03301,30.28322]]]]}},{"type":"Feature","properties":{"zip_code":"78946"},"geometry":{"type":"Polygon","coordinates":[[[-96.86731,30.07946],[-96.86442,30.07711],[-96.86514,30.07587],[-96.86414,30.07466],[-96.86688,30.07272],[-96.8564,30.05487],[-96.86148,30.05083],[-96.86154,30.04767],[-96.86077,30.04699],[-96.85891,30.04782],[-96.85672,30.04768],[-96.84823,30.04377],[-96.83918,30.04358],[-96.83604,30.04233],[-96.83363,30.04049],[-96.8368,30.03607],[-96.83093,30.03127],[-96.83372,30.02824],[-96.81618,30.01434],[-96.81442,30.01587],[-96.81336,30.01515],[-96.80812,30.02019],[-96.8098,30.02133],[-96.78591,30.044],[-96.80289,30.05728],[-96.79718,30.06275],[-96.79444,30.06199],[-96.79195,30.06309],[-96.78692,30.05959],[-96.7833,30.06308],[-96.78016,30.0607],[-96.77535,30.06542],[-96.76881,30.06044],[-96.76665,30.06275],[-96.76084,30.06368],[-96.75913,30.06544],[-96.75565,30.06306],[-96.75237,30.06506],[-96.74521,30.05949],[-96.74399,30.06012],[-96.74163,30.05821],[-96.73106,30.06796],[-96.72501,30.06343],[-96.71968,30.06838],[-96.72142,30.0721],[-96.72421,30.07137],[-96.72774,30.07205],[-96.72937,30.0726],[-96.73151,30.07512],[-96.73322,30.07535],[-96.73339,30.08263],[-96.73149,30.08591],[-96.7369,30.08907],[-96.7379,30.09076],[-96.73743,30.09369],[-96.73877,30.0947],[-96.73896,30.09633],[-96.74097,30.09926],[-96.7425,30.10035],[-96.74843,30.10239],[-96.75788,30.09807],[-96.75891,30.10116],[-96.76794,30.10482],[-96.77154,30.11057],[-96.77526,30.113],[-96.77913,30.11177],[-96.78417,30.10723],[-96.78646,30.10868],[-96.78714,30.11358],[-96.78527,30.11622],[-96.78864,30.11869],[-96.78843,30.12119],[-96.79111,30.12206],[-96.79158,30.1252],[-96.79247,30.12624],[-96.79202,30.14401],[-96.79258,30.14883],[-96.79204,30.15001],[-96.79108,30.14964],[-96.79062,30.15057],[-96.78497,30.1482],[-96.78067,30.1521],[-96.77302,30.14947],[-96.76694,30.13875],[-96.76591,30.13903],[-96.75981,30.13397],[-96.75646,30.12964],[-96.75091,30.136],[-96.74723,30.14417],[-96.73545,30.14739],[-96.73214,30.14702],[-96.7467,30.15823],[-96.74532,30.15949],[-96.76172,30.17162],[-96.76904,30.17829],[-96.74151,30.19743],[-96.7418,30.19979],[-96.73991,30.20315],[-96.74073,30.20574],[-96.73985,30.20682],[-96.74112,30.20769],[-96.74071,30.20886],[-96.74172,30.21064],[-96.7406,30.21215],[-96.74204,30.21211],[-96.74206,30.21343],[-96.74314,30.21319],[-96.74262,30.21439],[-96.74331,30.21449],[-96.74399,30.21731],[-96.73904,30.22235],[-96.74023,30.22403],[-96.74141,30.22339],[-96.74136,30.22637],[-96.74254,30.227],[-96.73848,30.23101],[-96.73863,30.23248],[-96.73697,30.23188],[-96.73721,30.23322],[-96.73612,30.23536],[-96.73704,30.23623],[-96.73607,30.237],[-96.73524,30.2365],[-96.73483,30.23829],[-96.73402,30.23871],[-96.73534,30.23966],[-96.73407,30.24021],[-96.73448,30.24147],[-96.73304,30.24195],[-96.73165,30.24389],[-96.72992,30.24314],[-96.72893,30.24414],[-96.72795,30.24346],[-96.72651,30.24379],[-96.72529,30.24691],[-96.72311,30.24593],[-96.72202,30.24682],[-96.72177,30.24846],[-96.72099,30.24822],[-96.71831,30.25051],[-96.71512,30.24962],[-96.71482,30.25105],[-96.71383,30.24851],[-96.71442,30.24728],[-96.71232,30.24763],[-96.71214,30.24633],[-96.71088,30.24545],[-96.70774,30.24539],[-96.70663,30.24463],[-96.70575,30.24586],[-96.70157,30.24733],[-96.70059,30.24955],[-96.69711,30.24899],[-96.69656,30.25007],[-96.69528,30.24934],[-96.69439,30.25044],[-96.69269,30.24863],[-96.69104,30.24824],[-96.68899,30.24863],[-96.68727,30.248],[-96.68554,30.24895],[-96.68415,30.25037],[-96.6852,30.25105],[-96.68457,30.25219],[-96.68584,30.25252],[-96.68456,30.25296],[-96.68432,30.25451],[-96.68527,30.25601],[-96.68423,30.25795],[-96.68305,30.25815],[-96.68282,30.25894],[-96.67992,30.25898],[-96.67888,30.26323],[-96.67771,30.26387],[-96.67662,30.26672],[-96.67398,30.26611],[-96.67306,30.26747],[-96.67188,30.26743],[-96.67141,30.26851],[-96.67236,30.26905],[-96.67081,30.26937],[-96.66968,30.2715],[-96.66998,30.27387],[-96.66877,30.27568],[-96.66541,30.27779],[-96.66477,30.27737],[-96.6615,30.27875],[-96.66178,30.27998],[-96.66053,30.28108],[-96.66161,30.28132],[-96.66095,30.28205],[-96.65976,30.28185],[-96.6606,30.28269],[-96.65952,30.28259],[-96.66039,30.28491],[-96.65789,30.28778],[-96.65422,30.2875],[-96.65316,30.28981],[-96.65038,30.29076],[-96.65007,30.292],[-96.64568,30.29143],[-96.64421,30.29327],[-96.64223,30.29355],[-96.64204,30.29549],[-96.64059,30.29672],[-96.64239,30.29707],[-96.64294,30.29826],[-96.64353,30.29704],[-96.64457,30.29683],[-96.64825,30.29826],[-96.64849,30.30014],[-96.65038,30.29912],[-96.65157,30.30062],[-96.6524,30.30024],[-96.65212,30.29927],[-96.6543,30.29946],[-96.65465,30.30021],[-96.65898,30.29932],[-96.65972,30.29874],[-96.65896,30.29779],[-96.6609,30.29801],[-96.66336,30.29561],[-96.66563,30.29648],[-96.66579,30.29721],[-96.66784,30.29718],[-96.6681,30.29836],[-96.66934,30.29902],[-96.66883,30.29967],[-96.67043,30.30005],[-96.67061,30.30075],[-96.66941,30.30324],[-96.67122,30.30261],[-96.67129,30.30369],[-96.67297,30.30454],[-96.6738,30.30393],[-96.67522,30.30535],[-96.67339,30.30652],[-96.6735,30.30761],[-96.67598,30.30769],[-96.67792,30.30981],[-96.68243,30.30922],[-96.68347,30.31136],[-96.68388,30.31032],[-96.68549,30.3116],[-96.68685,30.31714],[-96.69468,30.32019],[-96.69934,30.32076],[-96.70144,30.31959],[-96.70283,30.32037],[-96.70725,30.31759],[-96.71007,30.31872],[-96.71171,30.31807],[-96.71217,30.3189],[-96.71636,30.32015],[-96.71791,30.31978],[-96.71846,30.31871],[-96.72172,30.31857],[-96.72137,30.31945],[-96.72504,30.32175],[-96.72581,30.32332],[-96.72675,30.32298],[-96.73077,30.32429],[-96.73161,30.32309],[-96.73279,30.32413],[-96.73217,30.32309],[-96.73337,30.32259],[-96.73444,30.32371],[-96.73441,30.32203],[-96.73778,30.32089],[-96.73651,30.31996],[-96.7372,30.31912],[-96.73844,30.3205],[-96.73885,30.31926],[-96.74034,30.31865],[-96.74153,30.31963],[-96.74439,30.31885],[-96.74577,30.31896],[-96.74619,30.31974],[-96.74698,30.31956],[-96.74687,30.31855],[-96.74851,30.31907],[-96.74922,30.31834],[-96.74994,30.31866],[-96.74978,30.31964],[-96.75195,30.31878],[-96.75332,30.31965],[-96.75358,30.32096],[-96.75474,30.32119],[-96.75696,30.31945],[-96.75765,30.32023],[-96.75876,30.3192],[-96.76243,30.31902],[-96.7643,30.32234],[-96.76638,30.32374],[-96.76694,30.32544],[-96.77013,30.32521],[-96.77232,30.32712],[-96.77592,30.32538],[-96.78004,30.32531],[-96.78328,30.32378],[-96.78397,30.32268],[-96.78566,30.32289],[-96.78651,30.32164],[-96.783,30.3161],[-96.78044,30.30695],[-96.77912,30.29557],[-96.7802,30.29281],[-96.78294,30.29516],[-96.79441,30.28604],[-96.78619,30.27856],[-96.80226,30.26388],[-96.79509,30.25723],[-96.80424,30.24973],[-96.8089,30.25053],[-96.80835,30.25303],[-96.80917,30.25424],[-96.80759,30.25554],[-96.82059,30.26683],[-96.81931,30.26866],[-96.82745,30.26342],[-96.81684,30.25454],[-96.82167,30.24998],[-96.81801,30.24683],[-96.81916,30.24539],[-96.81598,30.24277],[-96.82318,30.24214],[-96.83226,30.24295],[-96.8415,30.23503],[-96.84555,30.23647],[-96.84858,30.23554],[-96.8643,30.23532],[-96.86045,30.23055],[-96.85998,30.2286],[-96.85776,30.22857],[-96.84606,30.21919],[-96.83019,30.19539],[-96.81858,30.18261],[-96.81917,30.17225],[-96.81767,30.17083],[-96.82532,30.16338],[-96.81263,30.15908],[-96.81415,30.15788],[-96.81141,30.15506],[-96.81254,30.14931],[-96.81052,30.14672],[-96.82657,30.13167],[-96.81908,30.12502],[-96.82606,30.11543],[-96.82437,30.11305],[-96.82604,30.10442],[-96.83433,30.0965],[-96.83656,30.09672],[-96.83911,30.09431],[-96.8446,30.09853],[-96.84763,30.09845],[-96.86731,30.07946]]]}},{"type":"Feature","properties":{"zip_code":"78947"},"geometry":{"type":"Polygon","coordinates":[[[-97.23662,30.42376],[-97.23116,30.41081],[-97.2221,30.41369],[-97.21805,30.41064],[-97.21662,30.40844],[-97.2102,30.40616],[-97.20753,30.40691],[-97.2032,30.40985],[-97.20134,30.40994],[-97.20071,30.40955],[-97.20002,30.40458],[-97.19753,30.4011],[-97.19605,30.40094],[-97.19151,30.40318],[-97.18934,30.39813],[-97.1884,30.39265],[-97.18539,30.38567],[-97.18064,30.3867],[-97.17661,30.38424],[-97.17461,30.3839],[-97.15994,30.38725],[-97.1594,30.38337],[-97.1608,30.38226],[-97.15852,30.37672],[-97.16123,30.37534],[-97.15727,30.36605],[-97.16995,30.36205],[-97.16724,30.35677],[-97.16962,30.3561],[-97.1685,30.35295],[-97.16427,30.35421],[-97.16119,30.34753],[-97.16708,30.34562],[-97.16563,30.34173],[-97.17566,30.33878],[-97.17774,30.34236],[-97.19296,30.33787],[-97.19168,30.33262],[-97.13723,30.29629],[-97.13626,30.29677],[-97.13493,30.30026],[-97.13284,30.30112],[-97.13138,30.30343],[-97.12872,30.30333],[-97.12696,30.30151],[-97.12527,30.30225],[-97.12566,30.30354],[-97.12469,30.30541],[-97.11759,30.30603],[-97.11613,30.30578],[-97.11531,30.30461],[-97.11022,30.30532],[-97.10541,30.30848],[-97.10113,30.30972],[-97.09992,30.30901],[-97.09778,30.30383],[-97.09406,30.30408],[-97.08759,30.30215],[-97.08601,30.30279],[-97.08666,30.30387],[-97.08167,30.30595],[-97.07962,30.30185],[-97.07824,30.30263],[-97.0727,30.30061],[-97.07141,30.29919],[-97.06982,30.30095],[-97.06795,30.30065],[-97.06546,30.30175],[-97.06335,30.30166],[-97.06345,30.30354],[-97.061,30.30445],[-97.06029,30.30629],[-97.05857,30.30594],[-97.05788,30.30688],[-97.05345,30.30493],[-97.05157,30.30227],[-97.05054,30.30327],[-97.05604,30.31611],[-97.05139,30.31684],[-97.05101,30.31592],[-97.0437,30.31886],[-97.04339,30.31794],[-97.04063,30.31826],[-97.03465,30.32017],[-97.03545,30.3224],[-97.02451,30.32518],[-97.02822,30.33428],[-97.00734,30.34115],[-97.00655,30.34721],[-97.00817,30.34781],[-97.00719,30.35027],[-97.00457,30.35005],[-97.00375,30.34796],[-96.99806,30.34863],[-96.99554,30.35008],[-96.99206,30.34787],[-96.9879,30.35407],[-96.98579,30.35314],[-96.98663,30.35202],[-96.986,30.35053],[-96.98771,30.3487],[-96.98422,30.3452],[-96.98182,30.34763],[-96.98023,30.34559],[-96.97733,30.34708],[-96.97666,30.34776],[-96.97994,30.35635],[-96.97526,30.35782],[-96.97734,30.36261],[-96.97422,30.36368],[-96.97468,30.36474],[-96.97224,30.36566],[-96.97483,30.37189],[-96.97384,30.37288],[-96.97498,30.37455],[-96.94837,30.38322],[-96.94221,30.38596],[-96.94624,30.3963],[-96.94091,30.39843],[-96.94251,30.40193],[-96.93673,30.40368],[-96.93795,30.40672],[-96.93111,30.40877],[-96.93185,30.39603],[-96.9107,30.40285],[-96.9087,30.3985],[-96.88527,30.40661],[-96.88511,30.40763],[-96.88939,30.41768],[-96.8889,30.42037],[-96.88435,30.42015],[-96.88091,30.42203],[-96.87803,30.42258],[-96.87756,30.42434],[-96.87404,30.42439],[-96.87303,30.42695],[-96.87381,30.42765],[-96.87039,30.42961],[-96.87076,30.43101],[-96.86939,30.43339],[-96.86806,30.434],[-96.87068,30.4355],[-96.87214,30.43796],[-96.87248,30.43899],[-96.87081,30.44163],[-96.87239,30.44447],[-96.87711,30.44769],[-96.87727,30.44937],[-96.87601,30.4488],[-96.87397,30.44943],[-96.87541,30.45064],[-96.87721,30.45023],[-96.8763,30.45261],[-96.87483,30.45323],[-96.87584,30.45536],[-96.87467,30.45622],[-96.87487,30.45767],[-96.87811,30.45715],[-96.87968,30.45808],[-96.87875,30.45921],[-96.8808,30.45954],[-96.88135,30.46105],[-96.88396,30.46193],[-96.88464,30.46138],[-96.88406,30.46066],[-96.88592,30.45985],[-96.887,30.46026],[-96.88718,30.46185],[-96.89398,30.45987],[-96.89605,30.46042],[-96.89855,30.45928],[-96.89987,30.46039],[-96.89798,30.46117],[-96.90011,30.46192],[-96.89994,30.46303],[-96.90172,30.46432],[-96.90174,30.46657],[-96.90272,30.46737],[-96.90475,30.46658],[-96.90445,30.46817],[-96.902,30.46804],[-96.902,30.46946],[-96.90575,30.46988],[-96.90523,30.47051],[-96.9058,30.4722],[-96.90489,30.47208],[-96.90384,30.47372],[-96.90188,30.48181],[-96.8967,30.48408],[-96.89577,30.48701],[-96.89668,30.48827],[-96.89591,30.4892],[-96.89773,30.48993],[-96.89983,30.49564],[-96.89931,30.49704],[-96.90123,30.49921],[-96.90415,30.50089],[-96.90874,30.502],[-96.90621,30.50321],[-96.90449,30.50748],[-96.9043,30.50864],[-96.90609,30.51264],[-96.90401,30.51283],[-96.90334,30.51216],[-96.90223,30.5142],[-96.90279,30.51493],[-96.90464,30.5142],[-96.90666,30.51446],[-96.90593,30.51584],[-96.90462,30.5159],[-96.90424,30.51884],[-96.9056,30.51862],[-96.90618,30.517],[-96.90797,30.51737],[-96.90893,30.52012],[-96.90833,30.52147],[-96.90912,30.52271],[-96.91038,30.5231],[-96.9111,30.52251],[-96.91238,30.5235],[-96.9119,30.52744],[-96.91342,30.52848],[-96.91305,30.53003],[-96.91444,30.53037],[-96.91633,30.53577],[-96.91842,30.53719],[-96.91891,30.53924],[-96.92072,30.53999],[-96.9224,30.53967],[-96.92571,30.54348],[-96.92651,30.54339],[-96.92692,30.5422],[-96.92922,30.54451],[-96.92975,30.54316],[-96.93297,30.54292],[-96.93666,30.5448],[-96.93904,30.54479],[-96.93953,30.54661],[-96.94165,30.54634],[-96.94308,30.547],[-96.94292,30.54535],[-96.94533,30.54326],[-96.94709,30.54469],[-96.94896,30.54503],[-96.94819,30.54646],[-96.94891,30.5478],[-96.95095,30.54737],[-96.95191,30.54866],[-96.95439,30.54925],[-96.95644,30.55125],[-96.95643,30.55219],[-96.95945,30.55137],[-96.9619,30.55195],[-96.96363,30.5572],[-97.15522,30.45734],[-97.22302,30.43657],[-97.21823,30.42538],[-97.22369,30.42356],[-97.22109,30.41751],[-97.22191,30.41725],[-97.22388,30.41893],[-97.22647,30.41982],[-97.22811,30.41948],[-97.23003,30.41744],[-97.23125,30.41989],[-97.23339,30.42016],[-97.23419,30.42145],[-97.23387,30.42213],[-97.22988,30.42324],[-97.23176,30.42571],[-97.2357,30.42626],[-97.23662,30.42376]]]}},{"type":"Feature","properties":{"zip_code":"78948"},"geometry":{"type":"Polygon","coordinates":[[[-97.08331,30.30518],[-97.08176,30.30119],[-97.07917,30.298],[-97.07408,30.29554],[-97.071,30.29126],[-97.05908,30.288],[-97.05832,30.28528],[-97.05956,30.28459],[-97.05813,30.28347],[-97.05959,30.28218],[-97.05856,30.28143],[-97.05843,30.27996],[-97.05544,30.27959],[-97.05576,30.27856],[-97.05413,30.27638],[-97.0499,30.27492],[-97.05096,30.27313],[-97.05445,30.27352],[-97.05355,30.27205],[-97.05463,30.27118],[-97.05366,30.26992],[-97.05429,30.26777],[-97.05817,30.26575],[-97.05923,30.26433],[-97.05795,30.25756],[-97.05676,30.25699],[-97.05287,30.25788],[-97.05033,30.25238],[-97.04324,30.24716],[-97.04047,30.24086],[-97.0351,30.23869],[-97.03148,30.23056],[-97.02074,30.2327],[-97.01643,30.22937],[-96.99217,30.23365],[-96.99257,30.24252],[-96.99036,30.2455],[-97.01144,30.26292],[-97.01063,30.27],[-97.03132,30.27742],[-97.03108,30.2785],[-97.03301,30.28322],[-97.02843,30.28483],[-97.02774,30.28352],[-97.02247,30.28583],[-97.0068,30.29036],[-97.00556,30.29587],[-97.00424,30.29816],[-97.00204,30.29981],[-97.00026,30.29955],[-96.99798,30.294],[-96.99428,30.29469],[-96.99484,30.29572],[-96.99428,30.29682],[-96.9884,30.29726],[-96.98763,30.29511],[-96.98452,30.29554],[-96.98479,30.29423],[-96.98305,30.29215],[-96.98806,30.28625],[-96.9921,30.28325],[-96.99812,30.2828],[-97.00008,30.28115],[-97.00261,30.28158],[-97.00539,30.28122],[-97.00606,30.28047],[-97.00836,30.2807],[-97.01063,30.27],[-97.00085,30.26827],[-96.98972,30.26919],[-96.97011,30.27235],[-96.94359,30.26903],[-96.94218,30.26359],[-96.9355,30.26341],[-96.93558,30.26524],[-96.93041,30.26438],[-96.93151,30.25906],[-96.92541,30.25823],[-96.92597,30.25519],[-96.92394,30.25492],[-96.92398,30.25302],[-96.92167,30.25264],[-96.92036,30.25929],[-96.91401,30.25739],[-96.91034,30.25686],[-96.90917,30.25753],[-96.89871,30.2487],[-96.88651,30.2664],[-96.89242,30.27163],[-96.89016,30.27669],[-96.89717,30.28256],[-96.89872,30.28273],[-96.90245,30.28579],[-96.90348,30.2858],[-96.90643,30.29219],[-96.9038,30.29476],[-96.90135,30.2957],[-96.90043,30.29761],[-96.8977,30.2987],[-96.89932,30.30269],[-96.89874,30.30521],[-96.89742,30.30691],[-96.8953,30.30698],[-96.89063,30.31073],[-96.89034,30.31174],[-96.89126,30.31193],[-96.89071,30.31415],[-96.89156,30.31417],[-96.89179,30.31637],[-96.88971,30.31729],[-96.88781,30.31944],[-96.88548,30.31978],[-96.87897,30.3232],[-96.88571,30.32859],[-96.88643,30.32782],[-96.90117,30.34016],[-96.90304,30.33973],[-96.90385,30.34051],[-96.89959,30.3457],[-96.90577,30.36057],[-96.90809,30.35931],[-96.90796,30.35849],[-96.91279,30.35611],[-96.92055,30.35636],[-96.92478,30.35856],[-96.92587,30.37074],[-96.92458,30.37871],[-96.92577,30.38359],[-96.93157,30.39384],[-96.93111,30.40877],[-96.93795,30.40672],[-96.93673,30.40368],[-96.94251,30.40193],[-96.94091,30.39843],[-96.94624,30.3963],[-96.94221,30.38596],[-96.94837,30.38322],[-96.97498,30.37455],[-96.97384,30.37288],[-96.97483,30.37189],[-96.97224,30.36566],[-96.97468,30.36474],[-96.97422,30.36368],[-96.97734,30.36261],[-96.97526,30.35782],[-96.97994,30.35635],[-96.97666,30.34776],[-96.97794,30.34664],[-96.98023,30.34559],[-96.98182,30.34763],[-96.98383,30.3452],[-96.98483,30.34561],[-96.98779,30.34897],[-96.986,30.35053],[-96.98663,30.35202],[-96.98582,30.35335],[-96.9879,30.35407],[-96.99206,30.34787],[-96.99554,30.35008],[-96.99806,30.34863],[-97.00375,30.34796],[-97.00457,30.35005],[-97.00719,30.35027],[-97.00817,30.34781],[-97.00655,30.34721],[-97.00734,30.34115],[-97.02822,30.33428],[-97.02451,30.32518],[-97.03545,30.3224],[-97.03465,30.32017],[-97.04063,30.31826],[-97.04339,30.31794],[-97.0437,30.31886],[-97.05101,30.31592],[-97.05139,30.31684],[-97.05604,30.31611],[-97.05054,30.30327],[-97.05157,30.30227],[-97.05345,30.30493],[-97.05788,30.30688],[-97.05857,30.30594],[-97.06029,30.30629],[-97.061,30.30445],[-97.06345,30.30354],[-97.06335,30.30166],[-97.06546,30.30175],[-97.06795,30.30065],[-97.06982,30.30095],[-97.07141,30.29919],[-97.0727,30.30061],[-97.07824,30.30263],[-97.07962,30.30185],[-97.08167,30.30595],[-97.08331,30.30518]]]}}]}